{"type":"FeatureCollection","features":[{"type":"Feature","properties":{"id":"uk-osm-logistics-relation-14875697","name":"Birmingham Intermodal Freight Terminal","hub_type":"rail_cargo_station","operator_classification":"other","source_operator":"","osm_type":"relation","osm_id":"14875697","railway":"container_terminal","landuse":"industrial","industrial":"","amenity":"","freight":"","importance_rank":3,"importance":"national_core"},"geometry":{"type":"Point","coordinates":[-1.6340147,52.5907698]}},{"type":"Feature","properties":{"id":"uk-osm-logistics-way-1502729037","name":"Daventry International Rail Freight Terminal (DIRFT)","hub_type":"rail_cargo_station","operator_classification":"other","source_operator":"","osm_type":"way","osm_id":"1502729037","railway":"container_terminal","landuse":"industrial","industrial":"","amenity":"","freight":"","importance_rank":3,"importance":"national_core"},"geometry":{"type":"Point","coordinates":[-1.1674258,52.3477059]}},{"type":"Feature","properties":{"id":"uk-osm-logistics-relation-13598081","name":"Daventry International Rail Freight Terminal (DIRFT)","hub_type":"rail_cargo_station","operator_classification":"other","source_operator":"","osm_type":"relation","osm_id":"13598081","railway":"container_terminal","landuse":"industrial","industrial":"","amenity":"","freight":"","importance_rank":3,"importance":"national_core"},"geometry":{"type":"Point","coordinates":[-1.1756262,52.3578998]}},{"type":"Feature","properties":{"id":"uk-osm-logistics-relation-13598450","name":"Doncaster Railport","hub_type":"rail_cargo_station","operator_classification":"other","source_operator":"","osm_type":"relation","osm_id":"13598450","railway":"container_terminal","landuse":"industrial","industrial":"","amenity":"","freight":"","importance_rank":3,"importance":"national_core"},"geometry":{"type":"Point","coordinates":[-1.1214643,53.5059091]}},{"type":"Feature","properties":{"id":"uk-osm-logistics-relation-14361924","name":"Freightliner Leeds Terminal","hub_type":"rail_cargo_station","operator_classification":"private","source_operator":"Freightliner","osm_type":"relation","osm_id":"14361924","railway":"container_terminal","landuse":"industrial","industrial":"","amenity":"","freight":"","importance_rank":3,"importance":"national_core"},"geometry":{"type":"Point","coordinates":[-1.5093558,53.7685496]}},{"type":"Feature","properties":{"id":"uk-osm-logistics-way-49499353","name":"Hams Hall Rail Freight Terminal","hub_type":"rail_cargo_station","operator_classification":"private","source_operator":"Associated British Ports","osm_type":"way","osm_id":"49499353","railway":"container_terminal","landuse":"industrial","industrial":"intermodal_freight_terminal","amenity":"","freight":"","importance_rank":3,"importance":"national_core"},"geometry":{"type":"Point","coordinates":[-1.7037034,52.5178327]}},{"type":"Feature","properties":{"id":"uk-osm-logistics-relation-14875708","name":"Liverpool Terminal","hub_type":"rail_cargo_station","operator_classification":"private","source_operator":"Freightliner","osm_type":"relation","osm_id":"14875708","railway":"container_terminal","landuse":"railway","industrial":"","amenity":"","freight":"","importance_rank":3,"importance":"national_core"},"geometry":{"type":"Point","coordinates":[-2.9026201,53.3535482]}},{"type":"Feature","properties":{"id":"uk-osm-logistics-relation-13934639","name":"Manchester Container Terminal","hub_type":"rail_cargo_station","operator_classification":"other","source_operator":"","osm_type":"relation","osm_id":"13934639","railway":"container_terminal","landuse":"industrial","industrial":"","amenity":"","freight":"","importance_rank":3,"importance":"national_core"},"geometry":{"type":"Point","coordinates":[-2.3045401,53.4581529]}},{"type":"Feature","properties":{"id":"uk-osm-logistics-way-1313859093","name":"Needlefield Depot","hub_type":"rail_cargo_station","operator_classification":"private","source_operator":"Russell Logistics / DRS","osm_type":"way","osm_id":"1313859093","railway":"container_terminal","landuse":"industrial","industrial":"logistics","amenity":"","freight":"","importance_rank":3,"importance":"national_core"},"geometry":{"type":"Point","coordinates":[-4.2189792,57.4827045]}},{"type":"Feature","properties":{"id":"uk-osm-logistics-relation-13934640","name":"Trafford Park Euroterminal","hub_type":"rail_cargo_station","operator_classification":"other","source_operator":"","osm_type":"relation","osm_id":"13934640","railway":"container_terminal","landuse":"industrial","industrial":"","amenity":"","freight":"","importance_rank":3,"importance":"national_core"},"geometry":{"type":"Point","coordinates":[-2.2999431,53.4623201]}},{"type":"Feature","properties":{"id":"uk-osm-logistics-way-1396243805","name":"OSM logistics facility way/1396243805","hub_type":"rail_cargo_station","operator_classification":"other","source_operator":"","osm_type":"way","osm_id":"1396243805","railway":"container_terminal","landuse":"","industrial":"","amenity":"","freight":"","importance_rank":3,"importance":"national_core"},"geometry":{"type":"Point","coordinates":[-0.9130285,52.1839791]}},{"type":"Feature","properties":{"id":"uk-osm-logistics-way-836939685","name":"AC Sidings","hub_type":"rail_cargo_station","operator_classification":"other","source_operator":"","osm_type":"way","osm_id":"836939685","railway":"yard","landuse":"railway","industrial":"","amenity":"","freight":"","importance_rank":2,"importance":"regional_core"},"geometry":{"type":"Point","coordinates":[-0.0827978,51.3907845]}},{"type":"Feature","properties":{"id":"uk-osm-logistics-node-10209247164","name":"Abbey Foregate Yard","hub_type":"rail_cargo_station","operator_classification":"other","source_operator":"","osm_type":"node","osm_id":"10209247164","railway":"yard","landuse":"","industrial":"","amenity":"","freight":"","importance_rank":2,"importance":"regional_core"},"geometry":{"type":"Point","coordinates":[-2.744683,52.7098105]}},{"type":"Feature","properties":{"id":"uk-osm-logistics-way-916365468","name":"Aberdeen Craiginches Yard","hub_type":"rail_cargo_station","operator_classification":"other","source_operator":"","osm_type":"way","osm_id":"916365468","railway":"yard","landuse":"railway","industrial":"","amenity":"","freight":"","importance_rank":2,"importance":"regional_core"},"geometry":{"type":"Point","coordinates":[-2.0850161,57.1290985]}},{"type":"Feature","properties":{"id":"uk-osm-logistics-way-1099742687","name":"Acton Works","hub_type":"rail_cargo_station","operator_classification":"private","source_operator":"Transport for London","osm_type":"way","osm_id":"1099742687","railway":"yard","landuse":"railway","industrial":"","amenity":"","freight":"","importance_rank":2,"importance":"regional_core"},"geometry":{"type":"Point","coordinates":[-0.2769485,51.4977628]}},{"type":"Feature","properties":{"id":"uk-osm-logistics-node-8408154311","name":"Allerton Depot","hub_type":"rail_cargo_station","operator_classification":"other","source_operator":"","osm_type":"node","osm_id":"8408154311","railway":"yard","landuse":"","industrial":"","amenity":"","freight":"","importance_rank":2,"importance":"regional_core"},"geometry":{"type":"Point","coordinates":[-2.8810782,53.3575217]}},{"type":"Feature","properties":{"id":"uk-osm-logistics-node-9954546853","name":"Alstom","hub_type":"rail_cargo_station","operator_classification":"other","source_operator":"","osm_type":"node","osm_id":"9954546853","railway":"yard","landuse":"","industrial":"","amenity":"","freight":"","importance_rank":2,"importance":"regional_core"},"geometry":{"type":"Point","coordinates":[-1.4592774,52.9088625]}},{"type":"Feature","properties":{"id":"uk-osm-logistics-node-8199871353","name":"Anchor Sidings","hub_type":"rail_cargo_station","operator_classification":"private","source_operator":"British Steel LTD","osm_type":"node","osm_id":"8199871353","railway":"yard","landuse":"","industrial":"","amenity":"","freight":"","importance_rank":2,"importance":"regional_core"},"geometry":{"type":"Point","coordinates":[-0.6129978,53.5975169]}},{"type":"Feature","properties":{"id":"uk-osm-logistics-way-558631770","name":"Ardgay Civil Engineer's Sidings","hub_type":"rail_cargo_station","operator_classification":"public","source_operator":"Network Rail","osm_type":"way","osm_id":"558631770","railway":"yard","landuse":"railway","industrial":"","amenity":"","freight":"","importance_rank":2,"importance":"regional_core"},"geometry":{"type":"Point","coordinates":[-4.3610795,57.8802149]}},{"type":"Feature","properties":{"id":"uk-osm-logistics-way-1262317738","name":"Ardwick Train Maintenance Depot","hub_type":"rail_cargo_station","operator_classification":"private","source_operator":"Siemens","osm_type":"way","osm_id":"1262317738","railway":"yard","landuse":"railway","industrial":"","amenity":"","freight":"","importance_rank":2,"importance":"regional_core"},"geometry":{"type":"Point","coordinates":[-2.2075056,53.4719134]}},{"type":"Feature","properties":{"id":"uk-osm-logistics-way-443197665","name":"Arthur Oakley Transport","hub_type":"truck_terminal","operator_classification":"other","source_operator":"","osm_type":"way","osm_id":"443197665","railway":"","landuse":"","industrial":"logistics","amenity":"","freight":"","importance_rank":2,"importance":"regional_core"},"geometry":{"type":"Point","coordinates":[-2.6846105,52.0351262]}},{"type":"Feature","properties":{"id":"uk-osm-logistics-node-9981604085","name":"Asfordby Depot","hub_type":"rail_cargo_station","operator_classification":"other","source_operator":"","osm_type":"node","osm_id":"9981604085","railway":"yard","landuse":"","industrial":"","amenity":"","freight":"","importance_rank":2,"importance":"regional_core"},"geometry":{"type":"Point","coordinates":[-0.9270786,52.7746264]}},{"type":"Feature","properties":{"id":"uk-osm-logistics-node-10221271260","name":"Ashford Train Depot","hub_type":"rail_cargo_station","operator_classification":"other","source_operator":"","osm_type":"node","osm_id":"10221271260","railway":"yard","landuse":"","industrial":"","amenity":"","freight":"","importance_rank":2,"importance":"regional_core"},"geometry":{"type":"Point","coordinates":[0.8831654,51.1408595]}},{"type":"Feature","properties":{"id":"uk-osm-logistics-node-8384972364","name":"Axiom Rail","hub_type":"rail_cargo_station","operator_classification":"other","source_operator":"","osm_type":"node","osm_id":"8384972364","railway":"yard","landuse":"","industrial":"","amenity":"","freight":"","importance_rank":2,"importance":"regional_core"},"geometry":{"type":"Point","coordinates":[-2.1797325,52.9919505]}},{"type":"Feature","properties":{"id":"uk-osm-logistics-way-97252917","name":"Axiom Rail","hub_type":"rail_cargo_station","operator_classification":"other","source_operator":"","osm_type":"way","osm_id":"97252917","railway":"yard","landuse":"industrial","industrial":"","amenity":"","freight":"","importance_rank":2,"importance":"regional_core"},"geometry":{"type":"Point","coordinates":[-2.1800562,52.9923739]}},{"type":"Feature","properties":{"id":"uk-osm-logistics-node-9419508833","name":"Aylesbury DMU Depot","hub_type":"rail_cargo_station","operator_classification":"other","source_operator":"","osm_type":"node","osm_id":"9419508833","railway":"yard","landuse":"","industrial":"","amenity":"","freight":"","importance_rank":2,"importance":"regional_core"},"geometry":{"type":"Point","coordinates":[-0.8175005,51.814192]}},{"type":"Feature","properties":{"id":"uk-osm-logistics-node-9370005411","name":"BMW Car Terminal","hub_type":"rail_cargo_station","operator_classification":"other","source_operator":"","osm_type":"node","osm_id":"9370005411","railway":"yard","landuse":"","industrial":"","amenity":"","freight":"","importance_rank":2,"importance":"regional_core"},"geometry":{"type":"Point","coordinates":[-1.1860868,51.7327117]}},{"type":"Feature","properties":{"id":"uk-osm-logistics-node-8602363665","name":"Balm Lane Goods Depot","hub_type":"rail_cargo_station","operator_classification":"other","source_operator":"","osm_type":"node","osm_id":"8602363665","railway":"yard","landuse":"","industrial":"","amenity":"","freight":"","importance_rank":2,"importance":"regional_core"},"geometry":{"type":"Point","coordinates":[-1.5273445,53.7742836]}},{"type":"Feature","properties":{"id":"uk-osm-logistics-node-10022685735","name":"Barassie Overhead Line Depot","hub_type":"rail_cargo_station","operator_classification":"other","source_operator":"","osm_type":"node","osm_id":"10022685735","railway":"yard","landuse":"","industrial":"","amenity":"","freight":"","importance_rank":2,"importance":"regional_core"},"geometry":{"type":"Point","coordinates":[-4.6495516,55.5551497]}},{"type":"Feature","properties":{"id":"uk-osm-logistics-node-9471442184","name":"Barking Freightliner Terminal","hub_type":"rail_cargo_station","operator_classification":"other","source_operator":"","osm_type":"node","osm_id":"9471442184","railway":"yard","landuse":"","industrial":"","amenity":"","freight":"","importance_rank":2,"importance":"regional_core"},"geometry":{"type":"Point","coordinates":[0.1264666,51.5275738]}},{"type":"Feature","properties":{"id":"uk-osm-logistics-node-6020086183","name":"Barton Hill Depot","hub_type":"rail_cargo_station","operator_classification":"other","source_operator":"","osm_type":"node","osm_id":"6020086183","railway":"yard","landuse":"","industrial":"","amenity":"","freight":"","importance_rank":2,"importance":"regional_core"},"geometry":{"type":"Point","coordinates":[-2.5709108,51.4530041]}},{"type":"Feature","properties":{"id":"uk-osm-logistics-node-13056884152","name":"Barton Mill Carriage Servicing Depot","hub_type":"rail_cargo_station","operator_classification":"private","source_operator":"South Western Railway","osm_type":"node","osm_id":"13056884152","railway":"yard","landuse":"","industrial":"","amenity":"","freight":"","importance_rank":2,"importance":"regional_core"},"geometry":{"type":"Point","coordinates":[-1.0800642,51.2697934]}},{"type":"Feature","properties":{"id":"uk-osm-logistics-node-8445869638","name":"Basford Hall Sidings","hub_type":"rail_cargo_station","operator_classification":"other","source_operator":"","osm_type":"node","osm_id":"8445869638","railway":"yard","landuse":"","industrial":"","amenity":"","freight":"","importance_rank":2,"importance":"regional_core"},"geometry":{"type":"Point","coordinates":[-2.4285531,53.0756174]}},{"type":"Feature","properties":{"id":"uk-osm-logistics-node-8626605172","name":"Bathgate Depot","hub_type":"rail_cargo_station","operator_classification":"other","source_operator":"","osm_type":"node","osm_id":"8626605172","railway":"yard","landuse":"","industrial":"","amenity":"","freight":"","importance_rank":2,"importance":"regional_core"},"geometry":{"type":"Point","coordinates":[-3.6347967,55.8961803]}},{"type":"Feature","properties":{"id":"uk-osm-logistics-node-8561511710","name":"Battleship Wharf","hub_type":"rail_cargo_station","operator_classification":"other","source_operator":"","osm_type":"node","osm_id":"8561511710","railway":"yard","landuse":"","industrial":"","amenity":"","freight":"","importance_rank":2,"importance":"regional_core"},"geometry":{"type":"Point","coordinates":[-1.514312,55.1391972]}},{"type":"Feature","properties":{"id":"uk-osm-logistics-way-163558980","name":"Beckton Depot Docklands Light Railway","hub_type":"rail_cargo_station","operator_classification":"private","source_operator":"Docklands Light Railway","osm_type":"way","osm_id":"163558980","railway":"yard","landuse":"railway","industrial":"","amenity":"","freight":"","importance_rank":2,"importance":"regional_core"},"geometry":{"type":"Point","coordinates":[0.0764009,51.5119162]}},{"type":"Feature","properties":{"id":"uk-osm-logistics-node-9415856926","name":"Bedford Cauldwell Walk Depot","hub_type":"rail_cargo_station","operator_classification":"private","source_operator":"Govia Thameslink Railway","osm_type":"node","osm_id":"9415856926","railway":"yard","landuse":"","industrial":"","amenity":"","freight":"","importance_rank":2,"importance":"regional_core"},"geometry":{"type":"Point","coordinates":[-0.4762239,52.1251133]}},{"type":"Feature","properties":{"id":"uk-osm-logistics-node-9415856925","name":"Bedford Jowett Sidings","hub_type":"rail_cargo_station","operator_classification":"other","source_operator":"","osm_type":"node","osm_id":"9415856925","railway":"yard","landuse":"","industrial":"","amenity":"","freight":"","importance_rank":2,"importance":"regional_core"},"geometry":{"type":"Point","coordinates":[-0.4763105,52.1334237]}},{"type":"Feature","properties":{"id":"uk-osm-logistics-node-8733789828","name":"Bedlington/Furnaceway Sidings","hub_type":"rail_cargo_station","operator_classification":"other","source_operator":"","osm_type":"node","osm_id":"8733789828","railway":"yard","landuse":"","industrial":"","amenity":"","freight":"","importance_rank":2,"importance":"regional_core"},"geometry":{"type":"Point","coordinates":[-1.565657,55.1372598]}},{"type":"Feature","properties":{"id":"uk-osm-logistics-relation-17005916","name":"Bellingham Carriage Sidings","hub_type":"rail_cargo_station","operator_classification":"other","source_operator":"","osm_type":"relation","osm_id":"17005916","railway":"yard","landuse":"","industrial":"","amenity":"","freight":"","importance_rank":2,"importance":"regional_core"},"geometry":{"type":"Point","coordinates":[-0.0183404,51.4302421]}},{"type":"Feature","properties":{"id":"uk-osm-logistics-node-9973370911","name":"Bescot Rail Depot","hub_type":"rail_cargo_station","operator_classification":"other","source_operator":"","osm_type":"node","osm_id":"9973370911","railway":"yard","landuse":"","industrial":"","amenity":"","freight":"","importance_rank":2,"importance":"regional_core"},"geometry":{"type":"Point","coordinates":[-1.9857332,52.5600096]}},{"type":"Feature","properties":{"id":"uk-osm-logistics-node-7841275164","name":"Birkdale Sidings","hub_type":"rail_cargo_station","operator_classification":"other","source_operator":"","osm_type":"node","osm_id":"7841275164","railway":"yard","landuse":"","industrial":"","amenity":"","freight":"","importance_rank":2,"importance":"regional_core"},"geometry":{"type":"Point","coordinates":[-2.9995132,53.644083]}},{"type":"Feature","properties":{"id":"uk-osm-logistics-node-8408101597","name":"Birkenhead North TMD","hub_type":"rail_cargo_station","operator_classification":"other","source_operator":"","osm_type":"node","osm_id":"8408101597","railway":"yard","landuse":"","industrial":"","amenity":"","freight":"","importance_rank":2,"importance":"regional_core"},"geometry":{"type":"Point","coordinates":[-3.0599491,53.4062292]}},{"type":"Feature","properties":{"id":"uk-osm-logistics-node-8454596168","name":"Birmingham Intermodal Freight Terminal","hub_type":"rail_cargo_station","operator_classification":"other","source_operator":"","osm_type":"node","osm_id":"8454596168","railway":"yard","landuse":"","industrial":"","amenity":"","freight":"","importance_rank":2,"importance":"regional_core"},"geometry":{"type":"Point","coordinates":[-1.6320817,52.5911572]}},{"type":"Feature","properties":{"id":"uk-osm-logistics-node-8687743142","name":"Blackburn King Street Traction Maintenance Depot","hub_type":"rail_cargo_station","operator_classification":"other","source_operator":"","osm_type":"node","osm_id":"8687743142","railway":"yard","landuse":"","industrial":"","amenity":"","freight":"","importance_rank":2,"importance":"regional_core"},"geometry":{"type":"Point","coordinates":[-2.4915115,53.7428146]}},{"type":"Feature","properties":{"id":"uk-osm-logistics-node-9990236519","name":"Blackpool Carriage Sidings","hub_type":"rail_cargo_station","operator_classification":"other","source_operator":"","osm_type":"node","osm_id":"9990236519","railway":"yard","landuse":"","industrial":"","amenity":"","freight":"","importance_rank":2,"importance":"regional_core"},"geometry":{"type":"Point","coordinates":[-3.0434777,53.8277834]}},{"type":"Feature","properties":{"id":"uk-osm-logistics-node-9416209399","name":"Bletchley Train Maintenance Depot","hub_type":"rail_cargo_station","operator_classification":"other","source_operator":"","osm_type":"node","osm_id":"9416209399","railway":"yard","landuse":"","industrial":"","amenity":"","freight":"","importance_rank":2,"importance":"regional_core"},"geometry":{"type":"Point","coordinates":[-0.7374358,52.0004696]}},{"type":"Feature","properties":{"id":"uk-osm-logistics-node-8509958521","name":"Boston Lodge Works","hub_type":"rail_cargo_station","operator_classification":"other","source_operator":"","osm_type":"node","osm_id":"8509958521","railway":"yard","landuse":"","industrial":"","amenity":"","freight":"","importance_rank":2,"importance":"regional_core"},"geometry":{"type":"Point","coordinates":[-4.106994,52.9193823]}},{"type":"Feature","properties":{"id":"uk-osm-logistics-node-9464518903","name":"Bounds Green Railway Depot","hub_type":"rail_cargo_station","operator_classification":"private","source_operator":"Hitachi","osm_type":"node","osm_id":"9464518903","railway":"yard","landuse":"","industrial":"","amenity":"","freight":"","importance_rank":2,"importance":"regional_core"},"geometry":{"type":"Point","coordinates":[-0.1229126,51.6016881]}},{"type":"Feature","properties":{"id":"uk-osm-logistics-node-10247529899","name":"Bournemouth Traction and Rolling Stock Maintenance Depot","hub_type":"rail_cargo_station","operator_classification":"other","source_operator":"","osm_type":"node","osm_id":"10247529899","railway":"yard","landuse":"","industrial":"","amenity":"","freight":"","importance_rank":2,"importance":"regional_core"},"geometry":{"type":"Point","coordinates":[-1.9075037,50.7259381]}},{"type":"Feature","properties":{"id":"uk-osm-logistics-node-9447654140","name":"Bow Goods Yard East","hub_type":"rail_cargo_station","operator_classification":"other","source_operator":"","osm_type":"node","osm_id":"9447654140","railway":"yard","landuse":"","industrial":"","amenity":"","freight":"","importance_rank":2,"importance":"regional_core"},"geometry":{"type":"Point","coordinates":[-0.0182081,51.5344155]}},{"type":"Feature","properties":{"id":"uk-osm-logistics-way-272544371","name":"Bow Goods Yard East","hub_type":"rail_cargo_station","operator_classification":"other","source_operator":"","osm_type":"way","osm_id":"272544371","railway":"yard","landuse":"industrial","industrial":"","amenity":"","freight":"","importance_rank":2,"importance":"regional_core"},"geometry":{"type":"Point","coordinates":[-0.0172117,51.5348939]}},{"type":"Feature","properties":{"id":"uk-osm-logistics-node-9447654141","name":"Bow Goods Yard West","hub_type":"rail_cargo_station","operator_classification":"other","source_operator":"","osm_type":"node","osm_id":"9447654141","railway":"yard","landuse":"","industrial":"","amenity":"","freight":"","importance_rank":2,"importance":"regional_core"},"geometry":{"type":"Point","coordinates":[-0.0199494,51.5332685]}},{"type":"Feature","properties":{"id":"uk-osm-logistics-way-952569824","name":"Bow Goods Yard West","hub_type":"rail_cargo_station","operator_classification":"other","source_operator":"","osm_type":"way","osm_id":"952569824","railway":"yard","landuse":"industrial","industrial":"depot","amenity":"","freight":"","importance_rank":2,"importance":"regional_core"},"geometry":{"type":"Point","coordinates":[-0.0201055,51.5331353]}},{"type":"Feature","properties":{"id":"uk-osm-logistics-node-8718714726","name":"Bridgeton Yard","hub_type":"rail_cargo_station","operator_classification":"other","source_operator":"","osm_type":"node","osm_id":"8718714726","railway":"yard","landuse":"","industrial":"","amenity":"","freight":"","importance_rank":2,"importance":"regional_core"},"geometry":{"type":"Point","coordinates":[-4.2140863,55.833733]}},{"type":"Feature","properties":{"id":"uk-osm-logistics-way-139238412","name":"Bridgnorth Motive Power Depot","hub_type":"rail_cargo_station","operator_classification":"other","source_operator":"","osm_type":"way","osm_id":"139238412","railway":"yard","landuse":"","industrial":"","amenity":"","freight":"","importance_rank":2,"importance":"regional_core"},"geometry":{"type":"Point","coordinates":[-2.4214646,52.5311745]}},{"type":"Feature","properties":{"id":"uk-osm-logistics-node-9922482654","name":"Bridgwater Freight Depot","hub_type":"rail_cargo_station","operator_classification":"other","source_operator":"","osm_type":"node","osm_id":"9922482654","railway":"yard","landuse":"","industrial":"","amenity":"","freight":"","importance_rank":2,"importance":"regional_core"},"geometry":{"type":"Point","coordinates":[-2.9912607,51.1302606]}},{"type":"Feature","properties":{"id":"uk-osm-logistics-node-9939324734","name":"Brierley Hill Freight and Steel Terminal","hub_type":"rail_cargo_station","operator_classification":"other","source_operator":"","osm_type":"node","osm_id":"9939324734","railway":"yard","landuse":"","industrial":"","amenity":"","freight":"","importance_rank":2,"importance":"regional_core"},"geometry":{"type":"Point","coordinates":[-2.1314957,52.4801423]}},{"type":"Feature","properties":{"id":"uk-osm-logistics-node-9931453190","name":"Brighton Lovers Walk Depot","hub_type":"rail_cargo_station","operator_classification":"other","source_operator":"","osm_type":"node","osm_id":"9931453190","railway":"yard","landuse":"","industrial":"","amenity":"","freight":"","importance_rank":2,"importance":"regional_core"},"geometry":{"type":"Point","coordinates":[-0.1459061,50.8353614]}},{"type":"Feature","properties":{"id":"uk-osm-logistics-way-1368736894","name":"Bring Cargo","hub_type":"truck_terminal","operator_classification":"other","source_operator":"","osm_type":"way","osm_id":"1368736894","railway":"","landuse":"","industrial":"logistics","amenity":"","freight":"","importance_rank":2,"importance":"regional_core"},"geometry":{"type":"Point","coordinates":[-0.1725161,53.6031928]}},{"type":"Feature","properties":{"id":"uk-osm-logistics-node-9921474625","name":"Bristol East Depot","hub_type":"rail_cargo_station","operator_classification":"other","source_operator":"","osm_type":"node","osm_id":"9921474625","railway":"yard","landuse":"","industrial":"","amenity":"","freight":"","importance_rank":2,"importance":"regional_core"},"geometry":{"type":"Point","coordinates":[-2.5537454,51.4486278]}},{"type":"Feature","properties":{"id":"uk-osm-logistics-node-9921534353","name":"Bristol West Depot","hub_type":"rail_cargo_station","operator_classification":"other","source_operator":"","osm_type":"node","osm_id":"9921534353","railway":"yard","landuse":"","industrial":"","amenity":"","freight":"","importance_rank":2,"importance":"regional_core"},"geometry":{"type":"Point","coordinates":[-2.6184076,51.430016]}},{"type":"Feature","properties":{"id":"uk-osm-logistics-node-5388017541","name":"Brora Civil Engineer's Sidings","hub_type":"rail_cargo_station","operator_classification":"public","source_operator":"Network Rail","osm_type":"node","osm_id":"5388017541","railway":"yard","landuse":"","industrial":"","amenity":"","freight":"","importance_rank":2,"importance":"regional_core"},"geometry":{"type":"Point","coordinates":[-3.8528028,58.0146538]}},{"type":"Feature","properties":{"id":"uk-osm-logistics-node-9397709604","name":"Buckley Wells Loco Yard","hub_type":"rail_cargo_station","operator_classification":"other","source_operator":"","osm_type":"node","osm_id":"9397709604","railway":"yard","landuse":"","industrial":"","amenity":"","freight":"","importance_rank":2,"importance":"regional_core"},"geometry":{"type":"Point","coordinates":[-2.3056832,53.5864516]}},{"type":"Feature","properties":{"id":"uk-osm-logistics-way-371360202","name":"Buffaload Logistics","hub_type":"truck_terminal","operator_classification":"other","source_operator":"","osm_type":"way","osm_id":"371360202","railway":"","landuse":"industrial","industrial":"logistics","amenity":"","freight":"","importance_rank":2,"importance":"regional_core"},"geometry":{"type":"Point","coordinates":[-0.2929234,52.3353001]}},{"type":"Feature","properties":{"id":"uk-osm-logistics-way-1368736890","name":"CBR Logistics","hub_type":"truck_terminal","operator_classification":"other","source_operator":"","osm_type":"way","osm_id":"1368736890","railway":"","landuse":"","industrial":"logistics","amenity":"","freight":"","importance_rank":2,"importance":"regional_core"},"geometry":{"type":"Point","coordinates":[-0.1743475,53.6036315]}},{"type":"Feature","properties":{"id":"uk-osm-logistics-way-174585833","name":"Cadder Depot","hub_type":"rail_cargo_station","operator_classification":"private","source_operator":"ScotRail","osm_type":"way","osm_id":"174585833","railway":"yard","landuse":"railway","industrial":"","amenity":"","freight":"","importance_rank":2,"importance":"regional_core"},"geometry":{"type":"Point","coordinates":[-4.1844747,55.9144816]}},{"type":"Feature","properties":{"id":"uk-osm-logistics-node-10023966591","name":"Caledonian Paper Mill","hub_type":"rail_cargo_station","operator_classification":"other","source_operator":"","osm_type":"node","osm_id":"10023966591","railway":"yard","landuse":"","industrial":"","amenity":"","freight":"","importance_rank":2,"importance":"regional_core"},"geometry":{"type":"Point","coordinates":[-4.6440858,55.5827413]}},{"type":"Feature","properties":{"id":"uk-osm-logistics-node-8600106941","name":"Canklow Freight Terminal","hub_type":"rail_cargo_station","operator_classification":"other","source_operator":"","osm_type":"node","osm_id":"8600106941","railway":"yard","landuse":"","industrial":"","amenity":"","freight":"","importance_rank":2,"importance":"regional_core"},"geometry":{"type":"Point","coordinates":[-1.3693309,53.4163641]}},{"type":"Feature","properties":{"id":"uk-osm-logistics-node-8572098526","name":"Carlisle Kingmoor Traction Maintenance Depot","hub_type":"rail_cargo_station","operator_classification":"other","source_operator":"","osm_type":"node","osm_id":"8572098526","railway":"yard","landuse":"","industrial":"","amenity":"","freight":"","importance_rank":2,"importance":"regional_core"},"geometry":{"type":"Point","coordinates":[-2.9597782,54.9082494]}},{"type":"Feature","properties":{"id":"uk-osm-logistics-way-1270661091","name":"Castle Donnington Distribution Depot","hub_type":"rail_cargo_station","operator_classification":"other","source_operator":"","osm_type":"way","osm_id":"1270661091","railway":"yard","landuse":"railway","industrial":"","amenity":"","freight":"","importance_rank":2,"importance":"regional_core"},"geometry":{"type":"Point","coordinates":[-1.3654765,52.8494362]}},{"type":"Feature","properties":{"id":"uk-osm-logistics-node-9397597945","name":"Castleton Rail Welding Depot","hub_type":"rail_cargo_station","operator_classification":"other","source_operator":"","osm_type":"node","osm_id":"9397597945","railway":"yard","landuse":"","industrial":"","amenity":"","freight":"","importance_rank":2,"importance":"regional_core"},"geometry":{"type":"Point","coordinates":[-2.1843382,53.5877997]}},{"type":"Feature","properties":{"id":"uk-osm-logistics-node-8454818974","name":"Central Rivers Railway Depot","hub_type":"rail_cargo_station","operator_classification":"other","source_operator":"","osm_type":"node","osm_id":"8454818974","railway":"yard","landuse":"","industrial":"","amenity":"","freight":"","importance_rank":2,"importance":"regional_core"},"geometry":{"type":"Point","coordinates":[-1.7044226,52.7551651]}},{"type":"Feature","properties":{"id":"uk-osm-logistics-node-840469342","name":"Chaddesden Sidings","hub_type":"rail_cargo_station","operator_classification":"other","source_operator":"","osm_type":"node","osm_id":"840469342","railway":"yard","landuse":"","industrial":"","amenity":"","freight":"","importance_rank":2,"importance":"regional_core"},"geometry":{"type":"Point","coordinates":[-1.4518518,52.9199308]}},{"type":"Feature","properties":{"id":"uk-osm-logistics-node-10217128151","name":"Chalk Sidings","hub_type":"rail_cargo_station","operator_classification":"other","source_operator":"","osm_type":"node","osm_id":"10217128151","railway":"yard","landuse":"","industrial":"","amenity":"","freight":"","importance_rank":2,"importance":"regional_core"},"geometry":{"type":"Point","coordinates":[-0.0813241,51.3910846]}},{"type":"Feature","properties":{"id":"uk-osm-logistics-way-836939686","name":"Chalk Sidings","hub_type":"rail_cargo_station","operator_classification":"other","source_operator":"","osm_type":"way","osm_id":"836939686","railway":"yard","landuse":"railway","industrial":"","amenity":"","freight":"","importance_rank":2,"importance":"regional_core"},"geometry":{"type":"Point","coordinates":[-0.0816322,51.3909849]}},{"type":"Feature","properties":{"id":"uk-osm-logistics-node-8390236555","name":"Cheddleton","hub_type":"rail_cargo_station","operator_classification":"private","source_operator":"Churnet Valley Railway","osm_type":"node","osm_id":"8390236555","railway":"yard","landuse":"","industrial":"","amenity":"","freight":"","importance_rank":2,"importance":"regional_core"},"geometry":{"type":"Point","coordinates":[-2.0260513,53.0641897]}},{"type":"Feature","properties":{"id":"uk-osm-logistics-node-10175638597","name":"Chester Diesel Multiple Unit Depot","hub_type":"rail_cargo_station","operator_classification":"other","source_operator":"","osm_type":"node","osm_id":"10175638597","railway":"yard","landuse":"","industrial":"","amenity":"","freight":"","importance_rank":2,"importance":"regional_core"},"geometry":{"type":"Point","coordinates":[-2.8849445,53.1997917]}},{"type":"Feature","properties":{"id":"uk-osm-logistics-node-9450396428","name":"Chingford Carriage Sidings","hub_type":"rail_cargo_station","operator_classification":"other","source_operator":"","osm_type":"node","osm_id":"9450396428","railway":"yard","landuse":"","industrial":"","amenity":"","freight":"","importance_rank":2,"importance":"regional_core"},"geometry":{"type":"Point","coordinates":[0.0089228,51.6323511]}},{"type":"Feature","properties":{"id":"uk-osm-logistics-node-9450396429","name":"Chingford Carriage Sidings","hub_type":"rail_cargo_station","operator_classification":"other","source_operator":"","osm_type":"node","osm_id":"9450396429","railway":"yard","landuse":"","industrial":"","amenity":"","freight":"","importance_rank":2,"importance":"regional_core"},"geometry":{"type":"Point","coordinates":[0.0057755,51.6290957]}},{"type":"Feature","properties":{"id":"uk-osm-logistics-node-7847545343","name":"Church Path Turnback Sidings","hub_type":"rail_cargo_station","operator_classification":"other","source_operator":"","osm_type":"node","osm_id":"7847545343","railway":"yard","landuse":"","industrial":"","amenity":"","freight":"","importance_rank":2,"importance":"regional_core"},"geometry":{"type":"Point","coordinates":[0.3341436,51.4405863]}},{"type":"Feature","properties":{"id":"uk-osm-logistics-node-9324290815","name":"Clapham Junction Traincare Depot","hub_type":"rail_cargo_station","operator_classification":"other","source_operator":"","osm_type":"node","osm_id":"9324290815","railway":"yard","landuse":"","industrial":"","amenity":"","freight":"","importance_rank":2,"importance":"regional_core"},"geometry":{"type":"Point","coordinates":[-0.1733467,51.4630658]}},{"type":"Feature","properties":{"id":"uk-osm-logistics-way-972643395","name":"Clapham Traincare Depot","hub_type":"rail_cargo_station","operator_classification":"other","source_operator":"","osm_type":"way","osm_id":"972643395","railway":"yard","landuse":"railway","industrial":"","amenity":"","freight":"","importance_rank":2,"importance":"regional_core"},"geometry":{"type":"Point","coordinates":[-0.1735568,51.4630025]}},{"type":"Feature","properties":{"id":"uk-osm-logistics-way-1083286561","name":"Clayhills Depot","hub_type":"rail_cargo_station","operator_classification":"private","source_operator":"LNER","osm_type":"way","osm_id":"1083286561","railway":"yard","landuse":"railway","industrial":"","amenity":"","freight":"","importance_rank":2,"importance":"regional_core"},"geometry":{"type":"Point","coordinates":[-2.0982235,57.1406855]}},{"type":"Feature","properties":{"id":"uk-osm-logistics-node-7650393696","name":"Coalfield Sidings","hub_type":"rail_cargo_station","operator_classification":"other","source_operator":"","osm_type":"node","osm_id":"7650393696","railway":"yard","landuse":"","industrial":"","amenity":"","freight":"","importance_rank":2,"importance":"regional_core"},"geometry":{"type":"Point","coordinates":[-2.5680893,51.4463142]}},{"type":"Feature","properties":{"id":"uk-osm-logistics-node-10199118946","name":"Cocklebury Sidings","hub_type":"rail_cargo_station","operator_classification":"other","source_operator":"","osm_type":"node","osm_id":"10199118946","railway":"yard","landuse":"","industrial":"","amenity":"","freight":"","importance_rank":2,"importance":"regional_core"},"geometry":{"type":"Point","coordinates":[-1.7803652,51.5675823]}},{"type":"Feature","properties":{"id":"uk-osm-logistics-node-13482092678","name":"Cooper's Metals Sidings","hub_type":"rail_cargo_station","operator_classification":"other","source_operator":"","osm_type":"node","osm_id":"13482092678","railway":"yard","landuse":"","industrial":"","amenity":"","freight":"","importance_rank":2,"importance":"regional_core"},"geometry":{"type":"Point","coordinates":[-1.9547054,52.5018876]}},{"type":"Feature","properties":{"id":"uk-osm-logistics-node-10208183725","name":"Corby Automotive Terminal","hub_type":"rail_cargo_station","operator_classification":"other","source_operator":"","osm_type":"node","osm_id":"10208183725","railway":"yard","landuse":"","industrial":"","amenity":"","freight":"","importance_rank":2,"importance":"regional_core"},"geometry":{"type":"Point","coordinates":[-0.6658634,52.4890802]}},{"type":"Feature","properties":{"id":"uk-osm-logistics-node-8551563006","name":"Coventry Depot","hub_type":"rail_cargo_station","operator_classification":"other","source_operator":"","osm_type":"node","osm_id":"8551563006","railway":"yard","landuse":"","industrial":"","amenity":"","freight":"","importance_rank":2,"importance":"regional_core"},"geometry":{"type":"Point","coordinates":[-1.5231101,52.4025212]}},{"type":"Feature","properties":{"id":"uk-osm-logistics-node-8677603640","name":"Craigentinny Train Maintenance Centre","hub_type":"rail_cargo_station","operator_classification":"other","source_operator":"","osm_type":"node","osm_id":"8677603640","railway":"yard","landuse":"","industrial":"","amenity":"","freight":"","importance_rank":2,"importance":"regional_core"},"geometry":{"type":"Point","coordinates":[-3.1257851,55.9526187]}},{"type":"Feature","properties":{"id":"uk-osm-logistics-node-13200665564","name":"Craiginches Down Sidings","hub_type":"rail_cargo_station","operator_classification":"other","source_operator":"","osm_type":"node","osm_id":"13200665564","railway":"yard","landuse":"","industrial":"","amenity":"","freight":"","importance_rank":2,"importance":"regional_core"},"geometry":{"type":"Point","coordinates":[-2.083607,57.1288302]}},{"type":"Feature","properties":{"id":"uk-osm-logistics-node-13200665565","name":"Craiginches Up Yard","hub_type":"rail_cargo_station","operator_classification":"other","source_operator":"","osm_type":"node","osm_id":"13200665565","railway":"yard","landuse":"","industrial":"","amenity":"","freight":"","importance_rank":2,"importance":"regional_core"},"geometry":{"type":"Point","coordinates":[-2.0842548,57.1289808]}},{"type":"Feature","properties":{"id":"uk-osm-logistics-node-7479546682","name":"Cricklewood South Sidings","hub_type":"rail_cargo_station","operator_classification":"other","source_operator":"","osm_type":"node","osm_id":"7479546682","railway":"yard","landuse":"","industrial":"","amenity":"","freight":"","importance_rank":2,"importance":"regional_core"},"geometry":{"type":"Point","coordinates":[-0.2162448,51.5618328]}},{"type":"Feature","properties":{"id":"uk-osm-logistics-node-8611391196","name":"Crofton Train Maintenance Depot","hub_type":"rail_cargo_station","operator_classification":"other","source_operator":"","osm_type":"node","osm_id":"8611391196","railway":"yard","landuse":"","industrial":"","amenity":"","freight":"","importance_rank":2,"importance":"regional_core"},"geometry":{"type":"Point","coordinates":[-1.4457882,53.6664968]}},{"type":"Feature","properties":{"id":"uk-osm-logistics-node-8567993868","name":"Crown Point Depot","hub_type":"rail_cargo_station","operator_classification":"other","source_operator":"","osm_type":"node","osm_id":"8567993868","railway":"yard","landuse":"","industrial":"","amenity":"","freight":"","importance_rank":2,"importance":"regional_core"},"geometry":{"type":"Point","coordinates":[1.3173588,52.6223464]}},{"type":"Feature","properties":{"id":"uk-osm-logistics-node-9466965914","name":"DB Cargo Barking Eurohub","hub_type":"rail_cargo_station","operator_classification":"other","source_operator":"","osm_type":"node","osm_id":"9466965914","railway":"yard","landuse":"","industrial":"","amenity":"","freight":"","importance_rank":2,"importance":"regional_core"},"geometry":{"type":"Point","coordinates":[0.1276693,51.5291392]}},{"type":"Feature","properties":{"id":"uk-osm-logistics-node-8928594702","name":"DB Cargo Trent Sidings","hub_type":"rail_cargo_station","operator_classification":"private","source_operator":"DB Cargo UK LTD","osm_type":"node","osm_id":"8928594702","railway":"yard","landuse":"","industrial":"","amenity":"","freight":"","importance_rank":2,"importance":"regional_core"},"geometry":{"type":"Point","coordinates":[-0.622594,53.5935853]}},{"type":"Feature","properties":{"id":"uk-osm-logistics-node-9399687520","name":"DB Grangemouth Logistics Centre","hub_type":"rail_cargo_station","operator_classification":"other","source_operator":"","osm_type":"node","osm_id":"9399687520","railway":"yard","landuse":"","industrial":"","amenity":"","freight":"","importance_rank":2,"importance":"regional_core"},"geometry":{"type":"Point","coordinates":[-3.7442717,56.0084865]}},{"type":"Feature","properties":{"id":"uk-osm-logistics-node-13299165261","name":"Dalcross Freight Facility","hub_type":"rail_cargo_station","operator_classification":"other","source_operator":"","osm_type":"node","osm_id":"13299165261","railway":"yard","landuse":"","industrial":"","amenity":"","freight":"","importance_rank":2,"importance":"regional_core"},"geometry":{"type":"Point","coordinates":[-4.0796578,57.5225752]}},{"type":"Feature","properties":{"id":"uk-osm-logistics-node-9924531629","name":"Daventry International Rail Freight Terminal","hub_type":"rail_cargo_station","operator_classification":"private","source_operator":"Freightliner, DB, GBRf, DRS","osm_type":"node","osm_id":"9924531629","railway":"yard","landuse":"","industrial":"","amenity":"","freight":"","importance_rank":2,"importance":"regional_core"},"geometry":{"type":"Point","coordinates":[-1.1683185,52.3478269]}},{"type":"Feature","properties":{"id":"uk-osm-logistics-node-8725993938","name":"Deanside Intermodal","hub_type":"rail_cargo_station","operator_classification":"other","source_operator":"","osm_type":"node","osm_id":"8725993938","railway":"yard","landuse":"","industrial":"","amenity":"","freight":"","importance_rank":2,"importance":"regional_core"},"geometry":{"type":"Point","coordinates":[-4.3591722,55.8629944]}},{"type":"Feature","properties":{"id":"uk-osm-logistics-node-8407888386","name":"Dee Marsh Shotton Works Sidings","hub_type":"rail_cargo_station","operator_classification":"other","source_operator":"","osm_type":"node","osm_id":"8407888386","railway":"yard","landuse":"","industrial":"","amenity":"","freight":"","importance_rank":2,"importance":"regional_core"},"geometry":{"type":"Point","coordinates":[-3.0271497,53.2264097]}},{"type":"Feature","properties":{"id":"uk-osm-logistics-node-8492059316","name":"Defence Storage and Distribution Centre","hub_type":"rail_cargo_station","operator_classification":"other","source_operator":"","osm_type":"node","osm_id":"8492059316","railway":"yard","landuse":"","industrial":"","amenity":"","freight":"","importance_rank":2,"importance":"regional_core"},"geometry":{"type":"Point","coordinates":[-2.1024914,52.0028579]}},{"type":"Feature","properties":{"id":"uk-osm-logistics-node-5388011057","name":"Dingwall Civil Engineer","hub_type":"rail_cargo_station","operator_classification":"public","source_operator":"Network Rail","osm_type":"node","osm_id":"5388011057","railway":"yard","landuse":"","industrial":"","amenity":"","freight":"","importance_rank":2,"importance":"regional_core"},"geometry":{"type":"Point","coordinates":[-4.4228607,57.5928355]}},{"type":"Feature","properties":{"id":"uk-osm-logistics-node-8657017621","name":"Ditton Reception Sidings","hub_type":"rail_cargo_station","operator_classification":"other","source_operator":"","osm_type":"node","osm_id":"8657017621","railway":"yard","landuse":"","industrial":"","amenity":"","freight":"","importance_rank":2,"importance":"regional_core"},"geometry":{"type":"Point","coordinates":[-2.7751087,53.355877]}},{"type":"Feature","properties":{"id":"uk-osm-logistics-way-132047157","name":"Dollands Moor Freight Yard","hub_type":"rail_cargo_station","operator_classification":"other","source_operator":"","osm_type":"way","osm_id":"132047157","railway":"yard","landuse":"railway","industrial":"","amenity":"","freight":"","importance_rank":2,"importance":"regional_core"},"geometry":{"type":"Point","coordinates":[1.0987759,51.0919273]}},{"type":"Feature","properties":{"id":"uk-osm-logistics-node-9407892026","name":"Drax Power Station","hub_type":"rail_cargo_station","operator_classification":"other","source_operator":"","osm_type":"node","osm_id":"9407892026","railway":"yard","landuse":"","industrial":"","amenity":"","freight":"","importance_rank":2,"importance":"regional_core"},"geometry":{"type":"Point","coordinates":[-1.0016665,53.7349953]}},{"type":"Feature","properties":{"id":"uk-osm-logistics-way-1415342258","name":"East Ham Depot","hub_type":"rail_cargo_station","operator_classification":"other","source_operator":"","osm_type":"way","osm_id":"1415342258","railway":"yard","landuse":"railway","industrial":"","amenity":"","freight":"","importance_rank":2,"importance":"regional_core"},"geometry":{"type":"Point","coordinates":[0.0592252,51.5415342]}},{"type":"Feature","properties":{"id":"uk-osm-logistics-node-10172468379","name":"East Midlands Gateway Terminal DB Cargo","hub_type":"rail_cargo_station","operator_classification":"other","source_operator":"","osm_type":"node","osm_id":"10172468379","railway":"yard","landuse":"","industrial":"","amenity":"","freight":"","importance_rank":2,"importance":"regional_core"},"geometry":{"type":"Point","coordinates":[-1.299897,52.839665]}},{"type":"Feature","properties":{"id":"uk-osm-logistics-node-10199441758","name":"East Usk Junction Marshalling Yard","hub_type":"rail_cargo_station","operator_classification":"other","source_operator":"","osm_type":"node","osm_id":"10199441758","railway":"yard","landuse":"","industrial":"","amenity":"","freight":"","importance_rank":2,"importance":"regional_core"},"geometry":{"type":"Point","coordinates":[-2.9730036,51.5868134]}},{"type":"Feature","properties":{"id":"uk-osm-logistics-way-146404874","name":"Eastfield Depot","hub_type":"rail_cargo_station","operator_classification":"private","source_operator":"Scotrail","osm_type":"way","osm_id":"146404874","railway":"yard","landuse":"railway","industrial":"","amenity":"","freight":"","importance_rank":2,"importance":"regional_core"},"geometry":{"type":"Point","coordinates":[-4.2394335,55.8911454]}},{"type":"Feature","properties":{"id":"uk-osm-logistics-node-9334208180","name":"Eastleigh Train and Rolling Stock Maintenance Depot","hub_type":"rail_cargo_station","operator_classification":"other","source_operator":"","osm_type":"node","osm_id":"9334208180","railway":"yard","landuse":"","industrial":"","amenity":"","freight":"","importance_rank":2,"importance":"regional_core"},"geometry":{"type":"Point","coordinates":[-1.3470271,50.9615256]}},{"type":"Feature","properties":{"id":"uk-osm-logistics-node-10054151866","name":"Electro-Motive Diesel","hub_type":"rail_cargo_station","operator_classification":"private","source_operator":"Electro-Motive","osm_type":"node","osm_id":"10054151866","railway":"yard","landuse":"","industrial":"","amenity":"","freight":"","importance_rank":2,"importance":"regional_core"},"geometry":{"type":"Point","coordinates":[-2.2169113,53.043698]}},{"type":"Feature","properties":{"id":"uk-osm-logistics-node-9432219330","name":"Elizabeth Line Plumstead Maintenance Depot","hub_type":"rail_cargo_station","operator_classification":"other","source_operator":"","osm_type":"node","osm_id":"9432219330","railway":"yard","landuse":"","industrial":"","amenity":"","freight":"","importance_rank":2,"importance":"regional_core"},"geometry":{"type":"Point","coordinates":[0.0977334,51.4911905]}},{"type":"Feature","properties":{"id":"uk-osm-logistics-node-9954546852","name":"Etches Park Rail Depot","hub_type":"rail_cargo_station","operator_classification":"other","source_operator":"","osm_type":"node","osm_id":"9954546852","railway":"yard","landuse":"","industrial":"","amenity":"","freight":"","importance_rank":2,"importance":"regional_core"},"geometry":{"type":"Point","coordinates":[-1.4590428,52.9118046]}},{"type":"Feature","properties":{"id":"uk-osm-logistics-node-8437268055","name":"Etruria North Sidings","hub_type":"rail_cargo_station","operator_classification":"other","source_operator":"","osm_type":"node","osm_id":"8437268055","railway":"yard","landuse":"","industrial":"","amenity":"","freight":"","importance_rank":2,"importance":"regional_core"},"geometry":{"type":"Point","coordinates":[-2.203412,53.0220262]}},{"type":"Feature","properties":{"id":"uk-osm-logistics-node-10212680460","name":"Eurotunnel Folkestone Terminal","hub_type":"rail_cargo_station","operator_classification":"other","source_operator":"","osm_type":"node","osm_id":"10212680460","railway":"yard","landuse":"","industrial":"","amenity":"","freight":"","importance_rank":2,"importance":"regional_core"},"geometry":{"type":"Point","coordinates":[1.1293965,51.0932234]}},{"type":"Feature","properties":{"id":"uk-osm-logistics-node-9954543752","name":"Exeter St David's Depot","hub_type":"rail_cargo_station","operator_classification":"other","source_operator":"","osm_type":"node","osm_id":"9954543752","railway":"yard","landuse":"","industrial":"","amenity":"","freight":"","importance_rank":2,"importance":"regional_core"},"geometry":{"type":"Point","coordinates":[-3.5446489,50.7301037]}},{"type":"Feature","properties":{"id":"uk-osm-logistics-node-9408417113","name":"Fairwater Freight Yard","hub_type":"rail_cargo_station","operator_classification":"other","source_operator":"","osm_type":"node","osm_id":"9408417113","railway":"yard","landuse":"","industrial":"","amenity":"","freight":"","importance_rank":2,"importance":"regional_core"},"geometry":{"type":"Point","coordinates":[-3.1237106,51.0245709]}},{"type":"Feature","properties":{"id":"uk-osm-logistics-node-9980153677","name":"Farnham Traincare Depot","hub_type":"rail_cargo_station","operator_classification":"other","source_operator":"","osm_type":"node","osm_id":"9980153677","railway":"yard","landuse":"","industrial":"","amenity":"","freight":"","importance_rank":2,"importance":"regional_core"},"geometry":{"type":"Point","coordinates":[-0.8107159,51.2050357]}},{"type":"Feature","properties":{"id":"uk-osm-logistics-node-8632296238","name":"Felixstowe Central Terminal","hub_type":"rail_cargo_station","operator_classification":"other","source_operator":"","osm_type":"node","osm_id":"8632296238","railway":"yard","landuse":"","industrial":"","amenity":"","freight":"","importance_rank":2,"importance":"regional_core"},"geometry":{"type":"Point","coordinates":[1.3100033,51.961331]}},{"type":"Feature","properties":{"id":"uk-osm-logistics-way-795805547","name":"Felixstowe Creek Sidings","hub_type":"rail_cargo_station","operator_classification":"other","source_operator":"","osm_type":"way","osm_id":"795805547","railway":"yard","landuse":"railway","industrial":"","amenity":"","freight":"","importance_rank":2,"importance":"regional_core"},"geometry":{"type":"Point","coordinates":[1.330466,51.950918]}},{"type":"Feature","properties":{"id":"uk-osm-logistics-node-9464523970","name":"Ferme Park Carriage Sidings","hub_type":"rail_cargo_station","operator_classification":"other","source_operator":"","osm_type":"node","osm_id":"9464523970","railway":"yard","landuse":"","industrial":"","amenity":"","freight":"","importance_rank":2,"importance":"regional_core"},"geometry":{"type":"Point","coordinates":[-0.1089952,51.5820086]}},{"type":"Feature","properties":{"id":"uk-osm-logistics-node-9464523971","name":"Ferme Park London Concrete","hub_type":"rail_cargo_station","operator_classification":"other","source_operator":"","osm_type":"node","osm_id":"9464523971","railway":"yard","landuse":"","industrial":"","amenity":"","freight":"","importance_rank":2,"importance":"regional_core"},"geometry":{"type":"Point","coordinates":[-0.1088448,51.580988]}},{"type":"Feature","properties":{"id":"uk-osm-logistics-node-9464523973","name":"Ferme Park Sidings","hub_type":"rail_cargo_station","operator_classification":"other","source_operator":"","osm_type":"node","osm_id":"9464523973","railway":"yard","landuse":"","industrial":"","amenity":"","freight":"","importance_rank":2,"importance":"regional_core"},"geometry":{"type":"Point","coordinates":[-0.1095337,51.5843895]}},{"type":"Feature","properties":{"id":"uk-osm-logistics-node-10217252572","name":"Field Sidings","hub_type":"rail_cargo_station","operator_classification":"other","source_operator":"","osm_type":"node","osm_id":"10217252572","railway":"yard","landuse":"","industrial":"","amenity":"","freight":"","importance_rank":2,"importance":"regional_core"},"geometry":{"type":"Point","coordinates":[-0.0847655,51.3889317]}},{"type":"Feature","properties":{"id":"uk-osm-logistics-node-9416265179","name":"Forders Sidings","hub_type":"rail_cargo_station","operator_classification":"other","source_operator":"","osm_type":"node","osm_id":"9416265179","railway":"yard","landuse":"","industrial":"","amenity":"","freight":"","importance_rank":2,"importance":"regional_core"},"geometry":{"type":"Point","coordinates":[-0.516839,52.0757395]}},{"type":"Feature","properties":{"id":"uk-osm-logistics-node-8404819538","name":"Fort William Yard","hub_type":"rail_cargo_station","operator_classification":"other","source_operator":"","osm_type":"node","osm_id":"8404819538","railway":"yard","landuse":"","industrial":"","amenity":"","freight":"","importance_rank":2,"importance":"regional_core"},"geometry":{"type":"Point","coordinates":[-5.0844417,56.8300043]}},{"type":"Feature","properties":{"id":"uk-osm-logistics-node-9929727072","name":"Fratton Traincare Depot","hub_type":"rail_cargo_station","operator_classification":"other","source_operator":"","osm_type":"node","osm_id":"9929727072","railway":"yard","landuse":"","industrial":"","amenity":"","freight":"","importance_rank":2,"importance":"regional_core"},"geometry":{"type":"Point","coordinates":[-1.0705543,50.7955881]}},{"type":"Feature","properties":{"id":"uk-osm-logistics-node-8391996091","name":"Freightliner Birmingham","hub_type":"rail_cargo_station","operator_classification":"other","source_operator":"","osm_type":"node","osm_id":"8391996091","railway":"yard","landuse":"","industrial":"","amenity":"","freight":"","importance_rank":2,"importance":"regional_core"},"geometry":{"type":"Point","coordinates":[-1.8672246,52.4857441]}},{"type":"Feature","properties":{"id":"uk-osm-logistics-node-9504412457","name":"Freightliner Birmingham","hub_type":"rail_cargo_station","operator_classification":"other","source_operator":"","osm_type":"node","osm_id":"9504412457","railway":"yard","landuse":"","industrial":"","amenity":"","freight":"","importance_rank":2,"importance":"regional_core"},"geometry":{"type":"Point","coordinates":[-1.8688307,52.4842332]}},{"type":"Feature","properties":{"id":"uk-osm-logistics-node-9397978656","name":"Freightliner Wagon Maintenance Facility","hub_type":"rail_cargo_station","operator_classification":"other","source_operator":"","osm_type":"node","osm_id":"9397978656","railway":"yard","landuse":"","industrial":"","amenity":"","freight":"","importance_rank":2,"importance":"regional_core"},"geometry":{"type":"Point","coordinates":[-2.1066071,53.4763302]}},{"type":"Feature","properties":{"id":"uk-osm-logistics-node-9962595268","name":"Frodingham TMD","hub_type":"rail_cargo_station","operator_classification":"other","source_operator":"","osm_type":"node","osm_id":"9962595268","railway":"yard","landuse":"","industrial":"","amenity":"","freight":"","importance_rank":2,"importance":"regional_core"},"geometry":{"type":"Point","coordinates":[-0.6336477,53.5920898]}},{"type":"Feature","properties":{"id":"uk-osm-logistics-node-9402315756","name":"Gartsherrie Freightliner Depot","hub_type":"rail_cargo_station","operator_classification":"other","source_operator":"","osm_type":"node","osm_id":"9402315756","railway":"yard","landuse":"","industrial":"","amenity":"","freight":"","importance_rank":2,"importance":"regional_core"},"geometry":{"type":"Point","coordinates":[-4.0404089,55.8720641]}},{"type":"Feature","properties":{"id":"uk-osm-logistics-node-11162687875","name":"Gascoigne Wood Up Sidings","hub_type":"rail_cargo_station","operator_classification":"other","source_operator":"","osm_type":"node","osm_id":"11162687875","railway":"yard","landuse":"","industrial":"","amenity":"","freight":"","importance_rank":2,"importance":"regional_core"},"geometry":{"type":"Point","coordinates":[-1.202779,53.7784141]}},{"type":"Feature","properties":{"id":"uk-osm-logistics-node-8404601310","name":"Georgemas Junction Freight Terminal","hub_type":"rail_cargo_station","operator_classification":"other","source_operator":"","osm_type":"node","osm_id":"8404601310","railway":"yard","landuse":"","industrial":"","amenity":"","freight":"","importance_rank":2,"importance":"regional_core"},"geometry":{"type":"Point","coordinates":[-3.4527219,58.5131188]}},{"type":"Feature","properties":{"id":"uk-osm-logistics-node-9450526547","name":"Gidea Park Carriage Sidings","hub_type":"rail_cargo_station","operator_classification":"other","source_operator":"","osm_type":"node","osm_id":"9450526547","railway":"yard","landuse":"","industrial":"","amenity":"","freight":"","importance_rank":2,"importance":"regional_core"},"geometry":{"type":"Point","coordinates":[0.2136639,51.5852747]}},{"type":"Feature","properties":{"id":"uk-osm-logistics-node-8718646129","name":"Glasgow Works","hub_type":"rail_cargo_station","operator_classification":"other","source_operator":"","osm_type":"node","osm_id":"8718646129","railway":"yard","landuse":"","industrial":"","amenity":"","freight":"","importance_rank":2,"importance":"regional_core"},"geometry":{"type":"Point","coordinates":[-4.231395,55.8721734]}},{"type":"Feature","properties":{"id":"uk-osm-logistics-node-9410343467","name":"Gloucester New Yard","hub_type":"rail_cargo_station","operator_classification":"other","source_operator":"","osm_type":"node","osm_id":"9410343467","railway":"yard","landuse":"","industrial":"","amenity":"","freight":"","importance_rank":2,"importance":"regional_core"},"geometry":{"type":"Point","coordinates":[-2.223262,51.8591604]}},{"type":"Feature","properties":{"id":"uk-osm-logistics-way-48920497","name":"Golders Green Depot","hub_type":"rail_cargo_station","operator_classification":"private","source_operator":"TfL","osm_type":"way","osm_id":"48920497","railway":"yard","landuse":"railway","industrial":"","amenity":"","freight":"","importance_rank":2,"importance":"regional_core"},"geometry":{"type":"Point","coordinates":[-0.192047,51.5727809]}},{"type":"Feature","properties":{"id":"uk-osm-logistics-node-9241399440","name":"Goodrington Carriage Sidings","hub_type":"rail_cargo_station","operator_classification":"other","source_operator":"","osm_type":"node","osm_id":"9241399440","railway":"yard","landuse":"","industrial":"","amenity":"","freight":"","importance_rank":2,"importance":"regional_core"},"geometry":{"type":"Point","coordinates":[-3.5643468,50.4287709]}},{"type":"Feature","properties":{"id":"uk-osm-logistics-node-9399687456","name":"Grangemouth Oil Terminal","hub_type":"rail_cargo_station","operator_classification":"other","source_operator":"","osm_type":"node","osm_id":"9399687456","railway":"yard","landuse":"","industrial":"","amenity":"","freight":"","importance_rank":2,"importance":"regional_core"},"geometry":{"type":"Point","coordinates":[-3.6883249,56.0232322]}},{"type":"Feature","properties":{"id":"uk-osm-logistics-node-8445865723","name":"Gresty Bridge Depot","hub_type":"rail_cargo_station","operator_classification":"other","source_operator":"","osm_type":"node","osm_id":"8445865723","railway":"yard","landuse":"","industrial":"","amenity":"","freight":"","importance_rank":2,"importance":"regional_core"},"geometry":{"type":"Point","coordinates":[-2.436201,53.0796647]}},{"type":"Feature","properties":{"id":"uk-osm-logistics-way-815860206","name":"Gresty Bridge Depot","hub_type":"rail_cargo_station","operator_classification":"private","source_operator":"Direct Rail Services","osm_type":"way","osm_id":"815860206","railway":"yard","landuse":"railway","industrial":"","amenity":"","freight":"","importance_rank":2,"importance":"regional_core"},"geometry":{"type":"Point","coordinates":[-2.4377623,53.079383]}},{"type":"Feature","properties":{"id":"uk-osm-logistics-node-10226143674","name":"Grove Park Down Sidings ('Bramdean')","hub_type":"rail_cargo_station","operator_classification":"other","source_operator":"","osm_type":"node","osm_id":"10226143674","railway":"yard","landuse":"","industrial":"","amenity":"","freight":"","importance_rank":2,"importance":"regional_core"},"geometry":{"type":"Point","coordinates":[0.0094354,51.4423841]}},{"type":"Feature","properties":{"id":"uk-osm-logistics-node-10226143670","name":"Grove Park Sidings","hub_type":"rail_cargo_station","operator_classification":"other","source_operator":"","osm_type":"node","osm_id":"10226143670","railway":"yard","landuse":"","industrial":"","amenity":"","freight":"","importance_rank":2,"importance":"regional_core"},"geometry":{"type":"Point","coordinates":[0.0179915,51.4341562]}},{"type":"Feature","properties":{"id":"uk-osm-logistics-node-10226143675","name":"Grove Park Up Sidings ('St Mildreds')","hub_type":"rail_cargo_station","operator_classification":"other","source_operator":"","osm_type":"node","osm_id":"10226143675","railway":"yard","landuse":"","industrial":"","amenity":"","freight":"","importance_rank":2,"importance":"regional_core"},"geometry":{"type":"Point","coordinates":[0.0104891,51.4398452]}},{"type":"Feature","properties":{"id":"uk-osm-logistics-way-1348297205","name":"H&S Haulage & Storage Ltd","hub_type":"truck_terminal","operator_classification":"other","source_operator":"","osm_type":"way","osm_id":"1348297205","railway":"","landuse":"","industrial":"logistics","amenity":"","freight":"","importance_rank":2,"importance":"regional_core"},"geometry":{"type":"Point","coordinates":[-2.026066,52.5263939]}},{"type":"Feature","properties":{"id":"uk-osm-logistics-node-7650393714","name":"HST Stabling Sidings","hub_type":"rail_cargo_station","operator_classification":"other","source_operator":"","osm_type":"node","osm_id":"7650393714","railway":"yard","landuse":"","industrial":"","amenity":"","freight":"","importance_rank":2,"importance":"regional_core"},"geometry":{"type":"Point","coordinates":[-2.563645,51.4465088]}},{"type":"Feature","properties":{"id":"uk-osm-logistics-node-7597938639","name":"Hackney Yard","hub_type":"rail_cargo_station","operator_classification":"private","source_operator":"DB Cargo","osm_type":"node","osm_id":"7597938639","railway":"yard","landuse":"","industrial":"","amenity":"","freight":"","importance_rank":2,"importance":"regional_core"},"geometry":{"type":"Point","coordinates":[-3.5924679,50.5369527]}},{"type":"Feature","properties":{"id":"uk-osm-logistics-way-956332157","name":"Hainault Depot","hub_type":"rail_cargo_station","operator_classification":"other","source_operator":"","osm_type":"way","osm_id":"956332157","railway":"yard","landuse":"railway","industrial":"","amenity":"","freight":"","importance_rank":2,"importance":"regional_core"},"geometry":{"type":"Point","coordinates":[0.0933408,51.6073621]}},{"type":"Feature","properties":{"id":"uk-osm-logistics-node-339400016","name":"Hanson Aggregates Terminal","hub_type":"rail_cargo_station","operator_classification":"other","source_operator":"","osm_type":"node","osm_id":"339400016","railway":"yard","landuse":"","industrial":"","amenity":"","freight":"","importance_rank":2,"importance":"regional_core"},"geometry":{"type":"Point","coordinates":[-0.0914632,51.0324733]}},{"type":"Feature","properties":{"id":"uk-osm-logistics-node-8679030075","name":"Haymarket Depot","hub_type":"rail_cargo_station","operator_classification":"other","source_operator":"","osm_type":"node","osm_id":"8679030075","railway":"yard","landuse":"","industrial":"","amenity":"","freight":"","importance_rank":2,"importance":"regional_core"},"geometry":{"type":"Point","coordinates":[-3.234065,55.9424648]}},{"type":"Feature","properties":{"id":"uk-osm-logistics-node-9921192594","name":"Heaton Yard","hub_type":"rail_cargo_station","operator_classification":"other","source_operator":"","osm_type":"node","osm_id":"9921192594","railway":"yard","landuse":"","industrial":"","amenity":"","freight":"","importance_rank":2,"importance":"regional_core"},"geometry":{"type":"Point","coordinates":[-1.5653749,54.9875924]}},{"type":"Feature","properties":{"id":"uk-osm-logistics-way-1093514552","name":"Heaton Yard","hub_type":"rail_cargo_station","operator_classification":"other","source_operator":"","osm_type":"way","osm_id":"1093514552","railway":"yard","landuse":"railway","industrial":"","amenity":"","freight":"","importance_rank":2,"importance":"regional_core"},"geometry":{"type":"Point","coordinates":[-1.5688572,54.9866226]}},{"type":"Feature","properties":{"id":"uk-osm-logistics-node-9990080143","name":"Hendon Road Sidings","hub_type":"rail_cargo_station","operator_classification":"other","source_operator":"","osm_type":"node","osm_id":"9990080143","railway":"yard","landuse":"","industrial":"","amenity":"","freight":"","importance_rank":2,"importance":"regional_core"},"geometry":{"type":"Point","coordinates":[-0.2625841,53.7461356]}},{"type":"Feature","properties":{"id":"uk-osm-logistics-node-9929091169","name":"Hertford North Carriage Holding Sidings","hub_type":"rail_cargo_station","operator_classification":"other","source_operator":"","osm_type":"node","osm_id":"9929091169","railway":"yard","landuse":"","industrial":"","amenity":"","freight":"","importance_rank":2,"importance":"regional_core"},"geometry":{"type":"Point","coordinates":[-0.0916791,51.794819]}},{"type":"Feature","properties":{"id":"uk-osm-logistics-node-8388060753","name":"High Peak Junction","hub_type":"rail_cargo_station","operator_classification":"other","source_operator":"","osm_type":"node","osm_id":"8388060753","railway":"yard","landuse":"","industrial":"","amenity":"","freight":"","importance_rank":2,"importance":"regional_core"},"geometry":{"type":"Point","coordinates":[-1.5334248,53.1001627]}},{"type":"Feature","properties":{"id":"uk-osm-logistics-way-1000040075","name":"Highgate Depot","hub_type":"rail_cargo_station","operator_classification":"private","source_operator":"London Underground","osm_type":"way","osm_id":"1000040075","railway":"yard","landuse":"railway","industrial":"","amenity":"","freight":"","importance_rank":2,"importance":"regional_core"},"geometry":{"type":"Point","coordinates":[-0.1546905,51.5820816]}},{"type":"Feature","properties":{"id":"uk-osm-logistics-node-9926425321","name":"Hinksey Yard","hub_type":"rail_cargo_station","operator_classification":"other","source_operator":"","osm_type":"node","osm_id":"9926425321","railway":"yard","landuse":"","industrial":"","amenity":"","freight":"","importance_rank":2,"importance":"regional_core"},"geometry":{"type":"Point","coordinates":[-1.2581524,51.7370431]}},{"type":"Feature","properties":{"id":"uk-osm-logistics-node-9484280725","name":"Hitachi Depot","hub_type":"rail_cargo_station","operator_classification":"other","source_operator":"","osm_type":"node","osm_id":"9484280725","railway":"yard","landuse":"","industrial":"","amenity":"","freight":"","importance_rank":2,"importance":"regional_core"},"geometry":{"type":"Point","coordinates":[-0.2436696,51.5239664]}},{"type":"Feature","properties":{"id":"uk-osm-logistics-node-9376216850","name":"Hitachi EMU Depot","hub_type":"rail_cargo_station","operator_classification":"other","source_operator":"","osm_type":"node","osm_id":"9376216850","railway":"yard","landuse":"","industrial":"","amenity":"","freight":"","importance_rank":2,"importance":"regional_core"},"geometry":{"type":"Point","coordinates":[1.4024161,51.3423138]}},{"type":"Feature","properties":{"id":"uk-osm-logistics-node-8750761561","name":"Hitachi Rail","hub_type":"rail_cargo_station","operator_classification":"other","source_operator":"","osm_type":"node","osm_id":"8750761561","railway":"yard","landuse":"","industrial":"","amenity":"","freight":"","importance_rank":2,"importance":"regional_core"},"geometry":{"type":"Point","coordinates":[-1.5860709,54.5944337]}},{"type":"Feature","properties":{"id":"uk-osm-logistics-node-9962517515","name":"Hither Green Traction Maintenance Depot","hub_type":"rail_cargo_station","operator_classification":"private","source_operator":"EMS","osm_type":"node","osm_id":"9962517515","railway":"yard","landuse":"","industrial":"","amenity":"","freight":"","importance_rank":2,"importance":"regional_core"},"geometry":{"type":"Point","coordinates":[0.0030074,51.4496919]}},{"type":"Feature","properties":{"id":"uk-osm-logistics-way-38582438","name":"Hither Green Traction Maintenance Depot","hub_type":"rail_cargo_station","operator_classification":"private","source_operator":"EMS","osm_type":"way","osm_id":"38582438","railway":"yard","landuse":"railway","industrial":"","amenity":"","freight":"","importance_rank":2,"importance":"regional_core"},"geometry":{"type":"Point","coordinates":[0.0035209,51.4492812]}},{"type":"Feature","properties":{"id":"uk-osm-logistics-node-9897741236","name":"Holbeck Depot","hub_type":"rail_cargo_station","operator_classification":"private","source_operator":"RTS Infrastructure","osm_type":"node","osm_id":"9897741236","railway":"yard","landuse":"","industrial":"","amenity":"","freight":"","importance_rank":2,"importance":"regional_core"},"geometry":{"type":"Point","coordinates":[-1.5573024,53.7881686]}},{"type":"Feature","properties":{"id":"uk-osm-logistics-node-9464523972","name":"Hornsey EMU Depot","hub_type":"rail_cargo_station","operator_classification":"other","source_operator":"","osm_type":"node","osm_id":"9464523972","railway":"yard","landuse":"","industrial":"","amenity":"","freight":"","importance_rank":2,"importance":"regional_core"},"geometry":{"type":"Point","coordinates":[-0.1089027,51.584595]}},{"type":"Feature","properties":{"id":"uk-osm-logistics-node-9412467553","name":"Horton Road Depot","hub_type":"rail_cargo_station","operator_classification":"other","source_operator":"","osm_type":"node","osm_id":"9412467553","railway":"yard","landuse":"","industrial":"","amenity":"","freight":"","importance_rank":2,"importance":"regional_core"},"geometry":{"type":"Point","coordinates":[-2.2327178,51.8637734]}},{"type":"Feature","properties":{"id":"uk-osm-logistics-way-185998711","name":"Horton Road Depot","hub_type":"rail_cargo_station","operator_classification":"public","source_operator":"Network Rail","osm_type":"way","osm_id":"185998711","railway":"yard","landuse":"railway","industrial":"","amenity":"","freight":"","importance_rank":2,"importance":"regional_core"},"geometry":{"type":"Point","coordinates":[-2.2320258,51.8639699]}},{"type":"Feature","properties":{"id":"uk-osm-logistics-node-8375636643","name":"Humber Refinery","hub_type":"rail_cargo_station","operator_classification":"other","source_operator":"","osm_type":"node","osm_id":"8375636643","railway":"yard","landuse":"","industrial":"","amenity":"","freight":"","importance_rank":2,"importance":"regional_core"},"geometry":{"type":"Point","coordinates":[-0.2500154,53.6366706]}},{"type":"Feature","properties":{"id":"uk-osm-logistics-node-9450403161","name":"Ilford EMU Depot","hub_type":"rail_cargo_station","operator_classification":"other","source_operator":"","osm_type":"node","osm_id":"9450403161","railway":"yard","landuse":"","industrial":"","amenity":"","freight":"","importance_rank":2,"importance":"regional_core"},"geometry":{"type":"Point","coordinates":[0.0855529,51.5630204]}},{"type":"Feature","properties":{"id":"uk-osm-logistics-way-970708136","name":"Ilford Traction Maintenance Depot","hub_type":"rail_cargo_station","operator_classification":"other","source_operator":"","osm_type":"way","osm_id":"970708136","railway":"yard","landuse":"railway","industrial":"","amenity":"","freight":"","importance_rank":2,"importance":"regional_core"},"geometry":{"type":"Point","coordinates":[0.0846941,51.5628088]}},{"type":"Feature","properties":{"id":"uk-osm-logistics-node-11159824263","name":"Immingham Sorting Sidings","hub_type":"rail_cargo_station","operator_classification":"other","source_operator":"","osm_type":"node","osm_id":"11159824263","railway":"yard","landuse":"","industrial":"","amenity":"","freight":"","importance_rank":2,"importance":"regional_core"},"geometry":{"type":"Point","coordinates":[-0.1988086,53.6230094]}},{"type":"Feature","properties":{"id":"uk-osm-logistics-node-9395176185","name":"Jarrow Fuels Terminal","hub_type":"rail_cargo_station","operator_classification":"private","source_operator":"Shell","osm_type":"node","osm_id":"9395176185","railway":"yard","landuse":"","industrial":"","amenity":"","freight":"","importance_rank":2,"importance":"regional_core"},"geometry":{"type":"Point","coordinates":[-1.4769371,54.9812649]}},{"type":"Feature","properties":{"id":"uk-osm-logistics-relation-11679449","name":"Jersey Sidings","hub_type":"rail_cargo_station","operator_classification":"other","source_operator":"","osm_type":"relation","osm_id":"11679449","railway":"yard","landuse":"","industrial":"","amenity":"","freight":"","importance_rank":2,"importance":"regional_core"},"geometry":{"type":"Point","coordinates":[-2.45978,50.6223586]}},{"type":"Feature","properties":{"id":"uk-osm-logistics-relation-17006259","name":"Jubilee Sidings","hub_type":"rail_cargo_station","operator_classification":"other","source_operator":"","osm_type":"relation","osm_id":"17006259","railway":"yard","landuse":"","industrial":"","amenity":"","freight":"","importance_rank":2,"importance":"regional_core"},"geometry":{"type":"Point","coordinates":[0.2596766,51.1918488]}},{"type":"Feature","properties":{"id":"uk-osm-logistics-way-401765957","name":"Kammac Warehouse & Distribution","hub_type":"truck_terminal","operator_classification":"other","source_operator":"","osm_type":"way","osm_id":"401765957","railway":"","landuse":"industrial","industrial":"logistics","amenity":"","freight":"","importance_rank":2,"importance":"regional_core"},"geometry":{"type":"Point","coordinates":[-2.9284533,53.4073525]}},{"type":"Feature","properties":{"id":"uk-osm-logistics-way-227577542","name":"Kinbrace Timber Loading Point","hub_type":"rail_cargo_station","operator_classification":"public","source_operator":"Network Rail","osm_type":"way","osm_id":"227577542","railway":"yard","landuse":"railway","industrial":"","amenity":"","freight":"","importance_rank":2,"importance":"regional_core"},"geometry":{"type":"Point","coordinates":[-3.941217,58.2545094]}},{"type":"Feature","properties":{"id":"uk-osm-logistics-node-8491284836","name":"Kineton","hub_type":"rail_cargo_station","operator_classification":"other","source_operator":"","osm_type":"node","osm_id":"8491284836","railway":"yard","landuse":"","industrial":"","amenity":"","freight":"","importance_rank":2,"importance":"regional_core"},"geometry":{"type":"Point","coordinates":[-1.4586759,52.1665631]}},{"type":"Feature","properties":{"id":"uk-osm-logistics-node-8572035877","name":"Kingmoor Marshalling Yard","hub_type":"rail_cargo_station","operator_classification":"other","source_operator":"","osm_type":"node","osm_id":"8572035877","railway":"yard","landuse":"","industrial":"","amenity":"","freight":"","importance_rank":2,"importance":"regional_core"},"geometry":{"type":"Point","coordinates":[-2.9783288,54.9304978]}},{"type":"Feature","properties":{"id":"uk-osm-logistics-node-10245578285","name":"Kings Heath Depot","hub_type":"rail_cargo_station","operator_classification":"other","source_operator":"","osm_type":"node","osm_id":"10245578285","railway":"yard","landuse":"","industrial":"","amenity":"","freight":"","importance_rank":2,"importance":"regional_core"},"geometry":{"type":"Point","coordinates":[-0.9087543,52.2474123]}},{"type":"Feature","properties":{"id":"uk-osm-logistics-node-13477406062","name":"Kings Norton On Track Plant Depot","hub_type":"rail_cargo_station","operator_classification":"other","source_operator":"","osm_type":"node","osm_id":"13477406062","railway":"yard","landuse":"","industrial":"","amenity":"","freight":"","importance_rank":2,"importance":"regional_core"},"geometry":{"type":"Point","coordinates":[-1.9412916,52.4132488]}},{"type":"Feature","properties":{"id":"uk-osm-logistics-node-8454596162","name":"Kingsbury Oil Terminal","hub_type":"rail_cargo_station","operator_classification":"other","source_operator":"","osm_type":"node","osm_id":"8454596162","railway":"yard","landuse":"","industrial":"","amenity":"","freight":"","importance_rank":2,"importance":"regional_core"},"geometry":{"type":"Point","coordinates":[-1.6736405,52.5760015]}},{"type":"Feature","properties":{"id":"uk-osm-logistics-node-9921260665","name":"Kingsland Road Sidings","hub_type":"rail_cargo_station","operator_classification":"other","source_operator":"","osm_type":"node","osm_id":"9921260665","railway":"yard","landuse":"","industrial":"","amenity":"","freight":"","importance_rank":2,"importance":"regional_core"},"geometry":{"type":"Point","coordinates":[-2.570975,51.4515845]}},{"type":"Feature","properties":{"id":"uk-osm-logistics-node-9990080178","name":"Kingston Bulk Terminal","hub_type":"rail_cargo_station","operator_classification":"other","source_operator":"","osm_type":"node","osm_id":"9990080178","railway":"yard","landuse":"","industrial":"","amenity":"","freight":"","importance_rank":2,"importance":"regional_core"},"geometry":{"type":"Point","coordinates":[-0.2493744,53.738431]}},{"type":"Feature","properties":{"id":"uk-osm-logistics-node-4743824821","name":"Knowsley Freight Terminal","hub_type":"rail_cargo_station","operator_classification":"other","source_operator":"","osm_type":"node","osm_id":"4743824821","railway":"yard","landuse":"","industrial":"","amenity":"","freight":"","importance_rank":2,"importance":"regional_core"},"geometry":{"type":"Point","coordinates":[-2.8580419,53.4903809]}},{"type":"Feature","properties":{"id":"uk-osm-logistics-node-13404111422","name":"LNW Sidings","hub_type":"rail_cargo_station","operator_classification":"public","source_operator":"Network Rail","osm_type":"node","osm_id":"13404111422","railway":"yard","landuse":"","industrial":"","amenity":"","freight":"","importance_rank":2,"importance":"regional_core"},"geometry":{"type":"Point","coordinates":[-2.1870405,53.0115164]}},{"type":"Feature","properties":{"id":"uk-osm-logistics-node-9995131922","name":"Laira Diesel Depot","hub_type":"rail_cargo_station","operator_classification":"other","source_operator":"","osm_type":"node","osm_id":"9995131922","railway":"yard","landuse":"","industrial":"","amenity":"","freight":"","importance_rank":2,"importance":"regional_core"},"geometry":{"type":"Point","coordinates":[-4.1043512,50.381565]}},{"type":"Feature","properties":{"id":"uk-osm-logistics-way-558631775","name":"Lairg Civil Engineer's Sidings","hub_type":"rail_cargo_station","operator_classification":"public","source_operator":"Network Rail","osm_type":"way","osm_id":"558631775","railway":"yard","landuse":"railway","industrial":"","amenity":"","freight":"","importance_rank":2,"importance":"regional_core"},"geometry":{"type":"Point","coordinates":[-4.3998394,58.001451]}},{"type":"Feature","properties":{"id":"uk-osm-logistics-node-13352264435","name":"Land Recovery Ltd","hub_type":"rail_cargo_station","operator_classification":"private","source_operator":"Land Recovery Ltd","osm_type":"node","osm_id":"13352264435","railway":"yard","landuse":"","industrial":"","amenity":"","freight":"","importance_rank":2,"importance":"regional_core"},"geometry":{"type":"Point","coordinates":[-2.222838,53.0531071]}},{"type":"Feature","properties":{"id":"uk-osm-logistics-node-8737073526","name":"Landore Traction Maintenance Depot","hub_type":"rail_cargo_station","operator_classification":"other","source_operator":"","osm_type":"node","osm_id":"8737073526","railway":"yard","landuse":"","industrial":"","amenity":"","freight":"","importance_rank":2,"importance":"regional_core"},"geometry":{"type":"Point","coordinates":[-3.9402705,51.6398866]}},{"type":"Feature","properties":{"id":"uk-osm-logistics-node-8599123432","name":"Langwith Sidings","hub_type":"rail_cargo_station","operator_classification":"other","source_operator":"","osm_type":"node","osm_id":"8599123432","railway":"yard","landuse":"","industrial":"","amenity":"","freight":"","importance_rank":2,"importance":"regional_core"},"geometry":{"type":"Point","coordinates":[-1.2086299,53.2107847]}},{"type":"Feature","properties":{"id":"uk-osm-logistics-node-7937375510","name":"Lawyer's Farm","hub_type":"rail_cargo_station","operator_classification":"private","source_operator":"Lawyer's Farm","osm_type":"node","osm_id":"7937375510","railway":"yard","landuse":"","industrial":"","amenity":"","freight":"","importance_rank":2,"importance":"regional_core"},"geometry":{"type":"Point","coordinates":[0.095123,52.8731527]}},{"type":"Feature","properties":{"id":"uk-osm-logistics-node-9990138529","name":"Leeds Midland Road Depot","hub_type":"rail_cargo_station","operator_classification":"private","source_operator":"Freightliner","osm_type":"node","osm_id":"9990138529","railway":"yard","landuse":"","industrial":"","amenity":"","freight":"","importance_rank":2,"importance":"regional_core"},"geometry":{"type":"Point","coordinates":[-1.5280891,53.7755939]}},{"type":"Feature","properties":{"id":"uk-osm-logistics-node-9340171176","name":"Light Maintenance Station","hub_type":"rail_cargo_station","operator_classification":"other","source_operator":"","osm_type":"node","osm_id":"9340171176","railway":"yard","landuse":"","industrial":"","amenity":"","freight":"","importance_rank":2,"importance":"regional_core"},"geometry":{"type":"Point","coordinates":[-1.3212404,52.0560431]}},{"type":"Feature","properties":{"id":"uk-osm-logistics-way-1001898158","name":"Lillie Bridge Depot","hub_type":"rail_cargo_station","operator_classification":"other","source_operator":"","osm_type":"way","osm_id":"1001898158","railway":"yard","landuse":"railway","industrial":"","amenity":"","freight":"","importance_rank":2,"importance":"regional_core"},"geometry":{"type":"Point","coordinates":[-0.202171,51.4900338]}},{"type":"Feature","properties":{"id":"uk-osm-logistics-node-8375636642","name":"Lindsey Oil Refinery","hub_type":"rail_cargo_station","operator_classification":"other","source_operator":"","osm_type":"node","osm_id":"8375636642","railway":"yard","landuse":"","industrial":"","amenity":"","freight":"","importance_rank":2,"importance":"regional_core"},"geometry":{"type":"Point","coordinates":[-0.2429199,53.6424595]}},{"type":"Feature","properties":{"id":"uk-osm-logistics-node-10043510878","name":"Litchurch Lane Works","hub_type":"rail_cargo_station","operator_classification":"other","source_operator":"","osm_type":"node","osm_id":"10043510878","railway":"yard","landuse":"","industrial":"","amenity":"","freight":"","importance_rank":2,"importance":"regional_core"},"geometry":{"type":"Point","coordinates":[-1.4588301,52.9061219]}},{"type":"Feature","properties":{"id":"uk-osm-logistics-node-8651940694","name":"Liverpool Terminal","hub_type":"rail_cargo_station","operator_classification":"other","source_operator":"","osm_type":"node","osm_id":"8651940694","railway":"yard","landuse":"","industrial":"","amenity":"","freight":"","importance_rank":2,"importance":"regional_core"},"geometry":{"type":"Point","coordinates":[-2.9027247,53.3532848]}},{"type":"Feature","properties":{"id":"uk-osm-logistics-way-727564524","name":"Llanfoist Depot","hub_type":"truck_terminal","operator_classification":"private","source_operator":"Monmouthshire County Council","osm_type":"way","osm_id":"727564524","railway":"","landuse":"industrial","industrial":"logistics","amenity":"","freight":"","importance_rank":2,"importance":"regional_core"},"geometry":{"type":"Point","coordinates":[-3.029498,51.8149965]}}]}