{"type":"FeatureCollection","features":[{"type":"Feature","properties":{"id":"ru-port-tam","name":"Taman'","unlocode":"RUTAM","subdivision":"KDA","function":"1-------","status":"AA","date":"1101","iata":"","importance_rank_source":"unlocode_status_iata","importance_rank":2,"importance":"regional_core","legal_designation":"important","legal_designation_label":"Important port","manager_type_code":"1"},"geometry":{"type":"Point","coordinates":[36.71666666666667,45.21666666666667]}},{"type":"Feature","properties":{"id":"ru-port-dks","name":"Dikson","unlocode":"RUDKS","subdivision":"","function":"1--4----","status":"AI","date":"2301","iata":"","importance_rank_source":"unlocode_status_iata","importance_rank":2,"importance":"regional_core","legal_designation":"important","legal_designation_label":"Important port","manager_type_code":"1"},"geometry":{"type":"Point","coordinates":[80.5,73.5]}},{"type":"Feature","properties":{"id":"ru-port-htg","name":"Hatanga","unlocode":"RUHTG","subdivision":"","function":"1--4----","status":"AI","date":"2301","iata":"","importance_rank_source":"unlocode_status_iata","importance_rank":2,"importance":"regional_core","legal_designation":"important","legal_designation_label":"Important port","manager_type_code":"1"},"geometry":{"type":"Point","coordinates":[102.46666666666667,71.98333333333333]}},{"type":"Feature","properties":{"id":"ru-port-vog","name":"Volgograd","unlocode":"RUVOG","subdivision":"","function":"12-4----","status":"AI","date":"2007","iata":"","importance_rank_source":"unlocode_status_iata","importance_rank":2,"importance":"regional_core","legal_designation":"important","legal_designation_label":"Important port","manager_type_code":"1"},"geometry":{"type":"Point","coordinates":[44.583333333333336,48.8]}},{"type":"Feature","properties":{"id":"ru-port-aer","name":"Sochi","unlocode":"RUAER","subdivision":"KDA","function":"1234----","status":"AI","date":"1301","iata":"","importance_rank_source":"unlocode_status_iata","importance_rank":2,"importance":"regional_core","legal_designation":"important","legal_designation_label":"Important port","manager_type_code":"1"},"geometry":{"type":"Point","coordinates":[39.71666666666667,43.6]}},{"type":"Feature","properties":{"id":"ru-port-bvv","name":"Kuril'skiy Burevestnik AFB (Burevestnik AFB)","unlocode":"RUBVV","subdivision":"SAK","function":"1--4----","status":"AI","date":"1207","iata":"","importance_rank_source":"unlocode_status_iata","importance_rank":2,"importance":"regional_core","legal_designation":"important","legal_designation_label":"Important port","manager_type_code":"1"},"geometry":{"type":"Point","coordinates":[147.63333333333333,44.93333333333333]}},{"type":"Feature","properties":{"id":"ru-port-mow","name":"Moskva","unlocode":"RUMOW","subdivision":"MOW","function":"123456--","status":"AI","date":"1207","iata":"","importance_rank_source":"unlocode_status_iata","importance_rank":2,"importance":"regional_core","legal_designation":"important","legal_designation_label":"Important port","manager_type_code":"1"},"geometry":{"type":"Point","coordinates":[37.6,55.75]}},{"type":"Feature","properties":{"id":"ru-port-dee","name":"Yuzhno-Kuril'sk","unlocode":"RUDEE","subdivision":"SAK","function":"1--4----","status":"AI","date":"1207","iata":"","importance_rank_source":"unlocode_status_iata","importance_rank":2,"importance":"regional_core","legal_designation":"important","legal_designation_label":"Important port","manager_type_code":"1"},"geometry":{"type":"Point","coordinates":[145.85,44.03333333333333]}},{"type":"Feature","properties":{"id":"ru-port-amv","name":"Amderma","unlocode":"RUAMV","subdivision":"NEN","function":"1--4----","status":"AI","date":"1001","iata":"","importance_rank_source":"unlocode_status_iata","importance_rank":2,"importance":"regional_core","legal_designation":"important","legal_designation_label":"Important port","manager_type_code":"1"},"geometry":{"type":"Point","coordinates":[61.666666666666664,69.76666666666667]}},{"type":"Feature","properties":{"id":"ru-port-njc","name":"Nizhnevartovsk","unlocode":"RUNJC","subdivision":"KHM","function":"1--4----","status":"AI","date":"1001","iata":"","importance_rank_source":"unlocode_status_iata","importance_rank":2,"importance":"regional_core","legal_designation":"important","legal_designation_label":"Important port","manager_type_code":"1"},"geometry":{"type":"Point","coordinates":[76.56666666666666,60.93333333333333]}},{"type":"Feature","properties":{"id":"ru-port-kuf","name":"Samara","unlocode":"RUKUF","subdivision":"","function":"1234-6--","status":"AI","date":"0601","iata":"","importance_rank_source":"unlocode_status_iata","importance_rank":2,"importance":"regional_core","legal_designation":"important","legal_designation_label":"Important port","manager_type_code":"1"},"geometry":{"type":"Point","coordinates":[50.166666666666664,53.21666666666667]}},{"type":"Feature","properties":{"id":"ru-port-mcx","name":"Makhachkala","unlocode":"RUMCX","subdivision":"","function":"1234----","status":"AI","date":"0401","iata":"","importance_rank_source":"unlocode_status_iata","importance_rank":2,"importance":"regional_core","legal_designation":"important","legal_designation_label":"Important port","manager_type_code":"1"},"geometry":{"type":"Point","coordinates":[47.5,42.96666666666667]}},{"type":"Feature","properties":{"id":"ru-port-pvs","name":"Provideniya, Bukhta","unlocode":"RUPVS","subdivision":"","function":"1-34----","status":"AI","date":"0401","iata":"","importance_rank_source":"unlocode_status_iata","importance_rank":2,"importance":"regional_core","legal_designation":"important","legal_designation_label":"Important port","manager_type_code":"1"},"geometry":{"type":"Point","coordinates":[-173.3,64.38333333333334]}},{"type":"Feature","properties":{"id":"ru-port-led","name":"Saint Petersburg (ex Leningrad)","unlocode":"RULED","subdivision":"SPE","function":"12345---","status":"AI","date":"0401","iata":"","importance_rank_source":"unlocode_status_iata","importance_rank":2,"importance":"regional_core","legal_designation":"important","legal_designation_label":"Important port","manager_type_code":"1"},"geometry":{"type":"Point","coordinates":[30.25,59.88333333333333]}},{"type":"Feature","properties":{"id":"ru-port-ukk","name":"Ust-Kamchatsk","unlocode":"RUUKK","subdivision":"","function":"1-------","status":"RL","date":"9207","iata":"","importance_rank_source":"unlocode_status_iata","importance_rank":1,"importance":"local_connector","legal_designation":"local","legal_designation_label":"Local port","manager_type_code":"1"},"geometry":{"type":"Point","coordinates":[162.65,50.21666666666667]}},{"type":"Feature","properties":{"id":"ru-port-fip","name":"Vladivostok","unlocode":"RUFIP","subdivision":"PRI","function":"12------","status":"RL","date":"2007","iata":"","importance_rank_source":"unlocode_status_iata","importance_rank":1,"importance":"local_connector","legal_designation":"local","legal_designation_label":"Local port","manager_type_code":"1"},"geometry":{"type":"Point","coordinates":[131.9,43.13333333333333]}},{"type":"Feature","properties":{"id":"ru-port-vyp","name":"Vostochnyy Port","unlocode":"RUVYP","subdivision":"","function":"12------","status":"RL","date":"2007","iata":"","importance_rank_source":"unlocode_status_iata","importance_rank":1,"importance":"local_connector","legal_designation":"local","legal_designation_label":"Local port","manager_type_code":"1"},"geometry":{"type":"Point","coordinates":[133.05,42.766666666666666]}},{"type":"Feature","properties":{"id":"ru-port-pok","name":"Engels","unlocode":"RUPOK","subdivision":"SAR","function":"1-------","status":"RL","date":"1801","iata":"","importance_rank_source":"unlocode_status_iata","importance_rank":1,"importance":"local_connector","legal_designation":"local","legal_designation_label":"Local port","manager_type_code":"1"},"geometry":{"type":"Point","coordinates":[46.11666666666667,51.5]}},{"type":"Feature","properties":{"id":"ru-port-olp","name":"Ol'ga","unlocode":"RUOLP","subdivision":"PRI","function":"1-------","status":"RL","date":"1707","iata":"","importance_rank_source":"unlocode_status_iata","importance_rank":1,"importance":"local_connector","legal_designation":"local","legal_designation_label":"Local port","manager_type_code":"1"},"geometry":{"type":"Point","coordinates":[135.28333333333333,43.733333333333334]}},{"type":"Feature","properties":{"id":"ru-port-abk","name":"Abinsk","unlocode":"RUABK","subdivision":"KDA","function":"123-----","status":"RL","date":"1701","iata":"","importance_rank_source":"unlocode_status_iata","importance_rank":1,"importance":"local_connector","legal_designation":"local","legal_designation_label":"Local port","manager_type_code":"1"},"geometry":{"type":"Point","coordinates":[38.15,44.86666666666667]}},{"type":"Feature","properties":{"id":"ru-port-bnk","name":"Bronka Port","unlocode":"RUBNK","subdivision":"SPE","function":"123-----","status":"RL","date":"1701","iata":"","importance_rank_source":"unlocode_status_iata","importance_rank":1,"importance":"local_connector","legal_designation":"local","legal_designation_label":"Local port","manager_type_code":"1"},"geometry":{"type":"Point","coordinates":[29.666666666666668,59.916666666666664]}},{"type":"Feature","properties":{"id":"ru-port-rnd","name":"Rostov-na-Donu","unlocode":"RURND","subdivision":"ROS","function":"1-3-----","status":"RL","date":"1701","iata":"","importance_rank_source":"unlocode_status_iata","importance_rank":1,"importance":"local_connector","legal_designation":"local","legal_designation_label":"Local port","manager_type_code":"1"},"geometry":{"type":"Point","coordinates":[39.71666666666667,47.233333333333334]}},{"type":"Feature","properties":{"id":"ru-port-brk","name":"Lomonosov","unlocode":"RUBRK","subdivision":"SPE","function":"123-----","status":"RL","date":"1607","iata":"","importance_rank_source":"unlocode_status_iata","importance_rank":1,"importance":"local_connector","legal_designation":"local","legal_designation_label":"Local port","manager_type_code":"1"},"geometry":{"type":"Point","coordinates":[29.733333333333334,59.9]}},{"type":"Feature","properties":{"id":"ru-port-olb","name":"Bukhta Ol'ga","unlocode":"RUOLB","subdivision":"KAM","function":"1-------","status":"RL","date":"1501","iata":"","importance_rank_source":"unlocode_status_iata","importance_rank":1,"importance":"local_connector","legal_designation":"local","legal_designation_label":"Local port","manager_type_code":"1"},"geometry":{"type":"Point","coordinates":[161.11666666666667,54.55]}},{"type":"Feature","properties":{"id":"ru-port-kot","name":"Kotel'nyy","unlocode":"RUKOT","subdivision":"SA","function":"1-------","status":"RL","date":"1501","iata":"","importance_rank_source":"unlocode_status_iata","importance_rank":1,"importance":"local_connector","legal_designation":"local","legal_designation_label":"Local port","manager_type_code":"1"},"geometry":{"type":"Point","coordinates":[137.93333333333334,76.0]}},{"type":"Feature","properties":{"id":"ru-port-sab","name":"Sabetta","unlocode":"RUSAB","subdivision":"YAN","function":"1--4----","status":"RL","date":"1501","iata":"SBT","importance_rank_source":"unlocode_status_iata","importance_rank":1,"importance":"local_connector","legal_designation":"local","legal_designation_label":"Local port","manager_type_code":"1"},"geometry":{"type":"Point","coordinates":[72.08333333333333,71.25]}},{"type":"Feature","properties":{"id":"ru-port-slk","name":"Solovki","unlocode":"RUSLK","subdivision":"ARK","function":"1-------","status":"RL","date":"1501","iata":"","importance_rank_source":"unlocode_status_iata","importance_rank":1,"importance":"local_connector","legal_designation":"local","legal_designation_label":"Local port","manager_type_code":"1"},"geometry":{"type":"Point","coordinates":[35.68333333333333,65.41666666666667]}},{"type":"Feature","properties":{"id":"ru-port-xc2","name":"Kotel'niki","unlocode":"RUXC2","subdivision":"MOS","function":"1----6--","status":"RL","date":"1407","iata":"","importance_rank_source":"unlocode_status_iata","importance_rank":1,"importance":"local_connector","legal_designation":"local","legal_designation_label":"Local port","manager_type_code":"1"},"geometry":{"type":"Point","coordinates":[37.85,55.63333333333333]}},{"type":"Feature","properties":{"id":"ru-port-ma2","name":"Malino","unlocode":"RUMA2","subdivision":"MOS","function":"1----6--","status":"RL","date":"1407","iata":"","importance_rank_source":"unlocode_status_iata","importance_rank":1,"importance":"local_connector","legal_designation":"local","legal_designation_label":"Local port","manager_type_code":"1"},"geometry":{"type":"Point","coordinates":[38.166666666666664,55.1]}},{"type":"Feature","properties":{"id":"ru-port-b2l","name":"Shebekino","unlocode":"RUB2L","subdivision":"BEL","function":"1----6--","status":"RL","date":"1407","iata":"","importance_rank_source":"unlocode_status_iata","importance_rank":1,"importance":"local_connector","legal_designation":"local","legal_designation_label":"Local port","manager_type_code":"1"},"geometry":{"type":"Point","coordinates":[36.9,50.4]}},{"type":"Feature","properties":{"id":"ru-port-zca","name":"Balozhi","unlocode":"RUZCA","subdivision":"NGR","function":"1-3-----","status":"RL","date":"1401","iata":"","importance_rank_source":"unlocode_status_iata","importance_rank":1,"importance":"local_connector","legal_designation":"local","legal_designation_label":"Local port","manager_type_code":"1"},"geometry":{"type":"Point","coordinates":[31.883333333333333,58.36666666666667]}},{"type":"Feature","properties":{"id":"ru-port-vms","name":"Vostokmorservice","unlocode":"RUVMS","subdivision":"PRI","function":"1-------","status":"RL","date":"1301","iata":"","importance_rank_source":"unlocode_status_iata","importance_rank":1,"importance":"local_connector","legal_designation":"local","legal_designation_label":"Local port","manager_type_code":"1"},"geometry":{"type":"Point","coordinates":[131.86666666666667,43.083333333333336]}},{"type":"Feature","properties":{"id":"ru-port-sty","name":"Svetlyy","unlocode":"RUSTY","subdivision":"KGD","function":"1-------","status":"RL","date":"1207","iata":"","importance_rank_source":"unlocode_status_iata","importance_rank":1,"importance":"local_connector","legal_designation":"local","legal_designation_label":"Local port","manager_type_code":"1"},"geometry":{"type":"Point","coordinates":[20.5,54.7]}},{"type":"Feature","properties":{"id":"ru-port-bkt","name":"Belaya Kalitva","unlocode":"RUBKT","subdivision":"ROS","function":"1----6--","status":"RL","date":"1201","iata":"","importance_rank_source":"unlocode_status_iata","importance_rank":1,"importance":"local_connector","legal_designation":"local","legal_designation_label":"Local port","manager_type_code":"1"},"geometry":{"type":"Point","coordinates":[40.78333333333333,48.166666666666664]}},{"type":"Feature","properties":{"id":"ru-port-fpt","name":"Fish Port Terminal","unlocode":"RUFPT","subdivision":"","function":"1-------","status":"RL","date":"1201","iata":"","importance_rank_source":"unlocode_status_iata","importance_rank":1,"importance":"local_connector","legal_designation":"local","legal_designation_label":"Local port","manager_type_code":"1"},"geometry":{"type":"Point","coordinates":[131.9,43.13333333333333]}},{"type":"Feature","properties":{"id":"ru-port-slh","name":"Salekhard","unlocode":"RUSLH","subdivision":"YAN","function":"1-------","status":"RL","date":"1201","iata":"","importance_rank_source":"unlocode_status_iata","importance_rank":1,"importance":"local_connector","legal_designation":"local","legal_designation_label":"Local port","manager_type_code":"1"},"geometry":{"type":"Point","coordinates":[66.6,66.51666666666667]}},{"type":"Feature","properties":{"id":"ru-port-yts","name":"Yartsevo","unlocode":"RUYTS","subdivision":"SMO","function":"1-34----","status":"RL","date":"1201","iata":"","importance_rank_source":"unlocode_status_iata","importance_rank":1,"importance":"local_connector","legal_designation":"local","legal_designation_label":"Local port","manager_type_code":"1"},"geometry":{"type":"Point","coordinates":[32.666666666666664,55.06666666666667]}},{"type":"Feature","properties":{"id":"ru-port-bgv","name":"Bagaevskaya","unlocode":"RUBGV","subdivision":"ROS","function":"1-3-----","status":"RL","date":"1007","iata":"","importance_rank_source":"unlocode_status_iata","importance_rank":1,"importance":"local_connector","legal_designation":"local","legal_designation_label":"Local port","manager_type_code":"1"},"geometry":{"type":"Point","coordinates":[40.38333333333333,47.31666666666667]}},{"type":"Feature","properties":{"id":"ru-port-agk","name":"Angarsk","unlocode":"RUAGK","subdivision":"IRK","function":"123-----","status":"RL","date":"1001","iata":"","importance_rank_source":"unlocode_status_iata","importance_rank":1,"importance":"local_connector","legal_designation":"local","legal_designation_label":"Local port","manager_type_code":"1"},"geometry":{"type":"Point","coordinates":[103.88333333333334,52.53333333333333]}},{"type":"Feature","properties":{"id":"ru-port-kzm","name":"Kozmino Port","unlocode":"RUKZM","subdivision":"","function":"1-------","status":"RL","date":"1001","iata":"","importance_rank_source":"unlocode_status_iata","importance_rank":1,"importance":"local_connector","legal_designation":"local","legal_designation_label":"Local port","manager_type_code":"1"},"geometry":{"type":"Point","coordinates":[133.01666666666668,42.71666666666667]}},{"type":"Feature","properties":{"id":"ru-port-blk","name":"Balakhna","unlocode":"RUBLK","subdivision":"NIZ","function":"1-------","status":"RL","date":"0907","iata":"","importance_rank_source":"unlocode_status_iata","importance_rank":1,"importance":"local_connector","legal_designation":"local","legal_designation_label":"Local port","manager_type_code":"1"},"geometry":{"type":"Point","coordinates":[43.61666666666667,56.483333333333334]}},{"type":"Feature","properties":{"id":"ru-port-cpc","name":"Cpc Terminal","unlocode":"RUCPC","subdivision":"","function":"1-------","status":"RL","date":"0907","iata":"","importance_rank_source":"unlocode_status_iata","importance_rank":1,"importance":"local_connector","legal_designation":"local","legal_designation_label":"Local port","manager_type_code":"1"},"geometry":{"type":"Point","coordinates":[37.65,44.666666666666664]}},{"type":"Feature","properties":{"id":"ru-port-dbk","name":"Dubovka","unlocode":"RUDBK","subdivision":"VLG","function":"1-------","status":"RL","date":"0907","iata":"","importance_rank_source":"unlocode_status_iata","importance_rank":1,"importance":"local_connector","legal_designation":"local","legal_designation_label":"Local port","manager_type_code":"1"},"geometry":{"type":"Point","coordinates":[44.81666666666667,49.05]}},{"type":"Feature","properties":{"id":"ru-port-kzp","name":"Kavkaz","unlocode":"RUKZP","subdivision":"KDA","function":"123--6--","status":"RL","date":"0907","iata":"","importance_rank_source":"unlocode_status_iata","importance_rank":1,"importance":"local_connector","legal_designation":"local","legal_designation_label":"Local port","manager_type_code":"1"},"geometry":{"type":"Point","coordinates":[36.766666666666666,45.416666666666664]}},{"type":"Feature","properties":{"id":"ru-port-nvs","name":"Novorossiysk","unlocode":"RUNVS","subdivision":"KDA","function":"123--6--","status":"RL","date":"0907","iata":"","importance_rank_source":"unlocode_status_iata","importance_rank":1,"importance":"local_connector","legal_designation":"local","legal_designation_label":"Local port","manager_type_code":"1"},"geometry":{"type":"Point","coordinates":[37.766666666666666,44.71666666666667]}},{"type":"Feature","properties":{"id":"ru-port-aks","name":"Aksay","unlocode":"RUAKS","subdivision":"ROS","function":"1-------","status":"RL","date":"0901","iata":"","importance_rank_source":"unlocode_status_iata","importance_rank":1,"importance":"local_connector","legal_designation":"local","legal_designation_label":"Local port","manager_type_code":"1"},"geometry":{"type":"Point","coordinates":[39.88333333333333,47.25]}},{"type":"Feature","properties":{"id":"ru-port-abc","name":"Ambarchik","unlocode":"RUABC","subdivision":"SA","function":"1-------","status":"RL","date":"0901","iata":"","importance_rank_source":"unlocode_status_iata","importance_rank":1,"importance":"local_connector","legal_designation":"local","legal_designation_label":"Local port","manager_type_code":"1"},"geometry":{"type":"Point","coordinates":[162.3,69.61666666666666]}},{"type":"Feature","properties":{"id":"ru-port-amu","name":"Amursk","unlocode":"RUAMU","subdivision":"KHA","function":"1-------","status":"RL","date":"0901","iata":"","importance_rank_source":"unlocode_status_iata","importance_rank":1,"importance":"local_connector","legal_designation":"local","legal_designation_label":"Local port","manager_type_code":"1"},"geometry":{"type":"Point","coordinates":[136.9,50.21666666666667]}},{"type":"Feature","properties":{"id":"ru-port-bln","name":"Balakhnya","unlocode":"RUBLN","subdivision":"IRK","function":"1-------","status":"RL","date":"0901","iata":"","importance_rank_source":"unlocode_status_iata","importance_rank":1,"importance":"local_connector","legal_designation":"local","legal_designation_label":"Local port","manager_type_code":"1"},"geometry":{"type":"Point","coordinates":[105.81666666666666,56.8]}},{"type":"Feature","properties":{"id":"ru-port-bkn","name":"Bolshoy Kamen","unlocode":"RUBKN","subdivision":"KHM","function":"1-------","status":"RL","date":"0901","iata":"","importance_rank_source":"unlocode_status_iata","importance_rank":1,"importance":"local_connector","legal_designation":"local","legal_designation_label":"Local port","manager_type_code":"1"},"geometry":{"type":"Point","coordinates":[66.23333333333333,62.45]}},{"type":"Feature","properties":{"id":"ru-port-bor","name":"Borisova","unlocode":"RUBOR","subdivision":"IRK","function":"1-------","status":"RL","date":"0901","iata":"","importance_rank_source":"unlocode_status_iata","importance_rank":1,"importance":"local_connector","legal_designation":"local","legal_designation_label":"Local port","manager_type_code":"1"},"geometry":{"type":"Point","coordinates":[106.23333333333333,57.016666666666666]}},{"type":"Feature","properties":{"id":"ru-port-chm","name":"Chemashi","unlocode":"RUCHM","subdivision":"KHM","function":"1-------","status":"RL","date":"0901","iata":"","importance_rank_source":"unlocode_status_iata","importance_rank":1,"importance":"local_connector","legal_designation":"local","legal_designation_label":"Local port","manager_type_code":"1"},"geometry":{"type":"Point","coordinates":[65.18333333333334,63.03333333333333]}},{"type":"Feature","properties":{"id":"ru-port-chu","name":"Chuya","unlocode":"RUCHU","subdivision":"IRK","function":"1-------","status":"RL","date":"0901","iata":"","importance_rank_source":"unlocode_status_iata","importance_rank":1,"importance":"local_connector","legal_designation":"local","legal_designation_label":"Local port","manager_type_code":"1"},"geometry":{"type":"Point","coordinates":[112.43333333333334,59.266666666666666]}},{"type":"Feature","properties":{"id":"ru-port-dub","name":"Dubna","unlocode":"RUDUB","subdivision":"TVE","function":"1-------","status":"RL","date":"0901","iata":"","importance_rank_source":"unlocode_status_iata","importance_rank":1,"importance":"local_connector","legal_designation":"local","legal_designation_label":"Local port","manager_type_code":"1"},"geometry":{"type":"Point","coordinates":[37.13333333333333,56.75]}},{"type":"Feature","properties":{"id":"ru-port-idg","name":"Indiga","unlocode":"RUIDG","subdivision":"NEN","function":"1-------","status":"RL","date":"0901","iata":"","importance_rank_source":"unlocode_status_iata","importance_rank":1,"importance":"local_connector","legal_designation":"local","legal_designation_label":"Local port","manager_type_code":"1"},"geometry":{"type":"Point","coordinates":[49.016666666666666,67.65]}},{"type":"Feature","properties":{"id":"ru-port-kly","name":"Kalyazin","unlocode":"RUKLY","subdivision":"TVE","function":"1-------","status":"RL","date":"0901","iata":"","importance_rank_source":"unlocode_status_iata","importance_rank":1,"importance":"local_connector","legal_designation":"local","legal_designation_label":"Local port","manager_type_code":"1"},"geometry":{"type":"Point","coordinates":[37.833333333333336,57.233333333333334]}},{"type":"Feature","properties":{"id":"ru-port-ksa","name":"Kharasavey","unlocode":"RUKSA","subdivision":"NEN","function":"1-------","status":"RL","date":"0901","iata":"","importance_rank_source":"unlocode_status_iata","importance_rank":1,"importance":"local_connector","legal_designation":"local","legal_designation_label":"Local port","manager_type_code":"1"},"geometry":{"type":"Point","coordinates":[66.76666666666667,71.1]}},{"type":"Feature","properties":{"id":"ru-port-kty","name":"Khatyrka","unlocode":"RUKTY","subdivision":"CHU","function":"1-------","status":"RL","date":"0901","iata":"","importance_rank_source":"unlocode_status_iata","importance_rank":1,"importance":"local_connector","legal_designation":"local","legal_designation_label":"Local port","manager_type_code":"1"},"geometry":{"type":"Point","coordinates":[175.3,62.06666666666667]}},{"type":"Feature","properties":{"id":"ru-port-kim","name":"Kimry","unlocode":"RUKIM","subdivision":"TVE","function":"1-------","status":"RL","date":"0901","iata":"","importance_rank_source":"unlocode_status_iata","importance_rank":1,"importance":"local_connector","legal_designation":"local","legal_designation_label":"Local port","manager_type_code":"1"},"geometry":{"type":"Point","coordinates":[37.36666666666667,56.88333333333333]}},{"type":"Feature","properties":{"id":"ru-port-kik","name":"Kirensk","unlocode":"RUKIK","subdivision":"IRK","function":"1-------","status":"RL","date":"0901","iata":"","importance_rank_source":"unlocode_status_iata","importance_rank":1,"importance":"local_connector","legal_designation":"local","legal_designation_label":"Local port","manager_type_code":"1"},"geometry":{"type":"Point","coordinates":[108.1,57.766666666666666]}},{"type":"Feature","properties":{"id":"ru-port-kyk","name":"Kireyevskoye","unlocode":"RUKYK","subdivision":"TOM","function":"1-------","status":"RL","date":"0901","iata":"","importance_rank_source":"unlocode_status_iata","importance_rank":1,"importance":"local_connector","legal_designation":"local","legal_designation_label":"Local port","manager_type_code":"1"},"geometry":{"type":"Point","coordinates":[84.08333333333333,56.03333333333333]}},{"type":"Feature","properties":{"id":"ru-port-kyi","name":"Kolguyev Island","unlocode":"RUKYI","subdivision":"NEN","function":"1-------","status":"RL","date":"0901","iata":"","importance_rank_source":"unlocode_status_iata","importance_rank":1,"importance":"local_connector","legal_designation":"local","legal_designation_label":"Local port","manager_type_code":"1"},"geometry":{"type":"Point","coordinates":[49.15,69.08333333333333]}},{"type":"Feature","properties":{"id":"ru-port-kvo","name":"Kolpashevo","unlocode":"RUKVO","subdivision":"TOM","function":"1-------","status":"RL","date":"0901","iata":"","importance_rank_source":"unlocode_status_iata","importance_rank":1,"importance":"local_connector","legal_designation":"local","legal_designation_label":"Local port","manager_type_code":"1"},"geometry":{"type":"Point","coordinates":[82.93333333333334,58.3]}},{"type":"Feature","properties":{"id":"ru-port-klt","name":"Koltogorskiye","unlocode":"RUKLT","subdivision":"TOM","function":"1-------","status":"RL","date":"0901","iata":"","importance_rank_source":"unlocode_status_iata","importance_rank":1,"importance":"local_connector","legal_designation":"local","legal_designation_label":"Local port","manager_type_code":"1"},"geometry":{"type":"Point","coordinates":[77.46666666666667,60.666666666666664]}},{"type":"Feature","properties":{"id":"ru-port-knl","name":"Konets Lug","unlocode":"RUKNL","subdivision":"IRK","function":"1-------","status":"RL","date":"0901","iata":"","importance_rank_source":"unlocode_status_iata","importance_rank":1,"importance":"local_connector","legal_designation":"local","legal_designation_label":"Local port","manager_type_code":"1"},"geometry":{"type":"Point","coordinates":[106.91666666666667,57.15]}},{"type":"Feature","properties":{"id":"ru-port-kzh","name":"Kozhevnikovo","unlocode":"RUKZH","subdivision":"TOM","function":"1-------","status":"RL","date":"0901","iata":"","importance_rank_source":"unlocode_status_iata","importance_rank":1,"importance":"local_connector","legal_designation":"local","legal_designation_label":"Local port","manager_type_code":"1"},"geometry":{"type":"Point","coordinates":[83.98333333333333,56.266666666666666]}},{"type":"Feature","properties":{"id":"ru-port-kso","name":"Krasnotur'insk","unlocode":"RUKSO","subdivision":"SVE","function":"123-----","status":"RL","date":"0901","iata":"","importance_rank_source":"unlocode_status_iata","importance_rank":1,"importance":"local_connector","legal_designation":"local","legal_designation_label":"Local port","manager_type_code":"1"},"geometry":{"type":"Point","coordinates":[60.46666666666667,59.766666666666666]}},{"type":"Feature","properties":{"id":"ru-port-ryk","name":"Krasnoturansk","unlocode":"RURYK","subdivision":"KYA","function":"1-3-----","status":"RL","date":"0901","iata":"","importance_rank_source":"unlocode_status_iata","importance_rank":1,"importance":"local_connector","legal_designation":"local","legal_designation_label":"Local port","manager_type_code":"1"},"geometry":{"type":"Point","coordinates":[91.55,54.31666666666667]}},{"type":"Feature","properties":{"id":"ru-port-kry","name":"Krasnyy Yar","unlocode":"RUKRY","subdivision":"NVS","function":"1-------","status":"RL","date":"0901","iata":"","importance_rank_source":"unlocode_status_iata","importance_rank":1,"importance":"local_connector","legal_designation":"local","legal_designation_label":"Local port","manager_type_code":"1"},"geometry":{"type":"Point","coordinates":[82.86666666666666,55.21666666666667]}},{"type":"Feature","properties":{"id":"ru-port-kri","name":"Krivosheino","unlocode":"RUKRI","subdivision":"TOM","function":"1-------","status":"RL","date":"0901","iata":"","importance_rank_source":"unlocode_status_iata","importance_rank":1,"importance":"local_connector","legal_designation":"local","legal_designation_label":"Local port","manager_type_code":"1"},"geometry":{"type":"Point","coordinates":[83.95,57.333333333333336]}},{"type":"Feature","properties":{"id":"ru-port-kub","name":"Kubekovo","unlocode":"RUKUB","subdivision":"KYA","function":"1-------","status":"RL","date":"0901","iata":"","importance_rank_source":"unlocode_status_iata","importance_rank":1,"importance":"local_connector","legal_designation":"local","legal_designation_label":"Local port","manager_type_code":"1"},"geometry":{"type":"Point","coordinates":[98.13333333333334,56.15]}},{"type":"Feature","properties":{"id":"ru-port-klk","name":"Kulakovo","unlocode":"RUKLK","subdivision":"KYA","function":"1-------","status":"RL","date":"0901","iata":"","importance_rank_source":"unlocode_status_iata","importance_rank":1,"importance":"local_connector","legal_designation":"local","legal_designation_label":"Local port","manager_type_code":"1"},"geometry":{"type":"Point","coordinates":[93.76666666666667,58.1]}},{"type":"Feature","properties":{"id":"ru-port-kur","name":"Kureysk","unlocode":"RUKUR","subdivision":"IRK","function":"1-------","status":"RL","date":"0901","iata":"","importance_rank_source":"unlocode_status_iata","importance_rank":1,"importance":"local_connector","legal_designation":"local","legal_designation_label":"Local port","manager_type_code":"1"},"geometry":{"type":"Point","coordinates":[111.33333333333333,58.95]}},{"type":"Feature","properties":{"id":"ru-port-lnk","name":"Lensk","unlocode":"RULNK","subdivision":"SA","function":"1-------","status":"RL","date":"0901","iata":"","importance_rank_source":"unlocode_status_iata","importance_rank":1,"importance":"local_connector","legal_designation":"local","legal_designation_label":"Local port","manager_type_code":"1"},"geometry":{"type":"Point","coordinates":[114.93333333333334,60.71666666666667]}},{"type":"Feature","properties":{"id":"ru-port-leo","name":"Leonova","unlocode":"RULEO","subdivision":"IRK","function":"1-------","status":"RL","date":"0901","iata":"","importance_rank_source":"unlocode_status_iata","importance_rank":1,"importance":"local_connector","legal_designation":"local","legal_designation_label":"Local port","manager_type_code":"1"},"geometry":{"type":"Point","coordinates":[107.45,57.333333333333336]}},{"type":"Feature","properties":{"id":"ru-port-leu","name":"Leushinskiye","unlocode":"RULEU","subdivision":"KHM","function":"1-------","status":"RL","date":"0901","iata":"","importance_rank_source":"unlocode_status_iata","importance_rank":1,"importance":"local_connector","legal_designation":"local","legal_designation_label":"Local port","manager_type_code":"1"},"geometry":{"type":"Point","coordinates":[67.18333333333334,62.18333333333333]}},{"type":"Feature","properties":{"id":"ru-port-lug","name":"Lugovoye","unlocode":"RULUG","subdivision":"TOM","function":"1-------","status":"RL","date":"0901","iata":"","importance_rank_source":"unlocode_status_iata","importance_rank":1,"importance":"local_connector","legal_designation":"local","legal_designation_label":"Local port","manager_type_code":"1"},"geometry":{"type":"Point","coordinates":[83.8,57.71666666666667]}},{"type":"Feature","properties":{"id":"ru-port-mkr","name":"Makarovo","unlocode":"RUMKR","subdivision":"IRK","function":"1-------","status":"RL","date":"0901","iata":"","importance_rank_source":"unlocode_status_iata","importance_rank":1,"importance":"local_connector","legal_designation":"local","legal_designation_label":"Local port","manager_type_code":"1"},"geometry":{"type":"Point","coordinates":[107.8,57.483333333333334]}},{"type":"Feature","properties":{"id":"ru-port-mdy","name":"Mamadysh","unlocode":"RUMDY","subdivision":"TA","function":"1-------","status":"RL","date":"0901","iata":"","importance_rank_source":"unlocode_status_iata","importance_rank":1,"importance":"local_connector","legal_designation":"local","legal_designation_label":"Local port","manager_type_code":"1"},"geometry":{"type":"Point","coordinates":[51.38333333333333,55.7]}},{"type":"Feature","properties":{"id":"ru-port-mog","name":"Mogochin","unlocode":"RUMOG","subdivision":"TOM","function":"1-------","status":"RL","date":"0901","iata":"","importance_rank_source":"unlocode_status_iata","importance_rank":1,"importance":"local_connector","legal_designation":"local","legal_designation_label":"Local port","manager_type_code":"1"},"geometry":{"type":"Point","coordinates":[83.58333333333333,57.7]}},{"type":"Feature","properties":{"id":"ru-port-mon","name":"Molchanovo","unlocode":"RUMON","subdivision":"TOM","function":"1-------","status":"RL","date":"0901","iata":"","importance_rank_source":"unlocode_status_iata","importance_rank":1,"importance":"local_connector","legal_designation":"local","legal_designation_label":"Local port","manager_type_code":"1"},"geometry":{"type":"Point","coordinates":[83.8,57.6]}},{"type":"Feature","properties":{"id":"ru-port-nar","name":"Narym","unlocode":"RUNAR","subdivision":"TOM","function":"1-------","status":"RL","date":"0901","iata":"","importance_rank_source":"unlocode_status_iata","importance_rank":1,"importance":"local_connector","legal_designation":"local","legal_designation_label":"Local port","manager_type_code":"1"},"geometry":{"type":"Point","coordinates":[81.58333333333333,58.916666666666664]}},{"type":"Feature","properties":{"id":"ru-port-nlk","name":"Neftelensk","unlocode":"RUNLK","subdivision":"IRK","function":"1-------","status":"RL","date":"0901","iata":"","importance_rank_source":"unlocode_status_iata","importance_rank":1,"importance":"local_connector","legal_designation":"local","legal_designation_label":"Local port","manager_type_code":"1"},"geometry":{"type":"Point","coordinates":[107.06666666666666,57.333333333333336]}},{"type":"Feature","properties":{"id":"ru-port-npe","name":"Nizhnyaya Pesha","unlocode":"RUNPE","subdivision":"NEN","function":"1-------","status":"RL","date":"0901","iata":"","importance_rank_source":"unlocode_status_iata","importance_rank":1,"importance":"local_connector","legal_designation":"local","legal_designation_label":"Local port","manager_type_code":"1"},"geometry":{"type":"Point","coordinates":[47.766666666666666,66.75]}},{"type":"Feature","properties":{"id":"ru-port-okz","name":"Okruzhnoe","unlocode":"RUOKZ","subdivision":"SAK","function":"1-------","status":"RL","date":"0901","iata":"","importance_rank_source":"unlocode_status_iata","importance_rank":1,"importance":"local_connector","legal_designation":"local","legal_designation_label":"Local port","manager_type_code":"1"},"geometry":{"type":"Point","coordinates":[143.8,50.31666666666667]}},{"type":"Feature","properties":{"id":"ru-port-oye","name":"Oktyabrskoye","unlocode":"RUOYE","subdivision":"KHM","function":"1-------","status":"RL","date":"0901","iata":"","importance_rank_source":"unlocode_status_iata","importance_rank":1,"importance":"local_connector","legal_designation":"local","legal_designation_label":"Local port","manager_type_code":"1"},"geometry":{"type":"Point","coordinates":[66.05,62.45]}},{"type":"Feature","properties":{"id":"ru-port-omk","name":"Olekminsk","unlocode":"RUOMK","subdivision":"SA","function":"1-------","status":"RL","date":"0901","iata":"","importance_rank_source":"unlocode_status_iata","importance_rank":1,"importance":"local_connector","legal_designation":"local","legal_designation_label":"Local port","manager_type_code":"1"},"geometry":{"type":"Point","coordinates":[120.41666666666667,60.36666666666667]}},{"type":"Feature","properties":{"id":"ru-port-hzo","name":"Orekhovo-Zuevo","unlocode":"RUHZO","subdivision":"MOS","function":"1----6--","status":"RL","date":"0901","iata":"","importance_rank_source":"unlocode_status_iata","importance_rank":1,"importance":"local_connector","legal_designation":"local","legal_designation_label":"Local port","manager_type_code":"1"},"geometry":{"type":"Point","coordinates":[38.96666666666667,55.81666666666667]}},{"type":"Feature","properties":{"id":"ru-port-pge","name":"Peregrebnoye","unlocode":"RUPGE","subdivision":"KHM","function":"1-------","status":"RL","date":"0901","iata":"","importance_rank_source":"unlocode_status_iata","importance_rank":1,"importance":"local_connector","legal_designation":"local","legal_designation_label":"Local port","manager_type_code":"1"},"geometry":{"type":"Point","coordinates":[65.06666666666666,62.983333333333334]}},{"type":"Feature","properties":{"id":"ru-port-pnv","name":"Polnovat","unlocode":"RUPNV","subdivision":"KHM","function":"1-------","status":"RL","date":"0901","iata":"","importance_rank_source":"unlocode_status_iata","importance_rank":1,"importance":"local_connector","legal_designation":"local","legal_designation_label":"Local port","manager_type_code":"1"},"geometry":{"type":"Point","coordinates":[65.9,63.78333333333333]}},{"type":"Feature","properties":{"id":"ru-port-ptp","name":"Potapova","unlocode":"RUPTP","subdivision":"IRK","function":"1-------","status":"RL","date":"0901","iata":"","importance_rank_source":"unlocode_status_iata","importance_rank":1,"importance":"local_connector","legal_designation":"local","legal_designation_label":"Local port","manager_type_code":"1"},"geometry":{"type":"Point","coordinates":[107.51666666666667,57.38333333333333]}},{"type":"Feature","properties":{"id":"ru-port-phs","name":"Prokhorovskiy","unlocode":"RUPHS","subdivision":"TOM","function":"1-------","status":"RL","date":"0901","iata":"","importance_rank_source":"unlocode_status_iata","importance_rank":1,"importance":"local_connector","legal_designation":"local","legal_designation_label":"Local port","manager_type_code":"1"},"geometry":{"type":"Point","coordinates":[79.41666666666667,59.5]}},{"type":"Feature","properties":{"id":"ru-port-rub","name":"Rubnoye","unlocode":"RURUB","subdivision":"KYA","function":"1-------","status":"RL","date":"0901","iata":"","importance_rank_source":"unlocode_status_iata","importance_rank":1,"importance":"local_connector","legal_designation":"local","legal_designation_label":"Local port","manager_type_code":"1"},"geometry":{"type":"Point","coordinates":[94.51666666666667,58.11666666666667]}},{"type":"Feature","properties":{"id":"ru-port-szz","name":"Sestroretsk","unlocode":"RUSZZ","subdivision":"LEN","function":"1-3-----","status":"RL","date":"0901","iata":"","importance_rank_source":"unlocode_status_iata","importance_rank":1,"importance":"local_connector","legal_designation":"local","legal_designation_label":"Local port","manager_type_code":"1"},"geometry":{"type":"Point","coordinates":[29.95,60.1]}},{"type":"Feature","properties":{"id":"ru-port-str","name":"Streika","unlocode":"RUSTR","subdivision":"KYA","function":"1-------","status":"RL","date":"0901","iata":"","importance_rank_source":"unlocode_status_iata","importance_rank":1,"importance":"local_connector","legal_designation":"local","legal_designation_label":"Local port","manager_type_code":"1"},"geometry":{"type":"Point","coordinates":[93.03333333333333,58.083333333333336]}},{"type":"Feature","properties":{"id":"ru-port-tay","name":"Tayura","unlocode":"RUTAY","subdivision":"IRK","function":"1-------","status":"RL","date":"0901","iata":"","importance_rank_source":"unlocode_status_iata","importance_rank":1,"importance":"local_connector","legal_designation":"local","legal_designation_label":"Local port","manager_type_code":"1"},"geometry":{"type":"Point","coordinates":[106.65,57.0]}},{"type":"Feature","properties":{"id":"ru-port-taz","name":"Tazovskiy","unlocode":"RUTAZ","subdivision":"NEN","function":"1-------","status":"RL","date":"0901","iata":"","importance_rank_source":"unlocode_status_iata","importance_rank":1,"importance":"local_connector","legal_designation":"local","legal_designation_label":"Local port","manager_type_code":"1"},"geometry":{"type":"Point","coordinates":[78.73333333333333,67.46666666666667]}},{"type":"Feature","properties":{"id":"ru-port-uel","name":"Uelen","unlocode":"RUUEL","subdivision":"CHU","function":"1-------","status":"RL","date":"0901","iata":"","importance_rank_source":"unlocode_status_iata","importance_rank":1,"importance":"local_connector","legal_designation":"local","legal_designation_label":"Local port","manager_type_code":"1"},"geometry":{"type":"Point","coordinates":[-169.81666666666666,66.16666666666667]}},{"type":"Feature","properties":{"id":"ru-port-uch","name":"Ust Chaun","unlocode":"RUUCH","subdivision":"CHU","function":"1-------","status":"RL","date":"0901","iata":"","importance_rank_source":"unlocode_status_iata","importance_rank":1,"importance":"local_connector","legal_designation":"local","legal_designation_label":"Local port","manager_type_code":"1"},"geometry":{"type":"Point","coordinates":[170.5,68.8]}},{"type":"Feature","properties":{"id":"ru-port-ulu","name":"Ust'-Luga","unlocode":"RUULU","subdivision":"LEN","function":"123-----","status":"RL","date":"0901","iata":"","importance_rank_source":"unlocode_status_iata","importance_rank":1,"importance":"local_connector","legal_designation":"local","legal_designation_label":"Local port","manager_type_code":"1"},"geometry":{"type":"Point","coordinates":[28.316666666666666,59.666666666666664]}},{"type":"Feature","properties":{"id":"ru-port-vkr","name":"Vankarem","unlocode":"RUVKR","subdivision":"CHU","function":"1-------","status":"RL","date":"0901","iata":"","importance_rank_source":"unlocode_status_iata","importance_rank":1,"importance":"local_connector","legal_designation":"local","legal_designation_label":"Local port","manager_type_code":"1"},"geometry":{"type":"Point","coordinates":[-175.86666666666667,67.83333333333333]}},{"type":"Feature","properties":{"id":"ru-port-vay","name":"Vaygach","unlocode":"RUVAY","subdivision":"NEN","function":"1-------","status":"RL","date":"0901","iata":"","importance_rank_source":"unlocode_status_iata","importance_rank":1,"importance":"local_connector","legal_designation":"local","legal_designation_label":"Local port","manager_type_code":"1"},"geometry":{"type":"Point","coordinates":[58.75,70.41666666666667]}},{"type":"Feature","properties":{"id":"ru-port-vye","name":"Vertikoye","unlocode":"RUVYE","subdivision":"TOM","function":"1-------","status":"RL","date":"0901","iata":"","importance_rank_source":"unlocode_status_iata","importance_rank":1,"importance":"local_connector","legal_designation":"local","legal_designation_label":"Local port","manager_type_code":"1"},"geometry":{"type":"Point","coordinates":[79.68333333333334,59.38333333333333]}},{"type":"Feature","properties":{"id":"ru-port-vtm","name":"Vitim","unlocode":"RUVTM","subdivision":"SA","function":"1-------","status":"RL","date":"0901","iata":"","importance_rank_source":"unlocode_status_iata","importance_rank":1,"importance":"local_connector","legal_designation":"local","legal_designation_label":"Local port","manager_type_code":"1"},"geometry":{"type":"Point","coordinates":[112.56666666666666,59.416666666666664]}},{"type":"Feature","properties":{"id":"ru-port-vlg","name":"Volga","unlocode":"RUVLG","subdivision":"YAR","function":"1-------","status":"RL","date":"0901","iata":"","importance_rank_source":"unlocode_status_iata","importance_rank":1,"importance":"local_connector","legal_designation":"local","legal_designation_label":"Local port","manager_type_code":"1"},"geometry":{"type":"Point","coordinates":[38.4,57.95]}},{"type":"Feature","properties":{"id":"ru-port-vys","name":"Vysotsk","unlocode":"RUVYS","subdivision":"","function":"1-------","status":"RL","date":"0901","iata":"","importance_rank_source":"unlocode_status_iata","importance_rank":1,"importance":"local_connector","legal_designation":"local","legal_designation_label":"Local port","manager_type_code":"1"},"geometry":{"type":"Point","coordinates":[28.566666666666666,60.63333333333333]}},{"type":"Feature","properties":{"id":"ru-port-yam","name":"Yamburg","unlocode":"RUYAM","subdivision":"NEN","function":"1-------","status":"RL","date":"0901","iata":"","importance_rank_source":"unlocode_status_iata","importance_rank":1,"importance":"local_connector","legal_designation":"local","legal_designation_label":"Local port","manager_type_code":"1"},"geometry":{"type":"Point","coordinates":[77.15,68.28333333333333]}},{"type":"Feature","properties":{"id":"ru-port-lbu","name":"Lyubim","unlocode":"RULBU","subdivision":"YAR","function":"1-3-----","status":"RL","date":"0701","iata":"","importance_rank_source":"unlocode_status_iata","importance_rank":1,"importance":"local_connector","legal_designation":"local","legal_designation_label":"Local port","manager_type_code":"1"},"geometry":{"type":"Point","coordinates":[40.68333333333333,58.35]}},{"type":"Feature","properties":{"id":"ru-port-toi","name":"Tol'yatti","unlocode":"RUTOI","subdivision":"","function":"1----6--","status":"RL","date":"0701","iata":"","importance_rank_source":"unlocode_status_iata","importance_rank":1,"importance":"local_connector","legal_designation":"local","legal_designation_label":"Local port","manager_type_code":"1"},"geometry":{"type":"Point","coordinates":[49.5,53.46666666666667]}},{"type":"Feature","properties":{"id":"ru-port-sak","name":"Aleksandrovsk-Sakhalinskiy","unlocode":"RUSAK","subdivision":"","function":"1-3-----","status":"RL","date":"0601","iata":"","importance_rank_source":"unlocode_status_iata","importance_rank":1,"importance":"local_connector","legal_designation":"local","legal_designation_label":"Local port","manager_type_code":"1"},"geometry":{"type":"Point","coordinates":[142.15,50.9]}},{"type":"Feature","properties":{"id":"ru-port-chb","name":"Chebarkul'","unlocode":"RUCHB","subdivision":"","function":"123-----","status":"RL","date":"0601","iata":"","importance_rank_source":"unlocode_status_iata","importance_rank":1,"importance":"local_connector","legal_designation":"local","legal_designation_label":"Local port","manager_type_code":"1"},"geometry":{"type":"Point","coordinates":[60.36666666666667,54.96666666666667]}},{"type":"Feature","properties":{"id":"ru-port-dha","name":"Derbeshkinskiy","unlocode":"RUDHA","subdivision":"","function":"1-3-----","status":"RL","date":"0601","iata":"","importance_rank_source":"unlocode_status_iata","importance_rank":1,"importance":"local_connector","legal_designation":"local","legal_designation_label":"Local port","manager_type_code":"1"},"geometry":{"type":"Point","coordinates":[53.5,55.86666666666667]}},{"type":"Feature","properties":{"id":"ru-port-gvy","name":"Gavrilov-Yam","unlocode":"RUGVY","subdivision":"","function":"123-----","status":"RL","date":"0601","iata":"","importance_rank_source":"unlocode_status_iata","importance_rank":1,"importance":"local_connector","legal_designation":"local","legal_designation_label":"Local port","manager_type_code":"1"},"geometry":{"type":"Point","coordinates":[39.85,57.3]}},{"type":"Feature","properties":{"id":"ru-port-ivo","name":"Ivanovo","unlocode":"RUIVO","subdivision":"","function":"123-----","status":"RL","date":"0601","iata":"","importance_rank_source":"unlocode_status_iata","importance_rank":1,"importance":"local_connector","legal_designation":"local","legal_designation_label":"Local port","manager_type_code":"1"},"geometry":{"type":"Point","coordinates":[41.0,57.016666666666666]}},{"type":"Feature","properties":{"id":"ru-port-kas","name":"Kashira","unlocode":"RUKAS","subdivision":"","function":"123-----","status":"RL","date":"0601","iata":"","importance_rank_source":"unlocode_status_iata","importance_rank":1,"importance":"local_connector","legal_designation":"local","legal_designation_label":"Local port","manager_type_code":"1"},"geometry":{"type":"Point","coordinates":[38.166666666666664,54.833333333333336]}},{"type":"Feature","properties":{"id":"ru-port-ksi","name":"Kasimov","unlocode":"RUKSI","subdivision":"","function":"123--6--","status":"RL","date":"0601","iata":"","importance_rank_source":"unlocode_status_iata","importance_rank":1,"importance":"local_connector","legal_designation":"local","legal_designation_label":"Local port","manager_type_code":"1"},"geometry":{"type":"Point","coordinates":[41.4,54.93333333333333]}},{"type":"Feature","properties":{"id":"ru-port-kiy","name":"Kirovskiy","unlocode":"RUKIY","subdivision":"","function":"1-3-----","status":"RL","date":"0601","iata":"","importance_rank_source":"unlocode_status_iata","importance_rank":1,"importance":"local_connector","legal_designation":"local","legal_designation_label":"Local port","manager_type_code":"1"},"geometry":{"type":"Point","coordinates":[133.5,45.083333333333336]}},{"type":"Feature","properties":{"id":"ru-port-kok","name":"Konakovo","unlocode":"RUKOK","subdivision":"","function":"123-----","status":"RL","date":"0601","iata":"","importance_rank_source":"unlocode_status_iata","importance_rank":1,"importance":"local_connector","legal_designation":"local","legal_designation_label":"Local port","manager_type_code":"1"},"geometry":{"type":"Point","coordinates":[36.78333333333333,56.7]}},{"type":"Feature","properties":{"id":"ru-port-kpa","name":"Kondopoga","unlocode":"RUKPA","subdivision":"","function":"123-----","status":"RL","date":"0601","iata":"","importance_rank_source":"unlocode_status_iata","importance_rank":1,"importance":"local_connector","legal_designation":"local","legal_designation_label":"Local port","manager_type_code":"1"},"geometry":{"type":"Point","coordinates":[34.28333333333333,62.2]}},{"type":"Feature","properties":{"id":"ru-port-kma","name":"Kostomuksha","unlocode":"RUKMA","subdivision":"","function":"1-3-----","status":"RL","date":"0601","iata":"","importance_rank_source":"unlocode_status_iata","importance_rank":1,"importance":"local_connector","legal_designation":"local","legal_designation_label":"Local port","manager_type_code":"1"},"geometry":{"type":"Point","coordinates":[30.816666666666666,64.68333333333334]}},{"type":"Feature","properties":{"id":"ru-port-kra","name":"Krasnoyarsk","unlocode":"RUKRA","subdivision":"","function":"123-----","status":"RL","date":"0601","iata":"","importance_rank_source":"unlocode_status_iata","importance_rank":1,"importance":"local_connector","legal_designation":"local","legal_designation_label":"Local port","manager_type_code":"1"},"geometry":{"type":"Point","coordinates":[93.06666666666666,56.016666666666666]}},{"type":"Feature","properties":{"id":"ru-port-ldy","name":"Lebedyan'","unlocode":"RULDY","subdivision":"","function":"123--6--","status":"RL","date":"0601","iata":"","importance_rank_source":"unlocode_status_iata","importance_rank":1,"importance":"local_connector","legal_designation":"local","legal_designation_label":"Local port","manager_type_code":"1"},"geometry":{"type":"Point","coordinates":[39.15,53.0]}},{"type":"Feature","properties":{"id":"ru-port-mas","name":"Miass","unlocode":"RUMAS","subdivision":"","function":"123-----","status":"RL","date":"0601","iata":"","importance_rank_source":"unlocode_status_iata","importance_rank":1,"importance":"local_connector","legal_designation":"local","legal_designation_label":"Local port","manager_type_code":"1"},"geometry":{"type":"Point","coordinates":[60.1,54.983333333333334]}},{"type":"Feature","properties":{"id":"ru-port-ndk","name":"Novodvinsk","unlocode":"RUNDK","subdivision":"","function":"123-----","status":"RL","date":"0601","iata":"","importance_rank_source":"unlocode_status_iata","importance_rank":1,"importance":"local_connector","legal_designation":"local","legal_designation_label":"Local port","manager_type_code":"1"},"geometry":{"type":"Point","coordinates":[40.833333333333336,64.41666666666667]}},{"type":"Feature","properties":{"id":"ru-port-nmk","name":"Novomoskovsk","unlocode":"RUNMK","subdivision":"","function":"123-----","status":"RL","date":"0601","iata":"","importance_rank_source":"unlocode_status_iata","importance_rank":1,"importance":"local_connector","legal_designation":"local","legal_designation_label":"Local port","manager_type_code":"1"},"geometry":{"type":"Point","coordinates":[38.18333333333333,54.083333333333336]}},{"type":"Feature","properties":{"id":"ru-port-ozy","name":"OzÃ«ry","unlocode":"RUOZY","subdivision":"","function":"123-----","status":"RL","date":"0601","iata":"","importance_rank_source":"unlocode_status_iata","importance_rank":1,"importance":"local_connector","legal_designation":"local","legal_designation_label":"Local port","manager_type_code":"1"},"geometry":{"type":"Point","coordinates":[38.55,54.85]}},{"type":"Feature","properties":{"id":"ru-port-rzv","name":"Rzhev","unlocode":"RURZV","subdivision":"","function":"123-----","status":"RL","date":"0601","iata":"","importance_rank_source":"unlocode_status_iata","importance_rank":1,"importance":"local_connector","legal_designation":"local","legal_designation_label":"Local port","manager_type_code":"1"},"geometry":{"type":"Point","coordinates":[34.333333333333336,56.25]}},{"type":"Feature","properties":{"id":"ru-port-sng","name":"Solnechnogorsk","unlocode":"RUSNG","subdivision":"","function":"123-----","status":"RL","date":"0601","iata":"","importance_rank_source":"unlocode_status_iata","importance_rank":1,"importance":"local_connector","legal_designation":"local","legal_designation_label":"Local port","manager_type_code":"1"},"geometry":{"type":"Point","coordinates":[36.96666666666667,56.18333333333333]}},{"type":"Feature","properties":{"id":"ru-port-ssk","name":"Sovetsk","unlocode":"RUSSK","subdivision":"","function":"123-----","status":"RL","date":"0601","iata":"","importance_rank_source":"unlocode_status_iata","importance_rank":1,"importance":"local_connector","legal_designation":"local","legal_designation_label":"Local port","manager_type_code":"1"},"geometry":{"type":"Point","coordinates":[21.883333333333333,55.06666666666667]}},{"type":"Feature","properties":{"id":"ru-port-tvk","name":"Timashevsk","unlocode":"RUTVK","subdivision":"","function":"123-----","status":"RL","date":"0601","iata":"","importance_rank_source":"unlocode_status_iata","importance_rank":1,"importance":"local_connector","legal_designation":"local","legal_designation_label":"Local port","manager_type_code":"1"},"geometry":{"type":"Point","coordinates":[38.93333333333333,45.61666666666667]}},{"type":"Feature","properties":{"id":"ru-port-var","name":"Varandey","unlocode":"RUVAR","subdivision":"","function":"1-3-----","status":"RL","date":"0601","iata":"","importance_rank_source":"unlocode_status_iata","importance_rank":1,"importance":"local_connector","legal_designation":"local","legal_designation_label":"Local port","manager_type_code":"1"},"geometry":{"type":"Point","coordinates":[57.983333333333334,68.78333333333333]}},{"type":"Feature","properties":{"id":"ru-port-vzh","name":"Volzhsk","unlocode":"RUVZH","subdivision":"","function":"123-----","status":"RL","date":"0601","iata":"","importance_rank_source":"unlocode_status_iata","importance_rank":1,"importance":"local_connector","legal_designation":"local","legal_designation_label":"Local port","manager_type_code":"1"},"geometry":{"type":"Point","coordinates":[48.25,55.833333333333336]}},{"type":"Feature","properties":{"id":"ru-port-zdk","name":"ZelÃ«nodol'sk","unlocode":"RUZDK","subdivision":"","function":"123-----","status":"RL","date":"0601","iata":"","importance_rank_source":"unlocode_status_iata","importance_rank":1,"importance":"local_connector","legal_designation":"local","legal_designation_label":"Local port","manager_type_code":"1"},"geometry":{"type":"Point","coordinates":[48.516666666666666,55.833333333333336]}},{"type":"Feature","properties":{"id":"ru-port-gsa","name":"Gorskaya","unlocode":"RUGSA","subdivision":"LEN","function":"123-----","status":"RL","date":"0507","iata":"","importance_rank_source":"unlocode_status_iata","importance_rank":1,"importance":"local_connector","legal_designation":"local","legal_designation_label":"Local port","manager_type_code":"1"},"geometry":{"type":"Point","coordinates":[29.966666666666665,60.05]}},{"type":"Feature","properties":{"id":"ru-port-kho","name":"Kholmsk","unlocode":"RUKHO","subdivision":"SAK","function":"123-----","status":"RL","date":"0507","iata":"","importance_rank_source":"unlocode_status_iata","importance_rank":1,"importance":"local_connector","legal_designation":"local","legal_designation_label":"Local port","manager_type_code":"1"},"geometry":{"type":"Point","coordinates":[142.05,47.05]}},{"type":"Feature","properties":{"id":"ru-port-pny","name":"Pionerskiy","unlocode":"RUPNY","subdivision":"KGD","function":"123-----","status":"RL","date":"0507","iata":"","importance_rank_source":"unlocode_status_iata","importance_rank":1,"importance":"local_connector","legal_designation":"local","legal_designation_label":"Local port","manager_type_code":"1"},"geometry":{"type":"Point","coordinates":[20.216666666666665,54.95]}},{"type":"Feature","properties":{"id":"ru-port-vyk","name":"Vyksa","unlocode":"RUVYK","subdivision":"NIZ","function":"123-----","status":"RL","date":"0507","iata":"","importance_rank_source":"unlocode_status_iata","importance_rank":1,"importance":"local_connector","legal_designation":"local","legal_designation_label":"Local port","manager_type_code":"1"},"geometry":{"type":"Point","coordinates":[42.166666666666664,55.31666666666667]}},{"type":"Feature","properties":{"id":"ru-port-lvr","name":"Lavrentiya","unlocode":"RULVR","subdivision":"CHU","function":"1-3-----","status":"RL","date":"0501","iata":"","importance_rank_source":"unlocode_status_iata","importance_rank":1,"importance":"local_connector","legal_designation":"local","legal_designation_label":"Local port","manager_type_code":"1"},"geometry":{"type":"Point","coordinates":[-171.0,65.58333333333333]}},{"type":"Feature","properties":{"id":"ru-port-msh","name":"Mys Shmidta","unlocode":"RUMSH","subdivision":"CHU","function":"1-3-----","status":"RL","date":"0501","iata":"","importance_rank_source":"unlocode_status_iata","importance_rank":1,"importance":"local_connector","legal_designation":"local","legal_designation_label":"Local port","manager_type_code":"1"},"geometry":{"type":"Point","coordinates":[-179.43333333333334,68.88333333333334]}},{"type":"Feature","properties":{"id":"ru-port-ioy","name":"Ikryanoye","unlocode":"RUIOY","subdivision":"AST","function":"1-3-----","status":"RL","date":"0401","iata":"","importance_rank_source":"unlocode_status_iata","importance_rank":1,"importance":"local_connector","legal_designation":"local","legal_designation_label":"Local port","manager_type_code":"1"},"geometry":{"type":"Point","coordinates":[47.733333333333334,46.083333333333336]}},{"type":"Feature","properties":{"id":"ru-port-kny","name":"Khvalynsk","unlocode":"RUKNY","subdivision":"SAR","function":"1-3-----","status":"RL","date":"0401","iata":"","importance_rank_source":"unlocode_status_iata","importance_rank":1,"importance":"local_connector","legal_designation":"local","legal_designation_label":"Local port","manager_type_code":"1"},"geometry":{"type":"Point","coordinates":[48.1,52.483333333333334]}},{"type":"Feature","properties":{"id":"ru-port-kyb","name":"Krasnyye Barrikady","unlocode":"RUKYB","subdivision":"AST","function":"1-3-----","status":"RL","date":"0401","iata":"","importance_rank_source":"unlocode_status_iata","importance_rank":1,"importance":"local_connector","legal_designation":"local","legal_designation_label":"Local port","manager_type_code":"1"},"geometry":{"type":"Point","coordinates":[47.85,46.2]}},{"type":"Feature","properties":{"id":"ru-port-nac","name":"Naberezhnyye Chelny","unlocode":"RUNAC","subdivision":"","function":"123-----","status":"RL","date":"0401","iata":"","importance_rank_source":"unlocode_status_iata","importance_rank":1,"importance":"local_connector","legal_designation":"local","legal_designation_label":"Local port","manager_type_code":"1"},"geometry":{"type":"Point","coordinates":[52.416666666666664,55.75]}},{"type":"Feature","properties":{"id":"ru-port-olo","name":"Oleniy Ostrov","unlocode":"RUOLO","subdivision":"","function":"1-3-----","status":"RL","date":"0401","iata":"","importance_rank_source":"unlocode_status_iata","importance_rank":1,"importance":"local_connector","legal_designation":"local","legal_designation_label":"Local port","manager_type_code":"1"},"geometry":{"type":"Point","coordinates":[35.333333333333336,62.03333333333333]}},{"type":"Feature","properties":{"id":"ru-port-oya","name":"Olya","unlocode":"RUOYA","subdivision":"AST","function":"1-3-----","status":"RL","date":"0401","iata":"","importance_rank_source":"unlocode_status_iata","importance_rank":1,"importance":"local_connector","legal_designation":"local","legal_designation_label":"Local port","manager_type_code":"1"},"geometry":{"type":"Point","coordinates":[47.53333333333333,45.78333333333333]}},{"type":"Feature","properties":{"id":"ru-port-oze","name":"Oranzherei","unlocode":"RUOZE","subdivision":"AST","function":"1-3-----","status":"RL","date":"0401","iata":"","importance_rank_source":"unlocode_status_iata","importance_rank":1,"importance":"local_connector","legal_designation":"local","legal_designation_label":"Local port","manager_type_code":"1"},"geometry":{"type":"Point","coordinates":[47.56666666666667,45.833333333333336]}},{"type":"Feature","properties":{"id":"ru-port-ozk","name":"Ozerko","unlocode":"RUOZK","subdivision":"MUR","function":"123-----","status":"RL","date":"0401","iata":"","importance_rank_source":"unlocode_status_iata","importance_rank":1,"importance":"local_connector","legal_designation":"local","legal_designation_label":"Local port","manager_type_code":"1"},"geometry":{"type":"Point","coordinates":[32.11666666666667,69.71666666666667]}},{"type":"Feature","properties":{"id":"ru-port-pyo","name":"Poyarkovo","unlocode":"RUPYO","subdivision":"AMU","function":"1-3-----","status":"RL","date":"0401","iata":"","importance_rank_source":"unlocode_status_iata","importance_rank":1,"importance":"local_connector","legal_designation":"local","legal_designation_label":"Local port","manager_type_code":"1"},"geometry":{"type":"Point","coordinates":[128.68333333333334,49.6]}},{"type":"Feature","properties":{"id":"ru-port-pry","name":"Preobrazheniye","unlocode":"RUPRY","subdivision":"","function":"1-3-----","status":"RL","date":"0401","iata":"","importance_rank_source":"unlocode_status_iata","importance_rank":1,"importance":"local_connector","legal_designation":"local","legal_designation_label":"Local port","manager_type_code":"1"},"geometry":{"type":"Point","coordinates":[133.9,42.9]}},{"type":"Feature","properties":{"id":"ru-port-pgn","name":"Prigorodnoye","unlocode":"RUPGN","subdivision":"SAK","function":"1-3-----","status":"RL","date":"0401","iata":"","importance_rank_source":"unlocode_status_iata","importance_rank":1,"importance":"local_connector","legal_designation":"local","legal_designation_label":"Local port","manager_type_code":"1"},"geometry":{"type":"Point","coordinates":[142.9,46.61666666666667]}},{"type":"Feature","properties":{"id":"ru-port-tdo","name":"Trudfront","unlocode":"RUTDO","subdivision":"AST","function":"1-3-----","status":"RL","date":"0401","iata":"","importance_rank_source":"unlocode_status_iata","importance_rank":1,"importance":"local_connector","legal_designation":"local","legal_designation_label":"Local port","manager_type_code":"1"},"geometry":{"type":"Point","coordinates":[47.666666666666664,45.916666666666664]}},{"type":"Feature","properties":{"id":"ru-port-ugc","name":"Uglich","unlocode":"RUUGC","subdivision":"YAR","function":"123-----","status":"RL","date":"0401","iata":"","importance_rank_source":"unlocode_status_iata","importance_rank":1,"importance":"local_connector","legal_designation":"local","legal_designation_label":"Local port","manager_type_code":"1"},"geometry":{"type":"Point","coordinates":[38.31666666666667,57.516666666666666]}},{"type":"Feature","properties":{"id":"ru-port-bos","name":"Boshnyakovo","unlocode":"RUBOS","subdivision":"","function":"12------","status":"RL","date":"0212","iata":"","importance_rank_source":"unlocode_status_iata","importance_rank":1,"importance":"local_connector","legal_designation":"local","legal_designation_label":"Local port","manager_type_code":"1"},"geometry":{"type":"Point","coordinates":[142.16666666666666,49.65]}},{"type":"Feature","properties":{"id":"ru-port-cha","name":"Chamgu","unlocode":"RUCHA","subdivision":"SAK","function":"1-3-----","status":"RL","date":"0212","iata":"","importance_rank_source":"unlocode_status_iata","importance_rank":1,"importance":"local_connector","legal_designation":"local","legal_designation_label":"Local port","manager_type_code":"1"},"geometry":{"type":"Point","coordinates":[143.6,50.93333333333333]}},{"type":"Feature","properties":{"id":"ru-port-eko","name":"Ekonomiya","unlocode":"RUEKO","subdivision":"ARK","function":"1-3-----","status":"RL","date":"0212","iata":"","importance_rank_source":"unlocode_status_iata","importance_rank":1,"importance":"local_connector","legal_designation":"local","legal_designation_label":"Local port","manager_type_code":"1"},"geometry":{"type":"Point","coordinates":[40.63333333333333,64.7]}},{"type":"Feature","properties":{"id":"ru-port-les","name":"Lesogorsk","unlocode":"RULES","subdivision":"","function":"12------","status":"RL","date":"0212","iata":"","importance_rank_source":"unlocode_status_iata","importance_rank":1,"importance":"local_connector","legal_designation":"local","legal_designation_label":"Local port","manager_type_code":"1"},"geometry":{"type":"Point","coordinates":[142.11666666666667,49.43333333333333]}},{"type":"Feature","properties":{"id":"ru-port-nog","name":"Nogliki","unlocode":"RUNOG","subdivision":"SAK","function":"123-----","status":"RL","date":"0212","iata":"","importance_rank_source":"unlocode_status_iata","importance_rank":1,"importance":"local_connector","legal_designation":"local","legal_designation_label":"Local port","manager_type_code":"1"},"geometry":{"type":"Point","coordinates":[143.1,51.81666666666667]}},{"type":"Feature","properties":{"id":"ru-port-siz","name":"Siziman","unlocode":"RUSIZ","subdivision":"","function":"1-------","status":"RL","date":"0212","iata":"","importance_rank_source":"unlocode_status_iata","importance_rank":1,"importance":"local_connector","legal_designation":"local","legal_designation_label":"Local port","manager_type_code":"1"},"geometry":{"type":"Point","coordinates":[140.41666666666666,50.71666666666667]}},{"type":"Feature","properties":{"id":"ru-port-ura","name":"Ura-Guba","unlocode":"RUURA","subdivision":"","function":"1-------","status":"RL","date":"0212","iata":"","importance_rank_source":"unlocode_status_iata","importance_rank":1,"importance":"local_connector","legal_designation":"local","legal_designation_label":"Local port","manager_type_code":"1"},"geometry":{"type":"Point","coordinates":[32.8,69.28333333333333]}},{"type":"Feature","properties":{"id":"ru-port-vit","name":"Vitino","unlocode":"RUVIT","subdivision":"MUR","function":"1-------","status":"RL","date":"0212","iata":"","importance_rank_source":"unlocode_status_iata","importance_rank":1,"importance":"local_connector","legal_designation":"local","legal_designation_label":"Local port","manager_type_code":"1"},"geometry":{"type":"Point","coordinates":[32.333333333333336,67.08333333333333]}},{"type":"Feature","properties":{"id":"ru-port-vtz","name":"Vityaz","unlocode":"RUVTZ","subdivision":"","function":"1-3-----","status":"RL","date":"0212","iata":"","importance_rank_source":"unlocode_status_iata","importance_rank":1,"importance":"local_connector","legal_designation":"local","legal_designation_label":"Local port","manager_type_code":"1"},"geometry":{"type":"Point","coordinates":[131.16666666666666,42.6]}},{"type":"Feature","properties":{"id":"ru-port-zar","name":"Zarubino","unlocode":"RUZAR","subdivision":"","function":"1-------","status":"RL","date":"0212","iata":"","importance_rank_source":"unlocode_status_iata","importance_rank":1,"importance":"local_connector","legal_designation":"local","legal_designation_label":"Local port","manager_type_code":"1"},"geometry":{"type":"Point","coordinates":[131.08333333333334,42.61666666666667]}},{"type":"Feature","properties":{"id":"ru-port-oka","name":"Okha, Sakhalin","unlocode":"RUOKA","subdivision":"","function":"12------","status":"RL","date":"0207","iata":"","importance_rank_source":"unlocode_status_iata","importance_rank":1,"importance":"local_connector","legal_designation":"local","legal_designation_label":"Local port","manager_type_code":"1"},"geometry":{"type":"Point","coordinates":[143.0,53.56666666666667]}},{"type":"Feature","properties":{"id":"ru-port-kdt","name":"Kronshtadt","unlocode":"RUKDT","subdivision":"","function":"1-------","status":"QQ","date":"2407","iata":"","importance_rank_source":"unlocode_status_iata","importance_rank":1,"importance":"local_connector","legal_designation":"local","legal_designation_label":"Local port","manager_type_code":"1"},"geometry":{"type":"Point","coordinates":[29.766666666666666,60.0]}}]}