{"type":"FeatureCollection","features":[{"type":"Feature","properties":{"id":"fr-road-METRROTT0000002265115869","name":"A1"},"geometry":{"type":"Point","coordinates":[2.755484626694087,49.62151553161547]}},{"type":"Feature","properties":{"id":"fr-road-METRROTT0000002267161859","name":"A1/A1"},"geometry":{"type":"Point","coordinates":[2.530547574204671,49.01395071062163]}},{"type":"Feature","properties":{"id":"fr-road-METRROTT0000002265364095","name":"A10"},"geometry":{"type":"Point","coordinates":[1.8518191602060448,48.08592523399928]}},{"type":"Feature","properties":{"id":"fr-road-METRROTT0000002265497313","name":"A10/A8"},"geometry":{"type":"Point","coordinates":[7.52966116014597,43.78878006294884]}},{"type":"Feature","properties":{"id":"fr-road-METRROTT0000002268458833","name":"A10/N20"},"geometry":{"type":"Point","coordinates":[2.291268778615651,48.716929189253605]}},{"type":"Feature","properties":{"id":"fr-road-METRROTT0000002267612774","name":"A103"},"geometry":{"type":"Point","coordinates":[2.4660190386975303,48.88370657839209]}},{"type":"Feature","properties":{"id":"fr-road-METRROTT0000002267613436","name":"A103/A86"},"geometry":{"type":"Point","coordinates":[2.4726140302672066,48.88527319609551]}},{"type":"Feature","properties":{"id":"fr-road-METRROTT0000002267152415","name":"A104"},"geometry":{"type":"Point","coordinates":[2.4840490984769437,48.971767301240234]}},{"type":"Feature","properties":{"id":"fr-road-METRROTT0000002267637127","name":"A104/D170"},"geometry":{"type":"Point","coordinates":[2.5028335884584494,48.96989033267956]}},{"type":"Feature","properties":{"id":"fr-road-METRROTT0000002268025352","name":"A104/D471"},"geometry":{"type":"Point","coordinates":[2.666224369904386,48.83190775811575]}},{"type":"Feature","properties":{"id":"fr-road-METRROTT0000002491326626","name":"A104/N104"},"geometry":{"type":"Point","coordinates":[2.527110823151897,49.028667005548684]}},{"type":"Feature","properties":{"id":"fr-road-METRROTT0000002268002893","name":"A105"},"geometry":{"type":"Point","coordinates":[2.634689338106713,48.59912966956445]}},{"type":"Feature","properties":{"id":"fr-road-METRROTT0000002265372044","name":"A11"},"geometry":{"type":"Point","coordinates":[0.8061632408433259,48.18719564234047]}},{"type":"Feature","properties":{"id":"fr-road-METRROTT0000002268244148","name":"A11/A11"},"geometry":{"type":"Point","coordinates":[-0.48608619905506434,47.50036097293821]}},{"type":"Feature","properties":{"id":"fr-road-METRROTT0000002266546761","name":"A11/A844"},"geometry":{"type":"Point","coordinates":[-1.5876635018768117,47.265676507348864]}},{"type":"Feature","properties":{"id":"fr-road-METRROTT0000002267148658","name":"A115"},"geometry":{"type":"Point","coordinates":[2.2105495522464893,49.02220474637973]}},{"type":"Feature","properties":{"id":"fr-road-METRROTT0000002267169679","name":"A115/N184"},"geometry":{"type":"Point","coordinates":[2.191685903108281,49.051570851404705]}},{"type":"Feature","properties":{"id":"fr-road-METRROTT0000002267484188","name":"A12"},"geometry":{"type":"Point","coordinates":[2.0507614649155945,48.8053965678688]}},{"type":"Feature","properties":{"id":"fr-road-METRROTT0000002265850511","name":"A13"},"geometry":{"type":"Point","coordinates":[-0.23843500063420175,49.1681278539248]}},{"type":"Feature","properties":{"id":"fr-road-METRROTT0000002267035192","name":"A13/A139"},"geometry":{"type":"Point","coordinates":[1.0470592801417764,49.34433521689641]}},{"type":"Feature","properties":{"id":"fr-road-METRROTT0000002265974778","name":"A131"},"geometry":{"type":"Point","coordinates":[0.6149444968049618,49.37946621660681]}},{"type":"Feature","properties":{"id":"fr-road-METRROTT0000002265978787","name":"A131/N182"},"geometry":{"type":"Point","coordinates":[0.4980761072389277,49.46459314744005]}},{"type":"Feature","properties":{"id":"fr-road-METRROTT0000002267035139","name":"A139"},"geometry":{"type":"Point","coordinates":[1.0505866946856333,49.343581968388946]}},{"type":"Feature","properties":{"id":"fr-road-METRROTT0000002267036540","name":"A139/N138"},"geometry":{"type":"Point","coordinates":[1.0369516960113887,49.36218479772889]}},{"type":"Feature","properties":{"id":"fr-road-METRROTT0000002267484214","name":"A14"},"geometry":{"type":"Point","coordinates":[2.0663346669377947,48.907055564210125]}},{"type":"Feature","properties":{"id":"fr-road-METRROTT0000002276510944","name":"A14/A13"},"geometry":{"type":"Point","coordinates":[2.0017917626045345,48.92316761654042]}},{"type":"Feature","properties":{"id":"fr-road-METRROTT0000002267150042","name":"A15"},"geometry":{"type":"Point","coordinates":[2.2796704161646826,48.95216829208869]}},{"type":"Feature","properties":{"id":"fr-road-METRROTT0000002267631543","name":"A15/A86"},"geometry":{"type":"Point","coordinates":[2.2946432567001818,48.937064356855025]}},{"type":"Feature","properties":{"id":"fr-road-METRROTT0000002267048109","name":"A150"},"geometry":{"type":"Point","coordinates":[1.060486286011089,49.44967484201446]}},{"type":"Feature","properties":{"id":"fr-road-METRROTT0000002267087717","name":"A150/A150"},"geometry":{"type":"Point","coordinates":[0.8158489311273603,49.625690956107825]}},{"type":"Feature","properties":{"id":"fr-road-METRROTT0000002267048044","name":"A150/N1338"},"geometry":{"type":"Point","coordinates":[1.0612082237475402,49.44950929011592]}},{"type":"Feature","properties":{"id":"fr-road-METRROTT0000002267061489","name":"A151"},"geometry":{"type":"Point","coordinates":[0.9912295602574961,49.50553541899572]}},{"type":"Feature","properties":{"id":"fr-road-METRROTT0000002267090307","name":"A151/N27"},"geometry":{"type":"Point","coordinates":[1.0448259532783273,49.64655087172456]}},{"type":"Feature","properties":{"id":"fr-road-METRROTT0000002265118820","name":"A16"},"geometry":{"type":"Point","coordinates":[2.2356600615673354,49.70190523288879]}}]}