{"type":"FeatureCollection","features":[{"type":"Feature","properties":{"id":"fr-road-METRROTT0000002265115869","name":"A1"},"geometry":{"type":"Point","coordinates":[2.755484626694087,49.62151553161547]}},{"type":"Feature","properties":{"id":"fr-road-METRROTT0000002267161859","name":"A1/A1"},"geometry":{"type":"Point","coordinates":[2.530547574204671,49.01395071062163]}},{"type":"Feature","properties":{"id":"fr-road-METRROTT0000002265364095","name":"A10"},"geometry":{"type":"Point","coordinates":[1.8518191602060448,48.08592523399928]}},{"type":"Feature","properties":{"id":"fr-road-METRROTT0000002265497313","name":"A10/A8"},"geometry":{"type":"Point","coordinates":[7.52966116014597,43.78878006294884]}},{"type":"Feature","properties":{"id":"fr-road-METRROTT0000002268458833","name":"A10/N20"},"geometry":{"type":"Point","coordinates":[2.291268778615651,48.716929189253605]}},{"type":"Feature","properties":{"id":"fr-road-METRROTT0000002267612774","name":"A103"},"geometry":{"type":"Point","coordinates":[2.4660190386975303,48.88370657839209]}},{"type":"Feature","properties":{"id":"fr-road-METRROTT0000002267613436","name":"A103/A86"},"geometry":{"type":"Point","coordinates":[2.4726140302672066,48.88527319609551]}},{"type":"Feature","properties":{"id":"fr-road-METRROTT0000002267152415","name":"A104"},"geometry":{"type":"Point","coordinates":[2.4840490984769437,48.971767301240234]}},{"type":"Feature","properties":{"id":"fr-road-METRROTT0000002267637127","name":"A104/D170"},"geometry":{"type":"Point","coordinates":[2.5028335884584494,48.96989033267956]}},{"type":"Feature","properties":{"id":"fr-road-METRROTT0000002268025352","name":"A104/D471"},"geometry":{"type":"Point","coordinates":[2.666224369904386,48.83190775811575]}},{"type":"Feature","properties":{"id":"fr-road-METRROTT0000002491326626","name":"A104/N104"},"geometry":{"type":"Point","coordinates":[2.527110823151897,49.028667005548684]}},{"type":"Feature","properties":{"id":"fr-road-METRROTT0000002268002893","name":"A105"},"geometry":{"type":"Point","coordinates":[2.634689338106713,48.59912966956445]}},{"type":"Feature","properties":{"id":"fr-road-METRROTT0000002265372044","name":"A11"},"geometry":{"type":"Point","coordinates":[0.8061632408433259,48.18719564234047]}},{"type":"Feature","properties":{"id":"fr-road-METRROTT0000002268244148","name":"A11/A11"},"geometry":{"type":"Point","coordinates":[-0.48608619905506434,47.50036097293821]}},{"type":"Feature","properties":{"id":"fr-road-METRROTT0000002266546761","name":"A11/A844"},"geometry":{"type":"Point","coordinates":[-1.5876635018768117,47.265676507348864]}},{"type":"Feature","properties":{"id":"fr-road-METRROTT0000002267148658","name":"A115"},"geometry":{"type":"Point","coordinates":[2.2105495522464893,49.02220474637973]}},{"type":"Feature","properties":{"id":"fr-road-METRROTT0000002267169679","name":"A115/N184"},"geometry":{"type":"Point","coordinates":[2.191685903108281,49.051570851404705]}},{"type":"Feature","properties":{"id":"fr-road-METRROTT0000002267484188","name":"A12"},"geometry":{"type":"Point","coordinates":[2.0507614649155945,48.8053965678688]}},{"type":"Feature","properties":{"id":"fr-road-METRROTT0000002265850511","name":"A13"},"geometry":{"type":"Point","coordinates":[-0.23843500063420175,49.1681278539248]}},{"type":"Feature","properties":{"id":"fr-road-METRROTT0000002267035192","name":"A13/A139"},"geometry":{"type":"Point","coordinates":[1.0470592801417764,49.34433521689641]}},{"type":"Feature","properties":{"id":"fr-road-METRROTT0000002265974778","name":"A131"},"geometry":{"type":"Point","coordinates":[0.6149444968049618,49.37946621660681]}},{"type":"Feature","properties":{"id":"fr-road-METRROTT0000002265978787","name":"A131/N182"},"geometry":{"type":"Point","coordinates":[0.4980761072389277,49.46459314744005]}},{"type":"Feature","properties":{"id":"fr-road-METRROTT0000002267035139","name":"A139"},"geometry":{"type":"Point","coordinates":[1.0505866946856333,49.343581968388946]}},{"type":"Feature","properties":{"id":"fr-road-METRROTT0000002267036540","name":"A139/N138"},"geometry":{"type":"Point","coordinates":[1.0369516960113887,49.36218479772889]}},{"type":"Feature","properties":{"id":"fr-road-METRROTT0000002267484214","name":"A14"},"geometry":{"type":"Point","coordinates":[2.0663346669377947,48.907055564210125]}},{"type":"Feature","properties":{"id":"fr-road-METRROTT0000002276510944","name":"A14/A13"},"geometry":{"type":"Point","coordinates":[2.0017917626045345,48.92316761654042]}},{"type":"Feature","properties":{"id":"fr-road-METRROTT0000002267150042","name":"A15"},"geometry":{"type":"Point","coordinates":[2.2796704161646826,48.95216829208869]}},{"type":"Feature","properties":{"id":"fr-road-METRROTT0000002267631543","name":"A15/A86"},"geometry":{"type":"Point","coordinates":[2.2946432567001818,48.937064356855025]}},{"type":"Feature","properties":{"id":"fr-road-METRROTT0000002267048109","name":"A150"},"geometry":{"type":"Point","coordinates":[1.060486286011089,49.44967484201446]}},{"type":"Feature","properties":{"id":"fr-road-METRROTT0000002267087717","name":"A150/A150"},"geometry":{"type":"Point","coordinates":[0.8158489311273603,49.625690956107825]}},{"type":"Feature","properties":{"id":"fr-road-METRROTT0000002267048044","name":"A150/N1338"},"geometry":{"type":"Point","coordinates":[1.0612082237475402,49.44950929011592]}},{"type":"Feature","properties":{"id":"fr-road-METRROTT0000002267061489","name":"A151"},"geometry":{"type":"Point","coordinates":[0.9912295602574961,49.50553541899572]}},{"type":"Feature","properties":{"id":"fr-road-METRROTT0000002267090307","name":"A151/N27"},"geometry":{"type":"Point","coordinates":[1.0448259532783273,49.64655087172456]}},{"type":"Feature","properties":{"id":"fr-road-METRROTT0000002265118820","name":"A16"},"geometry":{"type":"Point","coordinates":[2.2356600615673354,49.70190523288879]}},{"type":"Feature","properties":{"id":"fr-road-METRROTT0000002266952432","name":"A16/A16"},"geometry":{"type":"Point","coordinates":[2.2397516284945516,49.15743261421284]}},{"type":"Feature","properties":{"id":"fr-road-METRROTT0000002268546611","name":"A19"},"geometry":{"type":"Point","coordinates":[3.012739370166531,48.03605749752907]}},{"type":"Feature","properties":{"id":"fr-road-METRROTT0000002267392349","name":"A1A"},"geometry":{"type":"Point","coordinates":[3.108406173491516,50.5997981606788]}},{"type":"Feature","properties":{"id":"fr-road-METRROTT0000002265157616","name":"A2"},"geometry":{"type":"Point","coordinates":[2.8815566746031083,50.0171023081802]}},{"type":"Feature","properties":{"id":"fr-road-METRROTT0000002267346525","name":"A2/A2"},"geometry":{"type":"Point","coordinates":[3.3199945987158515,50.252521497231996]}},{"type":"Feature","properties":{"id":"fr-road-METRROTT0000002265026821","name":"A20"},"geometry":{"type":"Point","coordinates":[1.3831864019692708,46.2080886705038]}},{"type":"Feature","properties":{"id":"fr-road-METRROTT0000002267231741","name":"A21"},"geometry":{"type":"Point","coordinates":[2.9798778073205447,50.42706577852738]}},{"type":"Feature","properties":{"id":"fr-road-METRROTT0000002267292912","name":"A216"},"geometry":{"type":"Point","coordinates":[1.9071622499845342,50.93553766640639]}},{"type":"Feature","properties":{"id":"fr-road-METRROTT0000002267300131","name":"A216/A26"},"geometry":{"type":"Point","coordinates":[1.9070462804931378,50.935970848043446]}},{"type":"Feature","properties":{"id":"fr-road-METRROTT0000002267391828","name":"A22"},"geometry":{"type":"Point","coordinates":[3.1011959309549715,50.59432965345832]}},{"type":"Feature","properties":{"id":"fr-road-METRROTT0000002267392309","name":"A22/A1A"},"geometry":{"type":"Point","coordinates":[3.1110822786908647,50.599668373181295]}},{"type":"Feature","properties":{"id":"fr-road-METRROTT0000002267392471","name":"A22/A27"},"geometry":{"type":"Point","coordinates":[3.1193006577448115,50.60068251437726]}},{"type":"Feature","properties":{"id":"fr-road-METRROTT0000002267402736","name":"A22/N227"},"geometry":{"type":"Point","coordinates":[3.14271757050032,50.64893869531977]}},{"type":"Feature","properties":{"id":"fr-road-METRROTT0000002267407973","name":"A22/N356"},"geometry":{"type":"Point","coordinates":[3.114493518323533,50.67185996923689]}},{"type":"Feature","properties":{"id":"fr-road-METRROTT0000002267361088","name":"A23"},"geometry":{"type":"Point","coordinates":[3.4947744206554554,50.34002078433598]}},{"type":"Feature","properties":{"id":"fr-road-METRROTT0000002267395349","name":"A25"},"geometry":{"type":"Point","coordinates":[3.0748503577282618,50.61622719100078]}},{"type":"Feature","properties":{"id":"fr-road-METRROTT0000002265153677","name":"A26"},"geometry":{"type":"Point","coordinates":[3.190571066936081,49.98265030986467]}},{"type":"Feature","properties":{"id":"fr-road-METRROTT0000002269316135","name":"A26/A26"},"geometry":{"type":"Point","coordinates":[4.146437189156001,48.412830805834666]}},{"type":"Feature","properties":{"id":"fr-road-METRROTT0000002267392117","name":"A27"},"geometry":{"type":"Point","coordinates":[3.1450411703766346,50.5982202462545]}},{"type":"Feature","properties":{"id":"fr-road-METRROTT0000002265147667","name":"A28"},"geometry":{"type":"Point","coordinates":[1.6429990569589226,49.931556917969914]}},{"type":"Feature","properties":{"id":"fr-road-METRROTT0000002265714603","name":"A28/A28"},"geometry":{"type":"Point","coordinates":[0.11178542020671522,48.39712515459828]}},{"type":"Feature","properties":{"id":"fr-road-METRROTT0000002267056537","name":"A28/N28"},"geometry":{"type":"Point","coordinates":[1.1444622654817187,49.48942962087637]}},{"type":"Feature","properties":{"id":"fr-road-METRROTT0000002265128083","name":"A29"},"geometry":{"type":"Point","coordinates":[1.7783601809891798,49.79000015565562]}},{"type":"Feature","properties":{"id":"fr-road-METRROTT0000002267090527","name":"A29/A150"},"geometry":{"type":"Point","coordinates":[0.7652817224136214,49.64435954484499]}},{"type":"Feature","properties":{"id":"fr-road-METRROTT0000002267057691","name":"A29/N1029"},"geometry":{"type":"Point","coordinates":[0.26615483888410874,49.477538015659626]}},{"type":"Feature","properties":{"id":"fr-road-METRROTT0000002267151618","name":"A3"},"geometry":{"type":"Point","coordinates":[2.4754988347865945,48.966304602713564]}},{"type":"Feature","properties":{"id":"fr-road-METRROTT0000002267740008","name":"A30"},"geometry":{"type":"Point","coordinates":[5.918482779611555,49.4138428020014]}},{"type":"Feature","properties":{"id":"fr-road-METRROTT0000002265085054","name":"A304"},"geometry":{"type":"Point","coordinates":[4.700429956361324,49.71661548615778]}},{"type":"Feature","properties":{"id":"fr-road-METRROTT0000002265571916","name":"A31"},"geometry":{"type":"Point","coordinates":[5.177497878792819,47.65076318989989]}},{"type":"Feature","properties":{"id":"fr-road-METRROTT0000002267709274","name":"A31/A33"},"geometry":{"type":"Point","coordinates":[6.111096548636219,48.69442607760911]}},{"type":"Feature","properties":{"id":"fr-road-METRROTT0000002272852013","name":"A314"},"geometry":{"type":"Point","coordinates":[6.223042708332211,49.11896197284584]}},{"type":"Feature","properties":{"id":"fr-road-METRROTT0000002272855113","name":"A314/A4"},"geometry":{"type":"Point","coordinates":[6.265321496377897,49.12848274591154]}},{"type":"Feature","properties":{"id":"fr-road-METRROTT0000002272852526","name":"A314/M603"},"geometry":{"type":"Point","coordinates":[6.223474626758506,49.12093501143936]}},{"type":"Feature","properties":{"id":"fr-road-METRROTT0000002272852386","name":"A315"},"geometry":{"type":"Point","coordinates":[6.234505307218983,49.11983341339993]}},{"type":"Feature","properties":{"id":"fr-road-METRROTT0000002272852098","name":"A315/N431"},"geometry":{"type":"Point","coordinates":[6.234494310371785,49.11888886349424]}},{"type":"Feature","properties":{"id":"fr-road-METRROTT0000002272861913","name":"A320"},"geometry":{"type":"Point","coordinates":[6.813160207829714,49.14093570868026]}},{"type":"Feature","properties":{"id":"fr-road-METRROTT0000002272861899","name":"A320/A4"},"geometry":{"type":"Point","coordinates":[6.812826867106871,49.14129957805622]}},{"type":"Feature","properties":{"id":"fr-road-METRROTT0000002267691078","name":"A33"},"geometry":{"type":"Point","coordinates":[6.340524041233744,48.600367825809585]}},{"type":"Feature","properties":{"id":"fr-road-METRROTT0000002267692181","name":"A33/N4"},"geometry":{"type":"Point","coordinates":[6.377381707450943,48.604496145581805]}},{"type":"Feature","properties":{"id":"fr-road-METRROTT0000002265067428","name":"A34"},"geometry":{"type":"Point","coordinates":[4.400772361315854,49.51937087289914]}},{"type":"Feature","properties":{"id":"fr-road-METRROTT0000002265085006","name":"A34/A304"},"geometry":{"type":"Point","coordinates":[4.70043836269628,49.71461524810258]}},{"type":"Feature","properties":{"id":"fr-road-METRROTT0000002274863089","name":"A34/A903409"},"geometry":{"type":"Point","coordinates":[4.721061031259312,49.734954339788345]}},{"type":"Feature","properties":{"id":"fr-road-METRROTT0000002268383324","name":"A344"},"geometry":{"type":"Point","coordinates":[4.0635905932360625,49.22440947889963]}},{"type":"Feature","properties":{"id":"fr-road-METRROTT0000002269155244","name":"A35"},"geometry":{"type":"Point","coordinates":[7.562877408717147,47.575340659593124]}},{"type":"Feature","properties":{"id":"fr-road-METRROTT0000002269469469","name":"A35/A352"},"geometry":{"type":"Point","coordinates":[7.592192461939394,48.522081650365834]}},{"type":"Feature","properties":{"id":"fr-road-METRROTT0000002285742054","name":"A35/A355"},"geometry":{"type":"Point","coordinates":[7.58137119126195,48.50983432670988]}},{"type":"Feature","properties":{"id":"fr-road-METRROTT0000002269535020","name":"A35/D1363"},"geometry":{"type":"Point","coordinates":[8.147651317313885,48.96434458783622]}},{"type":"Feature","properties":{"id":"fr-road-METRROTT0000002269231371","name":"A35/D83"},"geometry":{"type":"Point","coordinates":[7.365042985963449,48.1242329508018]}},{"type":"Feature","properties":{"id":"fr-road-METRROTT0000002269452943","name":"A352"},"geometry":{"type":"Point","coordinates":[7.4983845777743285,48.520052327255954]}},{"type":"Feature","properties":{"id":"fr-road-METRROTT0000002269434286","name":"A355"},"geometry":{"type":"Point","coordinates":[7.703521758711404,48.67569679661905]}},{"type":"Feature","properties":{"id":"fr-road-METRROTT0000002264815335","name":"A36"},"geometry":{"type":"Point","coordinates":[5.319483462707282,47.070497397693515]}},{"type":"Feature","properties":{"id":"fr-road-METRROTT0000002330917417","name":"A36/A36"},"geometry":{"type":"Point","coordinates":[7.275761857254615,47.74728869026444]}},{"type":"Feature","properties":{"id":"fr-road-METRROTT0000002264781058","name":"A39"},"geometry":{"type":"Point","coordinates":[5.414512485171256,46.654904645683345]}},{"type":"Feature","properties":{"id":"fr-road-METRROTT0000002271649921","name":"A39/A40"},"geometry":{"type":"Point","coordinates":[5.260669852265291,46.25014976042746]}},{"type":"Feature","properties":{"id":"fr-road-METRROTT0000002267562862","name":"A4"},"geometry":{"type":"Point","coordinates":[2.5135990473618994,48.82678912493552]}},{"type":"Feature","properties":{"id":"fr-road-METRROTT0000002477931004","name":"A4/A355"},"geometry":{"type":"Point","coordinates":[7.728809323344985,48.687406378761025]}},{"type":"Feature","properties":{"id":"fr-road-METRROTT0000002267593689","name":"A4/A4"},"geometry":{"type":"Point","coordinates":[2.540584949458891,48.8360594199993]}},{"type":"Feature","properties":{"id":"fr-road-METRROTT0000002268892727","name":"A40"},"geometry":{"type":"Point","coordinates":[5.907966296224096,46.08306153416838]}},{"type":"Feature","properties":{"id":"fr-road-METRROTT0000002271634465","name":"A40/A40"},"geometry":{"type":"Point","coordinates":[5.791817971508101,46.14977962667387]}},{"type":"Feature","properties":{"id":"fr-road-METRROTT0000002271622984","name":"A40/A42"},"geometry":{"type":"Point","coordinates":[5.32880061957297,46.06915792064939]}},{"type":"Feature","properties":{"id":"fr-road-METRROTT0000002271631054","name":"A404"},"geometry":{"type":"Point","coordinates":[5.547623488855159,46.130765946426365]}},{"type":"Feature","properties":{"id":"fr-road-METRROTT0000002271652195","name":"A406"},"geometry":{"type":"Point","coordinates":[4.83035871158274,46.27105181422404]}},{"type":"Feature","properties":{"id":"fr-road-METRROTT0000002268892718","name":"A41"},"geometry":{"type":"Point","coordinates":[6.104978213746637,46.01668661107302]}},{"type":"Feature","properties":{"id":"fr-road-METRROTT0000002268945016","name":"A41/A41"},"geometry":{"type":"Point","coordinates":[6.100457881061722,46.133927037847165]}},{"type":"Feature","properties":{"id":"fr-road-METRROTT0000002268923369","name":"A410"},"geometry":{"type":"Point","coordinates":[6.128129195563416,45.98684090655025]}},{"type":"Feature","properties":{"id":"fr-road-METRROTT0000002268951297","name":"A411"},"geometry":{"type":"Point","coordinates":[6.222959305293685,46.1805327862632]}},{"type":"Feature","properties":{"id":"fr-road-METRROTT0000002268950997","name":"A411/A40"},"geometry":{"type":"Point","coordinates":[6.222618047181353,46.17853496493389]}},{"type":"Feature","properties":{"id":"fr-road-METRROTT0000002271515660","name":"A42"},"geometry":{"type":"Point","coordinates":[4.893556512102215,45.78108541448672]}},{"type":"Feature","properties":{"id":"fr-road-METRROTT0000002271519711","name":"A42/N346"},"geometry":{"type":"Point","coordinates":[4.926265015374705,45.797138125762906]}},{"type":"Feature","properties":{"id":"fr-road-METRROTT0000002271517713","name":"A42BPNL"},"geometry":{"type":"Point","coordinates":[4.886966613565567,45.788022121076786]}},{"type":"Feature","properties":{"id":"fr-road-METRROTT0000002271485716","name":"A43"},"geometry":{"type":"Point","coordinates":[5.059662773251544,45.66521375326607]}},{"type":"Feature","properties":{"id":"fr-road-METRROTT0000002273616447","name":"A43/A41"},"geometry":{"type":"Point","coordinates":[6.023142909620244,45.490910836835695]}},{"type":"Feature","properties":{"id":"fr-road-METRROTT0000002273627852","name":"A43/A43"},"geometry":{"type":"Point","coordinates":[6.244001903632318,45.556601341529365]}},{"type":"Feature","properties":{"id":"fr-road-METRROTT0000002273629681","name":"A43/A430"},"geometry":{"type":"Point","coordinates":[6.213655644490185,45.56471619384918]}},{"type":"Feature","properties":{"id":"fr-road-METRROTT0000002273625991","name":"A43/N201"},"geometry":{"type":"Point","coordinates":[5.952372306525303,45.555949126274626]}},{"type":"Feature","properties":{"id":"fr-road-METRROTT0000002273597287","name":"A43/N543"},"geometry":{"type":"Point","coordinates":[6.67423269761837,45.19488387192545]}},{"type":"Feature","properties":{"id":"fr-road-METRROTT0000002273629776","name":"A430"},"geometry":{"type":"Point","coordinates":[6.218047988097672,45.5653002002436]}},{"type":"Feature","properties":{"id":"fr-road-METRROTT0000002273643702","name":"A430/N90"},"geometry":{"type":"Point","coordinates":[6.342334747765177,45.649492227295056]}},{"type":"Feature","properties":{"id":"fr-road-METRROTT0000002271486119","name":"A432"},"geometry":{"type":"Point","coordinates":[5.056445311911372,45.66639490740485]}},{"type":"Feature","properties":{"id":"fr-road-METRROTT0000002271475440","name":"A46"},"geometry":{"type":"Point","coordinates":[4.798360156903703,45.5868304697768]}},{"type":"Feature","properties":{"id":"fr-road-METRROTT0000002271590058","name":"A46/N346"},"geometry":{"type":"Point","coordinates":[4.9236619651358735,45.806124793346555]}},{"type":"Feature","properties":{"id":"fr-road-METRROTT0000002271534643","name":"A466"},"geometry":{"type":"Point","coordinates":[4.731247267198659,45.8943297788308]}},{"type":"Feature","properties":{"id":"fr-road-METRROTT0000002267858042","name":"A47"},"geometry":{"type":"Point","coordinates":[4.614525371315185,45.530482848952815]}},{"type":"Feature","properties":{"id":"fr-road-METRROTT0000002267880369","name":"A47/N88"},"geometry":{"type":"Point","coordinates":[4.498355417407378,45.4680851852399]}},{"type":"Feature","properties":{"id":"fr-road-METRROTT0000002273844065","name":"A48"},"geometry":{"type":"Point","coordinates":[5.672786124342711,45.2213649225875]}},{"type":"Feature","properties":{"id":"fr-road-METRROTT0000002273843152","name":"A48/A480"},"geometry":{"type":"Point","coordinates":[5.675571388475584,45.21831480072903]}},{"type":"Feature","properties":{"id":"fr-road-METRROTT0000002273823152","name":"A480"},"geometry":{"type":"Point","coordinates":[5.686359045695104,45.10393332703363]}},{"type":"Feature","properties":{"id":"fr-road-METRROTT0000002273824680","name":"A480/A51N"},"geometry":{"type":"Point","coordinates":[5.683988804596016,45.115506453083924]}},{"type":"Feature","properties":{"id":"fr-road-METRROTT0000002273752044","name":"A49"},"geometry":{"type":"Point","coordinates":[5.031516084006444,45.018387822728215]}},{"type":"Feature","properties":{"id":"fr-road-METRROTT0000002265586483","name":"A5"},"geometry":{"type":"Point","coordinates":[5.221835812007762,47.910751259810056]}},{"type":"Feature","properties":{"id":"fr-road-METRROTT0000002265586312","name":"A5/A31"},"geometry":{"type":"Point","coordinates":[5.222915223852766,47.907811549620845]}},{"type":"Feature","properties":{"id":"fr-road-METRROTT0000002272995550","name":"A50"},"geometry":{"type":"Point","coordinates":[5.914092865711558,43.126941018214666]}},{"type":"Feature","properties":{"id":"fr-road-METRROTT0000002273959896","name":"A50/A50"},"geometry":{"type":"Point","coordinates":[5.5760504922701895,43.283287936596025]}},{"type":"Feature","properties":{"id":"fr-road-METRROTT0000002275579115","name":"A50/A501"},"geometry":{"type":"Point","coordinates":[5.549356279365723,43.28868583980352]}},{"type":"Feature","properties":{"id":"fr-road-METRROTT0000002273961689","name":"A501"},"geometry":{"type":"Point","coordinates":[5.552620548209182,43.28995026421051]}},{"type":"Feature","properties":{"id":"fr-road-METRROTT0000002273964891","name":"A501/A501"},"geometry":{"type":"Point","coordinates":[5.568893684740587,43.30294192597047]}},{"type":"Feature","properties":{"id":"fr-road-METRROTT0000002273968784","name":"A501/A52"},"geometry":{"type":"Point","coordinates":[5.594889162476216,43.32155251502185]}},{"type":"Feature","properties":{"id":"fr-road-METRROTT0000002273949619","name":"A507"},"geometry":{"type":"Point","coordinates":[5.426539994335204,43.285704617601255]}},{"type":"Feature","properties":{"id":"fr-road-METRROTT0000002269846474","name":"A51"},"geometry":{"type":"Point","coordinates":[5.736439392206579,43.715558244267534]}},{"type":"Feature","properties":{"id":"fr-road-METRROTT0000002273984587","name":"A51/A7"},"geometry":{"type":"Point","coordinates":[5.351221252953738,43.39449686807188]}},{"type":"Feature","properties":{"id":"fr-road-METRROTT0000002273985785","name":"A517"},"geometry":{"type":"Point","coordinates":[5.351384531744121,43.399143777370995]}},{"type":"Feature","properties":{"id":"fr-road-METRROTT0000002273802046","name":"A51N"},"geometry":{"type":"Point","coordinates":[5.644261453170726,44.93832317699593]}},{"type":"Feature","properties":{"id":"fr-road-METRROTT0000002273959349","name":"A52"},"geometry":{"type":"Point","coordinates":[5.58456060841937,43.28012090546591]}},{"type":"Feature","properties":{"id":"fr-road-METRROTT0000002271704142","name":"A54"},"geometry":{"type":"Point","coordinates":[4.526946859455437,43.707063138647506]}},{"type":"Feature","properties":{"id":"fr-road-METRROTT0000002273949716","name":"A55"},"geometry":{"type":"Point","coordinates":[5.324665262258833,43.36899523984788]}},{"type":"Feature","properties":{"id":"fr-road-METRROTT0000002273985799","name":"A551"},"geometry":{"type":"Point","coordinates":[5.298227064362315,43.399253878876905]}},{"type":"Feature","properties":{"id":"fr-road-METRROTT0000002273985030","name":"A551/A55"},"geometry":{"type":"Point","coordinates":[5.29900834665206,43.3956066322645]}},{"type":"Feature","properties":{"id":"fr-road-METRROTT0000002273985788","name":"A552"},"geometry":{"type":"Point","coordinates":[5.291686779157027,43.39865211642365]}},{"type":"Feature","properties":{"id":"fr-road-METRROTT0000002273985612","name":"A552/A55"},"geometry":{"type":"Point","coordinates":[5.289111931181487,43.39829448819026]}},{"type":"Feature","properties":{"id":"fr-road-METRROTT0000002273967348","name":"A557"},"geometry":{"type":"Point","coordinates":[5.371408016786215,43.32004048520764]}},{"type":"Feature","properties":{"id":"fr-road-METRROTT0000002273006406","name":"A57"},"geometry":{"type":"Point","coordinates":[5.953735674553395,43.121454454152016]}},{"type":"Feature","properties":{"id":"fr-road-METRROTT0000002273005916","name":"A57/A50"},"geometry":{"type":"Point","coordinates":[5.952727673706697,43.1211207040529]}},{"type":"Feature","properties":{"id":"fr-road-METRROTT0000002273008508","name":"A570"},"geometry":{"type":"Point","coordinates":[6.10219793713635,43.12046673072434]}},{"type":"Feature","properties":{"id":"fr-road-METRROTT0000002268002369","name":"A5A"},"geometry":{"type":"Point","coordinates":[2.6244604849972912,48.593700199499736]}},{"type":"Feature","properties":{"id":"fr-road-METRROTT0000002268002274","name":"A5A/A5"},"geometry":{"type":"Point","coordinates":[2.64391418795862,48.59234996370325]}},{"type":"Feature","properties":{"id":"fr-road-METRROTT0000002268005964","name":"A5A/N104"},"geometry":{"type":"Point","coordinates":[2.530505095017153,48.6322612943838]}},{"type":"Feature","properties":{"id":"fr-road-METRROTT0000002267565335","name":"A6"},"geometry":{"type":"Point","coordinates":[2.316569045600998,48.73524222315625]}},{"type":"Feature","properties":{"id":"fr-road-METRROTT0000002269948669","name":"A6/A31"},"geometry":{"type":"Point","coordinates":[4.868914060486566,47.01775527203094]}},{"type":"Feature","properties":{"id":"fr-road-METRROTT0000002267987877","name":"A6/A6"},"geometry":{"type":"Point","coordinates":[2.5155214710114437,48.47812226510252]}},{"type":"Feature","properties":{"id":"fr-road-METRROTT0000002272085497","name":"A61"},"geometry":{"type":"Point","coordinates":[2.981126834745706,43.145289287517116]}},{"type":"Feature","properties":{"id":"fr-road-METRROTT0000002265442812","name":"A62"},"geometry":{"type":"Point","coordinates":[1.3529020100605706,43.81720021618922]}},{"type":"Feature","properties":{"id":"fr-road-METRROTT0000002274299470","name":"A62/A62"},"geometry":{"type":"Point","coordinates":[-0.4948970835247454,44.69184259251777]}},{"type":"Feature","properties":{"id":"fr-road-METRROTT0000002272219817","name":"A620"},"geometry":{"type":"Point","coordinates":[1.4596345387556888,43.57215199131501]}},{"type":"Feature","properties":{"id":"fr-road-METRROTT0000002272289953","name":"A620/A61"},"geometry":{"type":"Point","coordinates":[1.5005849092532169,43.54525027783282]}},{"type":"Feature","properties":{"id":"fr-road-METRROTT0000002272310977","name":"A621"},"geometry":{"type":"Point","coordinates":[1.3940951194319515,43.61875435280203]}},{"type":"Feature","properties":{"id":"fr-road-METRROTT0000002272305790","name":"A624"},"geometry":{"type":"Point","coordinates":[1.4025438612259986,43.60401656590298]}},{"type":"Feature","properties":{"id":"fr-road-METRROTT0000002269565708","name":"A63"},"geometry":{"type":"Point","coordinates":[-1.4383093084252623,43.525836928589094]}},{"type":"Feature","properties":{"id":"fr-road-METRROTT0000002269590394","name":"A63/A63"},"geometry":{"type":"Point","coordinates":[-1.2287114303199083,43.70133446989393]}},{"type":"Feature","properties":{"id":"fr-road-METRROTT0000002274317197","name":"A630"},"geometry":{"type":"Point","coordinates":[-0.5598678232766294,44.77765859815372]}},{"type":"Feature","properties":{"id":"fr-road-METRROTT0000002274349907","name":"A630/A10"},"geometry":{"type":"Point","coordinates":[-0.5087381154853656,44.885438764872355]}},{"type":"Feature","properties":{"id":"fr-road-METRROTT0000002265211796","name":"A64"},"geometry":{"type":"Point","coordinates":[0.5236634275501777,43.09081126886025]}},{"type":"Feature","properties":{"id":"fr-road-METRROTT0000002272246063","name":"A64/A64"},"geometry":{"type":"Point","coordinates":[1.0295844474919738,43.21033436462743]}},{"type":"Feature","properties":{"id":"fr-road-METRROTT0000002269564822","name":"A65"},"geometry":{"type":"Point","coordinates":[-0.293230928534586,43.568681031714206]}},{"type":"Feature","properties":{"id":"fr-road-METRROTT0000002271226695","name":"A66"},"geometry":{"type":"Point","coordinates":[1.6273882245968998,43.131292505957006]}},{"type":"Feature","properties":{"id":"fr-road-METRROTT0000002271226438","name":"A66/N20"},"geometry":{"type":"Point","coordinates":[1.627874742630147,43.12937224867981]}},{"type":"Feature","properties":{"id":"fr-road-METRROTT0000002274285775","name":"A660"},"geometry":{"type":"Point","coordinates":[-1.0214542567974632,44.611686428368856]}},{"type":"Feature","properties":{"id":"fr-road-METRROTT0000002271989910","name":"A68"},"geometry":{"type":"Point","coordinates":[1.6503707276066406,43.75255428323155]}},{"type":"Feature","properties":{"id":"fr-road-METRROTT0000002272331048","name":"A68/A68"},"geometry":{"type":"Point","coordinates":[1.6027059170977789,43.743980082920444]}},{"type":"Feature","properties":{"id":"fr-road-METRROTT0000002267562832","name":"A6A"},"geometry":{"type":"Point","coordinates":[2.336719508257671,48.81645002529835]}},{"type":"Feature","properties":{"id":"fr-road-METRROTT0000002267562795","name":"A6B"},"geometry":{"type":"Point","coordinates":[2.343678817538687,48.80253934281278]}},{"type":"Feature","properties":{"id":"fr-road-METRROTT0000002267565209","name":"A6B/A10"},"geometry":{"type":"Point","coordinates":[2.3151274946062235,48.73479052759576]}},{"type":"Feature","properties":{"id":"fr-road-METRROTT0000002267571212","name":"A6B/A106"},"geometry":{"type":"Point","coordinates":[2.3444544875894637,48.76589984681795]}},{"type":"Feature","properties":{"id":"fr-road-METRROTT0000002271471651","name":"A6BPNL"},"geometry":{"type":"Point","coordinates":[4.803807159731543,45.78513103995709]}},{"type":"Feature","properties":{"id":"fr-road-METRROTT0000002271517908","name":"A6BPNL/A42BPNL"},"geometry":{"type":"Point","coordinates":[4.867049146053763,45.789727046819166]}},{"type":"Feature","properties":{"id":"fr-road-METRROTT0000002264909160","name":"A7"},"geometry":{"type":"Point","coordinates":[2.865579109050804,42.464152864011254]}},{"type":"Feature","properties":{"id":"fr-road-METRROTT0000002273971961","name":"A7/A507"},"geometry":{"type":"Point","coordinates":[5.376798971689777,43.33908073697723]}},{"type":"Feature","properties":{"id":"fr-road-METRROTT0000002274010598","name":"A7/A7"},"geometry":{"type":"Point","coordinates":[5.239198283039007,43.49685245429181]}},{"type":"Feature","properties":{"id":"fr-road-METRROTT0000002273903502","name":"A7/A7N"},"geometry":{"type":"Point","coordinates":[4.7992489357378165,45.58644831336825]}},{"type":"Feature","properties":{"id":"fr-road-METRROTT0000002274025095","name":"A7/A8"},"geometry":{"type":"Point","coordinates":[5.227114532416207,43.56316251458574]}},{"type":"Feature","properties":{"id":"fr-road-METRROTT0000002264909164","name":"A7/A9"},"geometry":{"type":"Point","coordinates":[2.865508693311075,42.46441705027839]}},{"type":"Feature","properties":{"id":"fr-road-METRROTT0000002271492616","name":"A7/M7"},"geometry":{"type":"Point","coordinates":[4.83551076532313,45.70094954848156]}},{"type":"Feature","properties":{"id":"fr-road-METRROTT0000002269749970","name":"A709"},"geometry":{"type":"Point","coordinates":[3.827525096786557,43.56042281802256]}},{"type":"Feature","properties":{"id":"fr-road-METRROTT0000002268488925","name":"A71"},"geometry":{"type":"Point","coordinates":[1.9058893852247352,47.68343969696459]}},{"type":"Feature","properties":{"id":"fr-road-METRROTT0000002269133684","name":"A71/A71"},"geometry":{"type":"Point","coordinates":[2.3345930698029953,47.04449153045338]}},{"type":"Feature","properties":{"id":"fr-road-METRROTT0000002274238220","name":"A710W/A89"},"geometry":{"type":"Point","coordinates":[3.1553180965658143,45.80620175019275]}},{"type":"Feature","properties":{"id":"fr-road-METRROTT0000002274176241","name":"A711"},"geometry":{"type":"Point","coordinates":[3.1500815338298747,45.7716182563919]}},{"type":"Feature","properties":{"id":"fr-road-METRROTT0000002274179963","name":"A711/A711"},"geometry":{"type":"Point","coordinates":[3.196059232537813,45.78506817281302]}},{"type":"Feature","properties":{"id":"fr-road-METRROTT0000002273177253","name":"A714"},"geometry":{"type":"Point","coordinates":[2.6483380485631085,46.36803182255848]}},{"type":"Feature","properties":{"id":"fr-road-METRROTT0000002273140064","name":"A719"},"geometry":{"type":"Point","coordinates":[3.1362195023726898,46.09342712546056]}},{"type":"Feature","properties":{"id":"fr-road-METRROTT0000002267858035","name":"A72"},"geometry":{"type":"Point","coordinates":[4.379582589599115,45.46535972623535]}},{"type":"Feature","properties":{"id":"fr-road-METRROTT0000002267888978","name":"A72/A72"},"geometry":{"type":"Point","coordinates":[4.285780276159896,45.52902672719249]}},{"type":"Feature","properties":{"id":"fr-road-METRROTT0000002267913454","name":"A72/A89"},"geometry":{"type":"Point","coordinates":[4.113013934793409,45.81969691797832]}},{"type":"Feature","properties":{"id":"fr-road-METRROTT0000002266145818","name":"A75"},"geometry":{"type":"Point","coordinates":[3.200507422245341,44.484082170456446]}},{"type":"Feature","properties":{"id":"fr-road-METRROTT0000002274176546","name":"A75/A71"},"geometry":{"type":"Point","coordinates":[3.1399263407721008,45.77237646281333]}},{"type":"Feature","properties":{"id":"fr-road-METRROTT0000002269770465","name":"A750"},"geometry":{"type":"Point","coordinates":[3.6301256676499856,43.62355030811012]}},{"type":"Feature","properties":{"id":"fr-road-METRROTT0000002264848516","name":"A77"},"geometry":{"type":"Point","coordinates":[3.1740739689710464,46.95857960490605]}},{"type":"Feature","properties":{"id":"fr-road-METRROTT0000002273169536","name":"A79"},"geometry":{"type":"Point","coordinates":[2.974076230610429,46.32821688194683]}},{"type":"Feature","properties":{"id":"fr-road-METRROTT0000002271472722","name":"A7N"},"geometry":{"type":"Point","coordinates":[4.8391697577174035,45.50304280940692]}},{"type":"Feature","properties":{"id":"fr-road-METRROTT0000002265497197","name":"A8"},"geometry":{"type":"Point","coordinates":[7.215390708930256,43.719425216986934]}},{"type":"Feature","properties":{"id":"fr-road-METRROTT0000002265310531","name":"A81"},"geometry":{"type":"Point","coordinates":[-0.332919823495478,48.02472572988855]}},{"type":"Feature","properties":{"id":"fr-road-METRROTT0000002265318365","name":"A81/N157"},"geometry":{"type":"Point","coordinates":[-1.0446259526543067,48.083688619054534]}},{"type":"Feature","properties":{"id":"fr-road-METRROTT0000002266539995","name":"A811"},"geometry":{"type":"Point","coordinates":[-1.4767453208525239,47.24154834362868]}},{"type":"Feature","properties":{"id":"fr-road-METRROTT0000002266544891","name":"A82"},"geometry":{"type":"Point","coordinates":[-1.6413853642270455,47.256447352907315]}},{"type":"Feature","properties":{"id":"fr-road-METRROTT0000002266544752","name":"A82/N165"},"geometry":{"type":"Point","coordinates":[-1.643995604255684,47.25606590757253]}},{"type":"Feature","properties":{"id":"fr-road-METRROTT0000002266497172","name":"A83"},"geometry":{"type":"Point","coordinates":[-1.3659891175991772,46.97174095720963]}},{"type":"Feature","properties":{"id":"fr-road-METRROTT0000002266512213","name":"A83/A83"},"geometry":{"type":"Point","coordinates":[-1.5073400292884105,47.13211129547567]}},{"type":"Feature","properties":{"id":"fr-road-METRROTT0000002272536701","name":"A837"},"geometry":{"type":"Point","coordinates":[-0.6677730396747796,45.782533438173296]}},{"type":"Feature","properties":{"id":"fr-road-METRROTT0000002272569815","name":"A837/D137"},"geometry":{"type":"Point","coordinates":[-0.9839444607344529,45.969790804727864]}},{"type":"Feature","properties":{"id":"fr-road-METRROTT0000002265830617","name":"A84"},"geometry":{"type":"Point","coordinates":[-0.9086023974364937,49.00211148355302]}},{"type":"Feature","properties":{"id":"fr-road-METRROTT0000002266409647","name":"A84/N175"},"geometry":{"type":"Point","coordinates":[-1.3336022869117596,48.70749972085163]}},{"type":"Feature","properties":{"id":"fr-road-METRROTT0000002266546463","name":"A844"},"geometry":{"type":"Point","coordinates":[-1.6052454238219211,47.26363266440731]}},{"type":"Feature","properties":{"id":"fr-road-METRROTT0000002266546350","name":"A844/N844"},"geometry":{"type":"Point","coordinates":[-1.6105380858913478,47.26237244677435]}},{"type":"Feature","properties":{"id":"fr-road-METRROTT0000002268155020","name":"A85"},"geometry":{"type":"Point","coordinates":[-0.3404283086119053,47.5424802508724]}},{"type":"Feature","properties":{"id":"fr-road-METRROTT0000002267484130","name":"A86"},"geometry":{"type":"Point","coordinates":[2.161398327393817,48.78189727471744]}},{"type":"Feature","properties":{"id":"fr-road-METRROTT0000002267500103","name":"A86/N12"},"geometry":{"type":"Point","coordinates":[2.1702543801606127,48.78117210040492]}},{"type":"Feature","properties":{"id":"fr-road-METRROTT0000002267567850","name":"A86/N186"},"geometry":{"type":"Point","coordinates":[2.378069216996466,48.753337437255226]}},{"type":"Feature","properties":{"id":"fr-road-METRROTT0000002267638336","name":"A86/N186B"},"geometry":{"type":"Point","coordinates":[2.333750068163164,48.75631971312716]}},{"type":"Feature","properties":{"id":"fr-road-METRROTT0000002267574401","name":"A86/N385"},"geometry":{"type":"Point","coordinates":[2.2248127739116184,48.777011725991855]}},{"type":"Feature","properties":{"id":"fr-road-METRROTT0000002268155242","name":"A87"},"geometry":{"type":"Point","coordinates":[-0.9138468893209633,46.99266771035116]}},{"type":"Feature","properties":{"id":"fr-road-METRROTT0000002268222146","name":"A87N"},"geometry":{"type":"Point","coordinates":[-0.5203513901776735,47.39689473660124]}},{"type":"Feature","properties":{"id":"fr-road-METRROTT0000002265765595","name":"A88"},"geometry":{"type":"Point","coordinates":[0.19645446416507256,48.62850153624841]}},{"type":"Feature","properties":{"id":"fr-road-METRROTT0000002267858048","name":"A89"},"geometry":{"type":"Point","coordinates":[4.346703054279463,45.8595087618038]}},{"type":"Feature","properties":{"id":"fr-road-METRROTT0000002264909477","name":"A9"},"geometry":{"type":"Point","coordinates":[2.8652554994906816,42.46549540540441]}},{"type":"Feature","properties":{"id":"fr-road-METRROTT0000002269787328","name":"A9/A709"},"geometry":{"type":"Point","coordinates":[4.025387626643639,43.67561962793158]}},{"type":"Feature","properties":{"id":"fr-road-METRROTT0000002267509071","name":"A901305"},"geometry":{"type":"Point","coordinates":[2.1443560661338736,48.83180002470059]}},{"type":"Feature","properties":{"id":"fr-road-METRROTT0000002269509232","name":"A903534"},"geometry":{"type":"Point","coordinates":[7.733605512046077,48.67839541065663]}},{"type":"Feature","properties":{"id":"fr-road-METRROTT0000002269186030","name":"A903550"},"geometry":{"type":"Point","coordinates":[7.393316934743895,47.77672748807481]}},{"type":"Feature","properties":{"id":"fr-road-METRROTT0000002269448135","name":"A903567"},"geometry":{"type":"Point","coordinates":[7.509709642617624,48.455201635479284]}},{"type":"Feature","properties":{"id":"fr-road-METRROTT0000002267484141","name":"A908633"},"geometry":{"type":"Point","coordinates":[2.1464813550672104,48.830786577126176]}},{"type":"Feature","properties":{"id":"fr-road-METRROTT0000002269452983","name":"A935204"},"geometry":{"type":"Point","coordinates":[7.49974110893738,48.51842678959243]}},{"type":"Feature","properties":{"id":"fr-road-METRROTT0000002271517238","name":"D383/A42BPNL"},"geometry":{"type":"Point","coordinates":[4.88831313653916,45.786810164722496]}},{"type":"Feature","properties":{"id":"fr-road-METRROTT0000002268008546","name":"N104/A105"},"geometry":{"type":"Point","coordinates":[2.6130777209003195,48.65978584675013]}},{"type":"Feature","properties":{"id":"fr-road-METRROTT0000002265082721","name":"N1043/A34"},"geometry":{"type":"Point","coordinates":[4.906427542654801,49.69452472038186]}},{"type":"Feature","properties":{"id":"fr-road-METRROTT0000002267484155","name":"N12/A86"},"geometry":{"type":"Point","coordinates":[2.1663915583859747,48.781490577907896]}},{"type":"Feature","properties":{"id":"fr-road-METRROTT0000002273178969","name":"N145/A714"},"geometry":{"type":"Point","coordinates":[2.613918388050294,46.37998921710998]}},{"type":"Feature","properties":{"id":"fr-road-METRROTT0000002265815910","name":"N158/A88"},"geometry":{"type":"Point","coordinates":[-0.21978830396016508,48.88900861875]}},{"type":"Feature","properties":{"id":"fr-road-METRROTT0000002269144201","name":"N19/A16"},"geometry":{"type":"Point","coordinates":[6.9858850744208585,47.493385239001796]}},{"type":"Feature","properties":{"id":"fr-road-METRROTT0000002268044228","name":"N2/A104"},"geometry":{"type":"Point","coordinates":[2.5750457822623027,48.97220021121903]}},{"type":"Feature","properties":{"id":"fr-road-METRROTT0000002267434025","name":"N225/A25"},"geometry":{"type":"Point","coordinates":[2.431523798969449,50.94860386974511]}},{"type":"Feature","properties":{"id":"fr-road-METRROTT0000002274324851","name":"N230/A630"},"geometry":{"type":"Point","coordinates":[-0.5333081422805266,44.80268309014545]}},{"type":"Feature","properties":{"id":"fr-road-METRROTT0000002274018567","name":"N296/A51"},"geometry":{"type":"Point","coordinates":[5.4283227835145835,43.52978239292832]}},{"type":"Feature","properties":{"id":"fr-road-METRROTT0000002267396298","name":"N356/A1"},"geometry":{"type":"Point","coordinates":[3.0815352658912976,50.619830284277356]}},{"type":"Feature","properties":{"id":"fr-road-METRROTT0000002265086506","name":"N43/A34"},"geometry":{"type":"Point","coordinates":[4.724409492615769,49.733921094042714]}},{"type":"Feature","properties":{"id":"fr-road-METRROTT0000002273987577","name":"N568/A55"},"geometry":{"type":"Point","coordinates":[5.023639811764467,43.41216779319889]}},{"type":"Feature","properties":{"id":"fr-road-METRROTT0000002273256842","name":"N79/A79"},"geometry":{"type":"Point","coordinates":[4.009252040487032,46.46972766153941]}},{"type":"Feature","properties":{"id":"fr-road-METRROTT0000002274344299","name":"N89/A89"},"geometry":{"type":"Point","coordinates":[-0.2854884376260645,44.87341644882079]}},{"type":"Feature","properties":{"id":"fr-road-METRROTT0000002267566307","name":"A106"},"geometry":{"type":"Point","coordinates":[2.3617218563964144,48.74399733024897]}},{"type":"Feature","properties":{"id":"fr-road-METRROTT0000002265673770","name":"A11.1"},"geometry":{"type":"Point","coordinates":[0.06592161827521276,47.961466446011244]}},{"type":"Feature","properties":{"id":"fr-road-METRROTT0000002268456971","name":"A126"},"geometry":{"type":"Point","coordinates":[2.3064100112110304,48.70684065664172]}},{"type":"Feature","properties":{"id":"fr-road-METRROTT0000002265869981","name":"A132"},"geometry":{"type":"Point","coordinates":[0.2055728074785672,49.28817396540681]}},{"type":"Feature","properties":{"id":"fr-road-METRROTT0000002268033732","name":"A140"},"geometry":{"type":"Point","coordinates":[2.8881695988450153,48.88176633876936]}},{"type":"Feature","properties":{"id":"fr-road-METRROTT0000002268037232","name":"A140/A140"},"geometry":{"type":"Point","coordinates":[2.8822518999968185,48.91127219786449]}},{"type":"Feature","properties":{"id":"fr-road-METRROTT0000002265947702","name":"A154"},"geometry":{"type":"Point","coordinates":[1.1700192167642567,49.18121160780004]}},{"type":"Feature","properties":{"id":"fr-road-METRROTT0000002265947278","name":"A154/N154"},"geometry":{"type":"Point","coordinates":[1.1699777892597498,49.17962868718584]}},{"type":"Feature","properties":{"id":"fr-road-METRROTT0000002267170797","name":"A16/D301"},"geometry":{"type":"Point","coordinates":[2.3317656940962306,49.05644075330885]}},{"type":"Feature","properties":{"id":"fr-road-METRROTT0000002267170862","name":"A16/D301E6"},"geometry":{"type":"Point","coordinates":[2.3315964729794594,49.05964675257021]}},{"type":"Feature","properties":{"id":"fr-road-METRROTT0000002267228561","name":"A211"},"geometry":{"type":"Point","coordinates":[2.8226531362323453,50.4172943927654]}},{"type":"Feature","properties":{"id":"fr-road-METRROTT0000002267228065","name":"A211/N17"},"geometry":{"type":"Point","coordinates":[2.8226196758223114,50.416221133542265]}},{"type":"Feature","properties":{"id":"fr-road-METRROTT0000002269974290","name":"A311"},"geometry":{"type":"Point","coordinates":[5.021991988944627,47.235110201345414]}},{"type":"Feature","properties":{"id":"fr-road-METRROTT0000002267726122","name":"A313"},"geometry":{"type":"Point","coordinates":[6.098656151426115,48.882960319931385]}},{"type":"Feature","properties":{"id":"fr-road-METRROTT0000002267686640","name":"A330"},"geometry":{"type":"Point","coordinates":[6.17480231383572,48.57768391314629]}},{"type":"Feature","properties":{"id":"fr-road-METRROTT0000002269975604","name":"A38"},"geometry":{"type":"Point","coordinates":[4.559295218120134,47.25153492924212]}},{"type":"Feature","properties":{"id":"fr-road-METRROTT0000002264799513","name":"A391"},"geometry":{"type":"Point","coordinates":[5.620072399402166,46.841841188783306]}},{"type":"Feature","properties":{"id":"fr-road-METRROTT0000002271484532","name":"A450"},"geometry":{"type":"Point","coordinates":[4.7556303174535355,45.66176903901851]}},{"type":"Feature","properties":{"id":"fr-road-METRROTT0000002265497251","name":"A500"},"geometry":{"type":"Point","coordinates":[7.3860698289814595,43.73635794099842]}},{"type":"Feature","properties":{"id":"fr-road-METRROTT0000002273959937","name":"A502"},"geometry":{"type":"Point","coordinates":[5.579833237328899,43.2829987935358]}},{"type":"Feature","properties":{"id":"fr-road-METRROTT0000002273994664","name":"A515"},"geometry":{"type":"Point","coordinates":[5.393387790301412,43.43093861443932]}},{"type":"Feature","properties":{"id":"fr-road-METRROTT0000002273975906","name":"A520"},"geometry":{"type":"Point","coordinates":[5.618720189269439,43.35029503257694]}},{"type":"Feature","properties":{"id":"fr-road-METRROTT0000002272311382","name":"A621/M901"},"geometry":{"type":"Point","coordinates":[1.3933218494701005,43.62119667003538]}},{"type":"Feature","properties":{"id":"fr-road-METRROTT0000002272292684","name":"A623"},"geometry":{"type":"Point","coordinates":[1.4894170660606796,43.55755858018376]}},{"type":"Feature","properties":{"id":"fr-road-METRROTT0000002274325780","name":"A631"},"geometry":{"type":"Point","coordinates":[-0.5331914241108692,44.80334066558691]}},{"type":"Feature","properties":{"id":"fr-road-METRROTT0000002269563395","name":"A641"},"geometry":{"type":"Point","coordinates":[-1.1050749441390693,43.5138289756448]}},{"type":"Feature","properties":{"id":"fr-road-METRROTT0000002272230534","name":"A645"},"geometry":{"type":"Point","coordinates":[0.5967023411378143,43.061642322679056]}},{"type":"Feature","properties":{"id":"fr-road-METRROTT0000002272317306","name":"A680"},"geometry":{"type":"Point","coordinates":[1.6398135654048638,43.652724104822354]}},{"type":"Feature","properties":{"id":"fr-road-METRROTT0000002274184883","name":"A710W"},"geometry":{"type":"Point","coordinates":[3.149788823981906,45.803918479732616]}},{"type":"Feature","properties":{"id":"fr-road-METRROTT0000002274179807","name":"A712"},"geometry":{"type":"Point","coordinates":[3.202553870910265,45.784544322259116]}},{"type":"Feature","properties":{"id":"fr-road-METRROTT0000002265845346","name":"A813"},"geometry":{"type":"Point","coordinates":[-0.230538117836839,49.13771106027464]}},{"type":"Feature","properties":{"id":"fr-road-METRROTT0000002265595358","name":"A900524"},"geometry":{"type":"Point","coordinates":[5.059997083720408,48.03926203941842]}},{"type":"Feature","properties":{"id":"fr-road-METRROTT0000002267563004","name":"A901301"},"geometry":{"type":"Point","coordinates":[2.24289565943402,48.848278120101014]}},{"type":"Feature","properties":{"id":"fr-road-METRROTT0000002267599537","name":"A901302"},"geometry":{"type":"Point","coordinates":[2.230014805965636,48.8481864490205]}},{"type":"Feature","properties":{"id":"fr-road-METRROTT0000002267562948","name":"A901304"},"geometry":{"type":"Point","coordinates":[2.217813836099587,48.83920261203902]}},{"type":"Feature","properties":{"id":"fr-road-METRROTT0000002267562700","name":"A901401"},"geometry":{"type":"Point","coordinates":[2.2498124878842933,48.888251114569655]}},{"type":"Feature","properties":{"id":"fr-road-METRROTT0000002267563211","name":"A901404"},"geometry":{"type":"Point","coordinates":[2.2269757819466443,48.895125104430875]}},{"type":"Feature","properties":{"id":"fr-road-METRROTT0000002267631643","name":"A901501"},"geometry":{"type":"Point","coordinates":[2.2986463682925757,48.937157092034]}},{"type":"Feature","properties":{"id":"fr-road-METRROTT0000002265578023","name":"A903106"},"geometry":{"type":"Point","coordinates":[5.225733047324276,47.79041950947454]}},{"type":"Feature","properties":{"id":"fr-road-METRROTT0000002265587743","name":"A903107"},"geometry":{"type":"Point","coordinates":[5.284166737437374,47.92778606707424]}},{"type":"Feature","properties":{"id":"fr-road-METRROTT0000002265592683","name":"A903108"},"geometry":{"type":"Point","coordinates":[5.511741786930903,47.99375573724445]}},{"type":"Feature","properties":{"id":"fr-road-METRROTT0000002265082575","name":"A903404"},"geometry":{"type":"Point","coordinates":[4.908785385500417,49.69274812381331]}},{"type":"Feature","properties":{"id":"fr-road-METRROTT0000002265086333","name":"A903409"},"geometry":{"type":"Point","coordinates":[4.720060700620102,49.73178118175075]}},{"type":"Feature","properties":{"id":"fr-road-METRROTT0000002265077030","name":"A903413"},"geometry":{"type":"Point","coordinates":[4.624899910945391,49.64167837185154]}},{"type":"Feature","properties":{"id":"fr-road-METRROTT0000002269230751","name":"A903505"},"geometry":{"type":"Point","coordinates":[7.3706162346489545,48.11845809966093]}},{"type":"Feature","properties":{"id":"fr-road-METRROTT0000002269227891","name":"A903510"},"geometry":{"type":"Point","coordinates":[7.382657033145785,48.092814472805514]}},{"type":"Feature","properties":{"id":"fr-road-METRROTT0000002269525429","name":"A903511"},"geometry":{"type":"Point","coordinates":[8.054767055963785,48.85418904136429]}},{"type":"Feature","properties":{"id":"fr-road-METRROTT0000002269522661","name":"A903513"},"geometry":{"type":"Point","coordinates":[7.9981938529552625,48.82165188781377]}},{"type":"Feature","properties":{"id":"fr-road-METRROTT0000002269223622","name":"A903515"},"geometry":{"type":"Point","coordinates":[7.3841556271722215,48.066090135345426]}},{"type":"Feature","properties":{"id":"fr-road-METRROTT0000002269514671","name":"A903519"},"geometry":{"type":"Point","coordinates":[7.914340596516089,48.746439523868574]}},{"type":"Feature","properties":{"id":"fr-road-METRROTT0000002269512415","name":"A903522"},"geometry":{"type":"Point","coordinates":[7.8757103083150835,48.717509622557806]}},{"type":"Feature","properties":{"id":"fr-road-METRROTT0000002269214161","name":"A903530"},"geometry":{"type":"Point","coordinates":[7.376748058201012,47.991371887059366]}},{"type":"Feature","properties":{"id":"fr-road-METRROTT0000002269509088","name":"A903531"},"geometry":{"type":"Point","coordinates":[7.770697230824858,48.67708682612653]}},{"type":"Feature","properties":{"id":"fr-road-METRROTT0000002269206266","name":"A903535"},"geometry":{"type":"Point","coordinates":[7.35730816281975,47.92378517898224]}},{"type":"Feature","properties":{"id":"fr-road-METRROTT0000002269199892","name":"A903540"},"geometry":{"type":"Point","coordinates":[7.3877633000856076,47.872217192595876]}},{"type":"Feature","properties":{"id":"fr-road-METRROTT0000002269467990","name":"A903558"},"geometry":{"type":"Point","coordinates":[7.564408339827239,48.498714983208956]}},{"type":"Feature","properties":{"id":"fr-road-METRROTT0000002269466074","name":"A903564"},"geometry":{"type":"Point","coordinates":[7.516817725518238,48.45660399343509]}},{"type":"Feature","properties":{"id":"fr-road-METRROTT0000002269446434","name":"A903571"},"geometry":{"type":"Point","coordinates":[7.496126406124203,48.43155376639312]}},{"type":"Feature","properties":{"id":"fr-road-METRROTT0000002269156889","name":"A903575"},"geometry":{"type":"Point","coordinates":[7.548070431693095,47.58640471736662]}},{"type":"Feature","properties":{"id":"fr-road-METRROTT0000002269436739","name":"A903585"},"geometry":{"type":"Point","coordinates":[7.45853704592547,48.285913766181686]}},{"type":"Feature","properties":{"id":"fr-road-METRROTT0000002269435420","name":"A903588"},"geometry":{"type":"Point","coordinates":[7.418590443807169,48.26111510119332]}},{"type":"Feature","properties":{"id":"fr-road-METRROTT0000002269179305","name":"A903605"},"geometry":{"type":"Point","coordinates":[7.272286545214898,47.74643273666877]}},{"type":"Feature","properties":{"id":"fr-road-METRROTT0000002269184014","name":"A903615"},"geometry":{"type":"Point","coordinates":[7.336371732596351,47.76726228106615]}},{"type":"Feature","properties":{"id":"fr-road-METRROTT0000002269186459","name":"A903635"},"geometry":{"type":"Point","coordinates":[7.516703189163463,47.77517075689238]}},{"type":"Feature","properties":{"id":"fr-road-METRROTT0000002267625354","name":"A908602"},"geometry":{"type":"Point","coordinates":[2.2206332039160452,48.91544298418205]}},{"type":"Feature","properties":{"id":"fr-road-METRROTT0000002267629564","name":"A908603"},"geometry":{"type":"Point","coordinates":[2.2421924733486094,48.92985196439666]}},{"type":"Feature","properties":{"id":"fr-road-METRROTT0000002267630848","name":"A908604"},"geometry":{"type":"Point","coordinates":[2.2684062108224543,48.93454822608795]}},{"type":"Feature","properties":{"id":"fr-road-METRROTT0000002267630696","name":"A908605"},"geometry":{"type":"Point","coordinates":[2.2768141793829413,48.933935121720054]}},{"type":"Feature","properties":{"id":"fr-road-METRROTT0000002267629713","name":"A908606"},"geometry":{"type":"Point","coordinates":[2.3228643891283323,48.93133541717857]}},{"type":"Feature","properties":{"id":"fr-road-METRROTT0000002267628143","name":"A908607"},"geometry":{"type":"Point","coordinates":[2.3305425796745602,48.92555607392444]}},{"type":"Feature","properties":{"id":"fr-road-METRROTT0000002267569772","name":"A908627"},"geometry":{"type":"Point","coordinates":[2.2939227861640195,48.76078811069195]}},{"type":"Feature","properties":{"id":"fr-road-METRROTT0000002267574069","name":"A908630"},"geometry":{"type":"Point","coordinates":[2.2375151298621536,48.77594175452147]}},{"type":"Feature","properties":{"id":"fr-road-METRROTT0000002267563064","name":"A908634"},"geometry":{"type":"Point","coordinates":[2.1587838150568768,48.86952600829442]}},{"type":"Feature","properties":{"id":"fr-road-METRROTT0000002267563087","name":"A908635"},"geometry":{"type":"Point","coordinates":[2.165428548654012,48.88573526574538]}},{"type":"Feature","properties":{"id":"fr-road-METRROTT0000002267616472","name":"A908636"},"geometry":{"type":"Point","coordinates":[2.173029188759081,48.890806786333464]}},{"type":"Feature","properties":{"id":"fr-road-METRROTT0000002273896890","name":"D1407/A7N"},"geometry":{"type":"Point","coordinates":[4.850783180373384,45.54197009917539]}},{"type":"Feature","properties":{"id":"fr-road-METRROTT0000002268000048","name":"N105/A105"},"geometry":{"type":"Point","coordinates":[2.6409688906106883,48.570887036444674]}},{"type":"Feature","properties":{"id":"fr-road-METRROTT0000002267168961","name":"N14/A15"},"geometry":{"type":"Point","coordinates":[2.072652124517632,49.04697109620298]}},{"type":"Feature","properties":{"id":"fr-road-METRROTT0000002269979785","name":"N274/A311"},"geometry":{"type":"Point","coordinates":[5.040776345717768,47.27415425490325]}},{"type":"Feature","properties":{"id":"fr-road-METRROTT0000002267631653","name":"N315/A15"},"geometry":{"type":"Point","coordinates":[2.2983022126609063,48.9376249588304]}},{"type":"Feature","properties":{"id":"fr-road-METRROTT0000002267874096","name":"N88/A72"},"geometry":{"type":"Point","coordinates":[4.431468364937373,45.43516485385419]}},{"type":"Feature","properties":{"id":"fr-road-METRROTT0000002275422813","name":"A75/D809B"},"geometry":{"type":"Point","coordinates":[3.2472484090543,44.50743664972612]}},{"type":"Feature","properties":{"id":"fr-road-METRROTT0000002272882438","name":"A903001"},"geometry":{"type":"Point","coordinates":[6.167341351370784,49.291876674518726]}},{"type":"Feature","properties":{"id":"fr-road-METRROTT0000002265085877","name":"A903406"},"geometry":{"type":"Point","coordinates":[4.836179097533341,49.72468898137166]}},{"type":"Feature","properties":{"id":"fr-road-METRROTT0000002265087124","name":"A903407"},"geometry":{"type":"Point","coordinates":[4.785629522836767,49.73788895948782]}},{"type":"Feature","properties":{"id":"fr-road-METRROTT0000002265086675","name":"A903408"},"geometry":{"type":"Point","coordinates":[4.750162883209304,49.7347086334799]}},{"type":"Feature","properties":{"id":"fr-road-METRROTT0000002265085820","name":"A903410"},"geometry":{"type":"Point","coordinates":[4.712302519416937,49.725876731109636]}},{"type":"Feature","properties":{"id":"fr-road-METRROTT0000002265082164","name":"A903411"},"geometry":{"type":"Point","coordinates":[4.678588021328916,49.69213999059471]}},{"type":"Feature","properties":{"id":"fr-road-METRROTT0000002265080612","name":"A903412"},"geometry":{"type":"Point","coordinates":[4.659465292654755,49.67707042988108]}},{"type":"Feature","properties":{"id":"fr-road-METRROTT0000002265072735","name":"A903414"},"geometry":{"type":"Point","coordinates":[4.499613592927801,49.59329793087382]}},{"type":"Feature","properties":{"id":"fr-road-METRROTT0000002269238826","name":"A903501"},"geometry":{"type":"Point","coordinates":[7.402254992738471,48.21450432297366]}},{"type":"Feature","properties":{"id":"fr-road-METRROTT0000002269530015","name":"A903504"},"geometry":{"type":"Point","coordinates":[8.111146665506686,48.91280034099016]}},{"type":"Feature","properties":{"id":"fr-road-METRROTT0000002269528211","name":"A903507"},"geometry":{"type":"Point","coordinates":[8.080670663156333,48.89176894924695]}},{"type":"Feature","properties":{"id":"fr-road-METRROTT0000002269519923","name":"A903516"},"geometry":{"type":"Point","coordinates":[7.970821187361426,48.79850272618475]}},{"type":"Feature","properties":{"id":"fr-road-METRROTT0000002269220351","name":"A903520"},"geometry":{"type":"Point","coordinates":[7.371112202661257,48.04252070549825]}},{"type":"Feature","properties":{"id":"fr-road-METRROTT0000002269216460","name":"A903525"},"geometry":{"type":"Point","coordinates":[7.37953374835833,48.01387029552694]}},{"type":"Feature","properties":{"id":"fr-road-METRROTT0000002269511473","name":"A903526"},"geometry":{"type":"Point","coordinates":[7.854295899043336,48.70581783872367]}},{"type":"Feature","properties":{"id":"fr-road-METRROTT0000002269509549","name":"A903528"},"geometry":{"type":"Point","coordinates":[7.813238686672855,48.681717624167945]}},{"type":"Feature","properties":{"id":"fr-road-METRROTT0000002269209615","name":"A903532"},"geometry":{"type":"Point","coordinates":[7.36639842276404,47.95099987267254]}},{"type":"Feature","properties":{"id":"fr-road-METRROTT0000002269189100","name":"A903545"},"geometry":{"type":"Point","coordinates":[7.398672531961427,47.792413063043234]}},{"type":"Feature","properties":{"id":"fr-road-METRROTT0000002269179175","name":"A903555"},"geometry":{"type":"Point","coordinates":[7.4222343469518,47.740101219787775]}},{"type":"Feature","properties":{"id":"fr-road-METRROTT0000002269466909","name":"A903561"},"geometry":{"type":"Point","coordinates":[7.545503768307423,48.477754403266204]}},{"type":"Feature","properties":{"id":"fr-road-METRROTT0000002269165327","name":"A903565"},"geometry":{"type":"Point","coordinates":[7.5021575713620345,47.63404852592306]}},{"type":"Feature","properties":{"id":"fr-road-METRROTT0000002269159163","name":"A903570"},"geometry":{"type":"Point","coordinates":[7.534690394105091,47.600792605310446]}},{"type":"Feature","properties":{"id":"fr-road-METRROTT0000002269443681","name":"A903573"},"geometry":{"type":"Point","coordinates":[7.4761255152993815,48.393218373474966]}},{"type":"Feature","properties":{"id":"fr-road-METRROTT0000002269181438","name":"A903610"},"geometry":{"type":"Point","coordinates":[7.296071931097444,47.75503405618938]}},{"type":"Feature","properties":{"id":"fr-road-METRROTT0000002269182955","name":"A903620"},"geometry":{"type":"Point","coordinates":[7.352500315061318,47.761808896562975]}},{"type":"Feature","properties":{"id":"fr-road-METRROTT0000002269185001","name":"A903625"},"geometry":{"type":"Point","coordinates":[7.3779830435977285,47.77249040315286]}},{"type":"Feature","properties":{"id":"fr-road-METRROTT0000002269188019","name":"A903630"},"geometry":{"type":"Point","coordinates":[7.426195954732714,47.78667139670169]}},{"type":"Feature","properties":{"id":"fr-road-METRROTT0000002267622096","name":"A908601"},"geometry":{"type":"Point","coordinates":[2.210569606889816,48.90607316007613]}},{"type":"Feature","properties":{"id":"fr-road-METRROTT0000002267569423","name":"A908628"},"geometry":{"type":"Point","coordinates":[2.271052305499922,48.7596254157622]}},{"type":"Feature","properties":{"id":"fr-road-METRROTT0000002267572936","name":"A908629"},"geometry":{"type":"Point","coordinates":[2.243847502519774,48.77046805382065]}},{"type":"Feature","properties":{"id":"fr-road-METRROTT0000002269178509","name":"D1066/A903605"},"geometry":{"type":"Point","coordinates":[7.282183848782349,47.742660458733326]}},{"type":"Feature","properties":{"id":"fr-road-METRROTT0000002271499928","name":"N2043/A43"},"geometry":{"type":"Point","coordinates":[4.893928585710997,45.72962758296923]}},{"type":"Feature","properties":{"id":"fr-road-METRROTT0000002265084939","name":"A903405"},"geometry":{"type":"Point","coordinates":[4.885353161346837,49.712744287588755]}},{"type":"Feature","properties":{"id":"fr-road-METRROTT0000002269169593","name":"A903560"},"geometry":{"type":"Point","coordinates":[7.478527259004177,47.66575941915525]}},{"type":"Feature","properties":{"id":"fr-road-METRROTT0000002488129338","name":"A903580"},"geometry":{"type":"Point","coordinates":[7.5590372962263785,47.57857628754077]}},{"type":"Feature","properties":{"id":"fr-road-METRROTT0000002269437889","name":"A903582"},"geometry":{"type":"Point","coordinates":[7.474829024420786,48.31223644992994]}},{"type":"Feature","properties":{"id":"fr-road-METRROTT0000002265020010","name":"trunk"},"geometry":{"type":"Point","coordinates":[1.3842828334953037,46.204230015374364]}},{"type":"Feature","properties":{"id":"fr-road-METRROTT0000002265026206","name":"Route Centre Europe Atlantique"},"geometry":{"type":"Point","coordinates":[1.3847946445798804,46.20085976781806]}},{"type":"Feature","properties":{"id":"fr-road-METRROTT0000002265172256","name":"Autoroute des Estuaires"},"geometry":{"type":"Point","coordinates":[1.8109149608549662,50.130818793368306]}},{"type":"Feature","properties":{"id":"fr-road-METRROTT0000002265449262","name":"l'Occitane"},"geometry":{"type":"Point","coordinates":[1.3084205398948419,43.92725069801034]}},{"type":"Feature","properties":{"id":"fr-road-METRROTT0000002267562831","name":"Autoroute du Soleil"},"geometry":{"type":"Point","coordinates":[2.336993186865757,48.816133610198904]}},{"type":"Feature","properties":{"id":"fr-road-METRROTT0000002267562849","name":"Boulevard Périphérique Extérieur/Boulevard Périphérique Intérieur"},"geometry":{"type":"Point","coordinates":[2.3046368506493455,48.824723760062774]}},{"type":"Feature","properties":{"id":"fr-road-METRROTT0000002269543670","name":"Autoroute des Cigognes"},"geometry":{"type":"Point","coordinates":[8.157404334892671,48.978420364973516]}},{"type":"Feature","properties":{"id":"fr-road-METRROTT0000002271500190","name":"Boulevard Laurent Bonnevay Extérieur"},"geometry":{"type":"Point","coordinates":[4.898419940591429,45.729892066214404]}},{"type":"Feature","properties":{"id":"fr-road-METRROTT0000002268010479","name":"D1004"},"geometry":{"type":"Point","coordinates":[3.0962936262474003,48.684183815124605]}},{"type":"Feature","properties":{"id":"fr-road-METRROTT0000002265248110","name":"D1075"},"geometry":{"type":"Point","coordinates":[5.839537093017331,44.29879448625812]}},{"type":"Feature","properties":{"id":"fr-road-METRROTT0000002269535417","name":"D1363"},"geometry":{"type":"Point","coordinates":[8.148765461021346,48.96651170291818]}},{"type":"Feature","properties":{"id":"fr-road-METRROTT0000002266058404","name":"D137"},"geometry":{"type":"Point","coordinates":[-1.69578247778552,48.14000589933555]}},{"type":"Feature","properties":{"id":"fr-road-METRROTT0000002272528290","name":"D137/N137"},"geometry":{"type":"Point","coordinates":[-0.6542807613043724,45.72751446880739]}},{"type":"Feature","properties":{"id":"fr-road-METRROTT0000002272530977","name":"D150EB1"},"geometry":{"type":"Point","coordinates":[-0.6007058631230532,45.744749303170636]}},{"type":"Feature","properties":{"id":"fr-road-METRROTT0000002265999200","name":"D173"},"geometry":{"type":"Point","coordinates":[-1.2720877858052302,47.79643529924295]}},{"type":"Feature","properties":{"id":"fr-road-METRROTT0000002265993390","name":"D177"},"geometry":{"type":"Point","coordinates":[-2.062875974734257,47.676252954089776]}},{"type":"Feature","properties":{"id":"fr-road-METRROTT0000002271484321","name":"D301"},"geometry":{"type":"Point","coordinates":[4.922281545474757,45.65900973184152]}},{"type":"Feature","properties":{"id":"fr-road-METRROTT0000002271491728","name":"D312"},"geometry":{"type":"Point","coordinates":[4.8449566582940555,45.69633124695128]}},{"type":"Feature","properties":{"id":"fr-road-METRROTT0000002271490358","name":"D383"},"geometry":{"type":"Point","coordinates":[4.845206678021958,45.691649657816136]}},{"type":"Feature","properties":{"id":"fr-road-METRROTT0000002265248046","name":"D4075"},"geometry":{"type":"Point","coordinates":[5.83969995814243,44.29815257168981]}},{"type":"Feature","properties":{"id":"fr-road-METRROTT0000002269450085","name":"D500"},"geometry":{"type":"Point","coordinates":[7.511367484603294,48.47730348402368]}},{"type":"Feature","properties":{"id":"fr-road-METRROTT0000002269447447","name":"D500E10"},"geometry":{"type":"Point","coordinates":[7.506423801301444,48.45039128497632]}},{"type":"Feature","properties":{"id":"fr-road-METRROTT0000002267128332","name":"D6028"},"geometry":{"type":"Point","coordinates":[1.1031055351442984,49.431858587275144]}},{"type":"Feature","properties":{"id":"fr-road-METRROTT0000002267128327","name":"D6028/D6028EA"},"geometry":{"type":"Point","coordinates":[1.1013748296731054,49.43023112242868]}},{"type":"Feature","properties":{"id":"fr-road-METRROTT0000002267128321","name":"D6028EA"},"geometry":{"type":"Point","coordinates":[1.1007026217613984,49.42976969256438]}},{"type":"Feature","properties":{"id":"fr-road-METRROTT0000002271196924","name":"D618"},"geometry":{"type":"Point","coordinates":[1.6002398090020553,42.84637586169352]}},{"type":"Feature","properties":{"id":"fr-road-METRROTT0000002274022226","name":"D7N/N296"},"geometry":{"type":"Point","coordinates":[5.428582036906968,43.54709054332915]}},{"type":"Feature","properties":{"id":"fr-road-METRROTT0000002265195528","name":"D821"},"geometry":{"type":"Point","coordinates":[-0.07575886073660537,43.02832458405549]}},{"type":"Feature","properties":{"id":"fr-road-METRROTT0000002269232026","name":"D83"},"geometry":{"type":"Point","coordinates":[7.365501462356242,48.12761353891753]}},{"type":"Feature","properties":{"id":"fr-road-METRROTT0000002273403771","name":"D888"},"geometry":{"type":"Point","coordinates":[2.5561152599612904,44.32482139151811]}},{"type":"Feature","properties":{"id":"fr-road-METRROTT0000002267591638","name":"D910"},"geometry":{"type":"Point","coordinates":[2.229128851568258,48.82901186999038]}},{"type":"Feature","properties":{"id":"fr-road-METRROTT0000002265103479","name":"D986"},"geometry":{"type":"Point","coordinates":[4.535718280225154,49.9365794953309]}},{"type":"Feature","properties":{"id":"fr-road-METRROTT0000002269752578","name":"M116E1"},"geometry":{"type":"Point","coordinates":[3.8446522746416893,43.56940089057541]}},{"type":"Feature","properties":{"id":"fr-road-METRROTT0000002269759151","name":"M132"},"geometry":{"type":"Point","coordinates":[3.8207393674207406,43.59312259265958]}},{"type":"Feature","properties":{"id":"fr-road-METRROTT0000002269757008","name":"M132E2"},"geometry":{"type":"Point","coordinates":[3.845677053518232,43.58474439316842]}},{"type":"Feature","properties":{"id":"fr-road-METRROTT0000002269469593","name":"M35"},"geometry":{"type":"Point","coordinates":[7.6294943292896775,48.521851827151806]}},{"type":"Feature","properties":{"id":"fr-road-METRROTT0000002269501197","name":"M350"},"geometry":{"type":"Point","coordinates":[7.740044023715539,48.59219519791996]}},{"type":"Feature","properties":{"id":"fr-road-METRROTT0000002269477880","name":"M351"},"geometry":{"type":"Point","coordinates":[7.72436129868597,48.58502543214895]}},{"type":"Feature","properties":{"id":"fr-road-METRROTT0000002271471641","name":"M6"},"geometry":{"type":"Point","coordinates":[4.827691050351577,45.74924714550457]}},{"type":"Feature","properties":{"id":"fr-road-METRROTT0000002269753837","name":"M612"},"geometry":{"type":"Point","coordinates":[3.84914475787893,43.57256103748395]}},{"type":"Feature","properties":{"id":"fr-road-METRROTT0000002267397579","name":"M651/N356"},"geometry":{"type":"Point","coordinates":[3.0835652054457174,50.62662122054718]}},{"type":"Feature","properties":{"id":"fr-road-METRROTT0000002267397922","name":"M652"},"geometry":{"type":"Point","coordinates":[2.9600960906891367,50.629122545996985]}},{"type":"Feature","properties":{"id":"fr-road-METRROTT0000002267406854","name":"M656"},"geometry":{"type":"Point","coordinates":[3.1143320561714383,50.666691206377976]}},{"type":"Feature","properties":{"id":"fr-road-METRROTT0000002271493725","name":"M7"},"geometry":{"type":"Point","coordinates":[4.83349148058563,45.70465919852991]}},{"type":"Feature","properties":{"id":"fr-road-METRROTT0000002272308047","name":"M901"},"geometry":{"type":"Point","coordinates":[1.3843651595113484,43.6099849044542]}},{"type":"Feature","properties":{"id":"fr-road-METRROTT0000002267396945","name":"M965201B2"},"geometry":{"type":"Point","coordinates":[2.9665712547872136,50.62425361957054]}},{"type":"Feature","properties":{"id":"fr-road-METRROTT0000002267397589","name":"M965201B6"},"geometry":{"type":"Point","coordinates":[2.959274692734126,50.62767471808631]}},{"type":"Feature","properties":{"id":"fr-road-METRROTT0000002267397642","name":"M965201B8"},"geometry":{"type":"Point","coordinates":[2.9589001767155407,50.62758081310176]}},{"type":"Feature","properties":{"id":"fr-road-METRROTT0000002267410047","name":"M96567AB4"},"geometry":{"type":"Point","coordinates":[3.122128878117445,50.67905768560992]}},{"type":"Feature","properties":{"id":"fr-road-METRROTT0000002267409697","name":"M96567BB1"},"geometry":{"type":"Point","coordinates":[3.125233051361089,50.67903801043214]}},{"type":"Feature","properties":{"id":"fr-road-METRROTT0000002267407669","name":"M9656B1"},"geometry":{"type":"Point","coordinates":[3.1159607907997238,50.66942984685157]}},{"type":"Feature","properties":{"id":"fr-road-METRROTT0000002267407390","name":"M9656GB1"},"geometry":{"type":"Point","coordinates":[3.113656701916816,50.668369930141836]}},{"type":"Feature","properties":{"id":"fr-road-METRROTT0000002265145840","name":"N1"},"geometry":{"type":"Point","coordinates":[2.287421419607189,49.9238967273957]}},{"type":"Feature","properties":{"id":"fr-road-METRROTT0000002265146282","name":"N1/N25"},"geometry":{"type":"Point","coordinates":[2.3051350987006414,49.9270291860542]}},{"type":"Feature","properties":{"id":"fr-road-METRROTT0000002267763462","name":"N10"},"geometry":{"type":"Point","coordinates":[-0.23125674147925104,45.31427481510343]}},{"type":"Feature","properties":{"id":"fr-road-METRROTT0000002266054118","name":"N1012"},"geometry":{"type":"Point","coordinates":[-1.718707473353653,48.11924254421744]}},{"type":"Feature","properties":{"id":"fr-road-METRROTT0000002267562698","name":"N1014"},"geometry":{"type":"Point","coordinates":[2.250860750690418,48.88781116579165]}},{"type":"Feature","properties":{"id":"fr-road-METRROTT0000002267639399","name":"N1014/N13"},"geometry":{"type":"Point","coordinates":[2.252946319713231,48.88716723167332]}},{"type":"Feature","properties":{"id":"fr-road-METRROTT0000002265886481","name":"N1029"},"geometry":{"type":"Point","coordinates":[0.27117801823141974,49.41397324234147]}},{"type":"Feature","properties":{"id":"fr-road-METRROTT0000002267148647","name":"N104"},"geometry":{"type":"Point","coordinates":[2.532051375302688,49.01758532106723]}},{"type":"Feature","properties":{"id":"fr-road-METRROTT0000002268440323","name":"N104/N446"},"geometry":{"type":"Point","coordinates":[2.397571624787707,48.62600160987836]}},{"type":"Feature","properties":{"id":"fr-road-METRROTT0000002275703615","name":"N104/N6"},"geometry":{"type":"Point","coordinates":[2.5353592221655994,48.639304141649816]}},{"type":"Feature","properties":{"id":"fr-road-METRROTT0000002265081457","name":"N1043"},"geometry":{"type":"Point","coordinates":[4.967356560536079,49.682294959951875]}},{"type":"Feature","properties":{"id":"fr-road-METRROTT0000002269763349","name":"N109"},"geometry":{"type":"Point","coordinates":[3.8191043884368296,43.607031633194666]}}]}