{"type":"FeatureCollection","features":[{"type":"Feature","properties":{"id":"gb-airport-abd","name":"Aberdeen","unlocode":"GBABD","subdivision":"ABE","function":"1--4----","status":"AF","date":"1401","iata":"ABZ","importance_rank_source":"unlocode_status_iata","importance_rank":3,"importance":"national_core","airport_type":"national","status_category":"active"},"geometry":{"type":"Point","coordinates":[-2.1,57.13333333333333]}},{"type":"Feature","properties":{"id":"gb-airport-agn","name":"Abingdon","unlocode":"GBAGN","subdivision":"OXF","function":"---4----","status":"AF","date":"2407","iata":"ABB","importance_rank_source":"unlocode_status_iata","importance_rank":3,"importance":"national_core","airport_type":"national","status_category":"active"},"geometry":{"type":"Point","coordinates":[-1.2833333333333332,51.666666666666664]}},{"type":"Feature","properties":{"id":"gb-airport-ams","name":"Amesbury","unlocode":"GBAMS","subdivision":"WIL","function":"--34----","status":"AF","date":"2407","iata":"","importance_rank_source":"unlocode_status_iata","importance_rank":1,"importance":"local_connector","airport_type":"local","status_category":"active"},"geometry":{"type":"Point","coordinates":[-1.7666666666666666,51.166666666666664]}},{"type":"Feature","properties":{"id":"gb-airport-aw3","name":"Ansty","unlocode":"GBAW3","subdivision":"WAR","function":"---4----","status":"RL","date":"1407","iata":"","importance_rank_source":"unlocode_status_iata","importance_rank":1,"importance":"local_connector","airport_type":"local","status_category":"active"},"geometry":{"type":"Point","coordinates":[-1.4,52.416666666666664]}},{"type":"Feature","properties":{"id":"gb-airport-bbc","name":"Benbecula","unlocode":"GBBBC","subdivision":"ELS","function":"---4----","status":"AI","date":"2301","iata":"BEB","importance_rank_source":"unlocode_status_iata","importance_rank":3,"importance":"national_core","airport_type":"national","status_category":"active"},"geometry":{"type":"Point","coordinates":[-7.35,57.46666666666667]}},{"type":"Feature","properties":{"id":"gb-airport-bbp","name":"Bembridge","unlocode":"GBBBP","subdivision":"IOW","function":"1-34----","status":"AI","date":"0212","iata":"","importance_rank_source":"unlocode_status_iata","importance_rank":2,"importance":"regional_core","airport_type":"specific_local","status_category":"active"},"geometry":{"type":"Point","coordinates":[-1.0833333333333333,50.68333333333333]}},{"type":"Feature","properties":{"id":"gb-airport-bel","name":"Belfast","unlocode":"GBBEL","subdivision":"BFS","function":"1--4-6--","status":"AF","date":"0907","iata":"BFS","importance_rank_source":"unlocode_status_iata","importance_rank":3,"importance":"national_core","airport_type":"national","status_category":"active"},"geometry":{"type":"Point","coordinates":[-5.916666666666667,54.983333333333334]}},{"type":"Feature","properties":{"id":"gb-airport-bes","name":"Benson","unlocode":"GBBES","subdivision":"OXF","function":"---4----","status":"AI","date":"0212","iata":"BEX","importance_rank_source":"unlocode_status_iata","importance_rank":3,"importance":"national_core","airport_type":"national","status_category":"active"},"geometry":{"type":"Point","coordinates":[-1.1166666666666667,51.63333333333333]}},{"type":"Feature","properties":{"id":"gb-airport-bhd","name":"George Best Belfast City Apt/Belfast","unlocode":"GBBHD","subdivision":"BFS","function":"---4----","status":"RL","date":"1301","iata":"","importance_rank_source":"unlocode_status_iata","importance_rank":1,"importance":"local_connector","airport_type":"local","status_category":"active"},"geometry":{"type":"Point","coordinates":[-5.866666666666667,54.61666666666667]}},{"type":"Feature","properties":{"id":"gb-airport-bhm","name":"Birmingham","unlocode":"GBBHM","subdivision":"BIR","function":"-2345---","status":"AF","date":"1401","iata":"BHX","importance_rank_source":"unlocode_status_iata","importance_rank":3,"importance":"national_core","airport_type":"national","status_category":"active"},"geometry":{"type":"Point","coordinates":[-1.9166666666666665,52.46666666666667]}},{"type":"Feature","properties":{"id":"gb-airport-bif","name":"Barrow in Furness","unlocode":"GBBIF","subdivision":"CMA","function":"1--4----","status":"AF","date":"0212","iata":"BWF","importance_rank_source":"unlocode_status_iata","importance_rank":3,"importance":"national_core","airport_type":"national","status_category":"active"},"geometry":{"type":"Point","coordinates":[-3.2333333333333334,54.11666666666667]}},{"type":"Feature","properties":{"id":"gb-airport-bko","name":"Ballykelly","unlocode":"GBBKO","subdivision":"CCG","function":"--34----","status":"AI","date":"2501","iata":"BOL","importance_rank_source":"unlocode_status_iata","importance_rank":3,"importance":"national_core","airport_type":"national","status_category":"active"},"geometry":{"type":"Point","coordinates":[-7.016666666666667,55.06666666666667]}},{"type":"Feature","properties":{"id":"gb-airport-boh","name":"Bournemouth","unlocode":"GBBOH","subdivision":"DOR","function":"1234----","status":"AA","date":"0701","iata":"","importance_rank_source":"unlocode_status_iata","importance_rank":2,"importance":"regional_core","airport_type":"specific_local","status_category":"active"},"geometry":{"type":"Point","coordinates":[-1.8833333333333333,50.733333333333334]}},{"type":"Feature","properties":{"id":"gb-airport-bqh","name":"Biggin Hill","unlocode":"GBBQH","subdivision":"SRY","function":"--34----","status":"AF","date":"1401","iata":"","importance_rank_source":"unlocode_status_iata","importance_rank":1,"importance":"local_connector","airport_type":"local","status_category":"active"},"geometry":{"type":"Point","coordinates":[0.3333333333333333,51.28333333333333]}},{"type":"Feature","properties":{"id":"gb-airport-bra","name":"Brandon","unlocode":"GBBRA","subdivision":"SFK","function":"-234----","status":"AF","date":"0401","iata":"LKZ","importance_rank_source":"unlocode_status_iata","importance_rank":3,"importance":"national_core","airport_type":"national","status_category":"active"},"geometry":{"type":"Point","coordinates":[-1.6166666666666667,54.75]}},{"type":"Feature","properties":{"id":"gb-airport-brf","name":"Bradford","unlocode":"GBBRF","subdivision":"BRD","function":"1--4----","status":"AF","date":"1401","iata":"","importance_rank_source":"unlocode_status_iata","importance_rank":1,"importance":"local_connector","airport_type":"local","status_category":"active"},"geometry":{"type":"Point","coordinates":[-1.75,53.78333333333333]}},{"type":"Feature","properties":{"id":"gb-airport-brr","name":"Barra","unlocode":"GBBRR","subdivision":"","function":"1--4----","status":"AI","date":"2501","iata":"","importance_rank_source":"unlocode_status_iata","importance_rank":2,"importance":"regional_core","airport_type":"specific_local","status_category":"active"},"geometry":{"type":"Point","coordinates":[-7.45,57.0]}},{"type":"Feature","properties":{"id":"gb-airport-brs","name":"Bristol","unlocode":"GBBRS","subdivision":"BST","function":"1234----","status":"AF","date":"2501","iata":"","importance_rank_source":"unlocode_status_iata","importance_rank":1,"importance":"local_connector","airport_type":"local","status_category":"active"},"geometry":{"type":"Point","coordinates":[-2.5833333333333335,51.45]}},{"type":"Feature","properties":{"id":"gb-airport-bse","name":"Bury Saint Edmunds","unlocode":"GBBSE","subdivision":"SFK","function":"--34----","status":"AF","date":"2501","iata":"BEQ","importance_rank_source":"unlocode_status_iata","importance_rank":3,"importance":"national_core","airport_type":"national","status_category":"active"},"geometry":{"type":"Point","coordinates":[0.7166666666666667,52.233333333333334]}},{"type":"Feature","properties":{"id":"gb-airport-bxw","name":"Bexwell","unlocode":"GBBXW","subdivision":"NFK","function":"---4-6--","status":"RL","date":"2501","iata":"","importance_rank_source":"unlocode_status_iata","importance_rank":1,"importance":"local_connector","airport_type":"local","status_category":"active"},"geometry":{"type":"Point","coordinates":[0.4,52.6]}},{"type":"Feature","properties":{"id":"gb-airport-bzz","name":"Brize Norton","unlocode":"GBBZZ","subdivision":"OXF","function":"---4----","status":"AI","date":"0212","iata":"","importance_rank_source":"unlocode_status_iata","importance_rank":2,"importance":"regional_core","airport_type":"specific_local","status_category":"active"},"geometry":{"type":"Point","coordinates":[-1.5666666666666667,51.766666666666666]}},{"type":"Feature","properties":{"id":"gb-airport-cbt","name":"Campbeltown","unlocode":"GBCBT","subdivision":"AGB","function":"1--4----","status":"AF","date":"1401","iata":"CAL","importance_rank_source":"unlocode_status_iata","importance_rank":3,"importance":"national_core","airport_type":"national","status_category":"active"},"geometry":{"type":"Point","coordinates":[-5.633333333333333,55.43333333333333]}},{"type":"Feature","properties":{"id":"gb-airport-cdf","name":"Cardiff","unlocode":"GBCDF","subdivision":"CRF","function":"1--4----","status":"AF","date":"1101","iata":"CWL","importance_rank_source":"unlocode_status_iata","importance_rank":3,"importance":"national_core","airport_type":"national","status_category":"active"},"geometry":{"type":"Point","coordinates":[-3.2,51.5]}},{"type":"Feature","properties":{"id":"gb-airport-crn","name":"Cromarty","unlocode":"GBCRN","subdivision":"HLD","function":"1--4----","status":"AF","date":"2301","iata":"","importance_rank_source":"unlocode_status_iata","importance_rank":1,"importance":"local_connector","airport_type":"local","status_category":"active"},"geometry":{"type":"Point","coordinates":[-4.033333333333333,57.666666666666664]}},{"type":"Feature","properties":{"id":"gb-airport-csa","name":"Colonsay","unlocode":"GBCSA","subdivision":"AGB","function":"---4----","status":"AI","date":"2301","iata":"","importance_rank_source":"unlocode_status_iata","importance_rank":2,"importance":"regional_core","airport_type":"specific_local","status_category":"active"},"geometry":{"type":"Point","coordinates":[-6.216666666666667,56.06666666666667]}},{"type":"Feature","properties":{"id":"gb-airport-cta","name":"Coltishall","unlocode":"GBCTA","subdivision":"NFK","function":"---4----","status":"AI","date":"0212","iata":"CLF","importance_rank_source":"unlocode_status_iata","importance_rank":3,"importance":"national_core","airport_type":"national","status_category":"active"},"geometry":{"type":"Point","coordinates":[1.3666666666666667,52.733333333333334]}},{"type":"Feature","properties":{"id":"gb-airport-cvt","name":"Coventry","unlocode":"GBCVT","subdivision":"COV","function":"1-345---","status":"AF","date":"2407","iata":"","importance_rank_source":"unlocode_status_iata","importance_rank":1,"importance":"local_connector","airport_type":"local","status_category":"active"},"geometry":{"type":"Point","coordinates":[-1.55,52.416666666666664]}},{"type":"Feature","properties":{"id":"gb-airport-doc","name":"Dornoch","unlocode":"GBDOC","subdivision":"HLD","function":"---4----","status":"AI","date":"0212","iata":"","importance_rank_source":"unlocode_status_iata","importance_rank":2,"importance":"regional_core","airport_type":"specific_local","status_category":"active"},"geometry":{"type":"Point","coordinates":[-4.033333333333333,57.86666666666667]}},{"type":"Feature","properties":{"id":"gb-airport-dun","name":"Dundee","unlocode":"GBDUN","subdivision":"DND","function":"1--4----","status":"AF","date":"1401","iata":"DND","importance_rank_source":"unlocode_status_iata","importance_rank":3,"importance":"national_core","airport_type":"national","status_category":"active"},"geometry":{"type":"Point","coordinates":[-2.966666666666667,56.5]}},{"type":"Feature","properties":{"id":"gb-airport-edi","name":"Edinburgh","unlocode":"GBEDI","subdivision":"EDH","function":"1--4----","status":"AF","date":"1401","iata":"","importance_rank_source":"unlocode_status_iata","importance_rank":1,"importance":"local_connector","airport_type":"local","status_category":"active"},"geometry":{"type":"Point","coordinates":[-3.2,55.95]}},{"type":"Feature","properties":{"id":"gb-airport-eoi","name":"Eday","unlocode":"GBEOI","subdivision":"ORK","function":"---4----","status":"AI","date":"0212","iata":"","importance_rank_source":"unlocode_status_iata","importance_rank":2,"importance":"regional_core","airport_type":"specific_local","status_category":"active"},"geometry":{"type":"Point","coordinates":[-2.783333333333333,59.18333333333333]}},{"type":"Feature","properties":{"id":"gb-airport-exe","name":"Exeter","unlocode":"GBEXE","subdivision":"","function":"1--4----","status":"AF","date":"0212","iata":"EXT","importance_rank_source":"unlocode_status_iata","importance_rank":3,"importance":"national_core","airport_type":"national","status_category":"active"},"geometry":{"type":"Point","coordinates":[-3.533333333333333,50.7]}},{"type":"Feature","properties":{"id":"gb-airport-fea","name":"Fetlar","unlocode":"GBFEA","subdivision":"ZET","function":"---4----","status":"AI","date":"2301","iata":"","importance_rank_source":"unlocode_status_iata","importance_rank":2,"importance":"regional_core","airport_type":"specific_local","status_category":"active"},"geometry":{"type":"Point","coordinates":[-0.9333333333333333,60.61666666666667]}},{"type":"Feature","properties":{"id":"gb-airport-fie","name":"Fair Isle","unlocode":"GBFIE","subdivision":"ZET","function":"---4----","status":"AI","date":"0212","iata":"","importance_rank_source":"unlocode_status_iata","importance_rank":2,"importance":"regional_core","airport_type":"specific_local","status_category":"active"},"geometry":{"type":"Point","coordinates":[-1.65,59.53333333333333]}},{"type":"Feature","properties":{"id":"gb-airport-flh","name":"Flotta","unlocode":"GBFLH","subdivision":"ORK","function":"1--4----","status":"AF","date":"2301","iata":"","importance_rank_source":"unlocode_status_iata","importance_rank":1,"importance":"local_connector","airport_type":"local","status_category":"active"},"geometry":{"type":"Point","coordinates":[-3.1333333333333333,58.833333333333336]}},{"type":"Feature","properties":{"id":"gb-airport-foa","name":"Foula","unlocode":"GBFOA","subdivision":"ZET","function":"---4----","status":"AI","date":"2301","iata":"","importance_rank_source":"unlocode_status_iata","importance_rank":2,"importance":"regional_core","airport_type":"specific_local","status_category":"active"},"geometry":{"type":"Point","coordinates":[-2.066666666666667,60.13333333333333]}},{"type":"Feature","properties":{"id":"gb-airport-frs","name":"Forres","unlocode":"GBFRS","subdivision":"MRY","function":"--34----","status":"AF","date":"1401","iata":"FSS","importance_rank_source":"unlocode_status_iata","importance_rank":3,"importance":"national_core","airport_type":"national","status_category":"active"},"geometry":{"type":"Point","coordinates":[-3.6166666666666667,57.6]}},{"type":"Feature","properties":{"id":"gb-airport-fzo","name":"Filton","unlocode":"GBFZO","subdivision":"","function":"---4----","status":"AI","date":"0212","iata":"","importance_rank_source":"unlocode_status_iata","importance_rank":2,"importance":"regional_core","airport_type":"specific_local","status_category":"active"},"geometry":{"type":"Point","coordinates":[-2.5666666666666664,51.516666666666666]}},{"type":"Feature","properties":{"id":"gb-airport-glw","name":"Glasgow","unlocode":"GBGLW","subdivision":"GLG","function":"1--45---","status":"AF","date":"1401","iata":"GLA","importance_rank_source":"unlocode_status_iata","importance_rank":3,"importance":"national_core","airport_type":"national","status_category":"active"},"geometry":{"type":"Point","coordinates":[-4.25,55.833333333333336]}},{"type":"Feature","properties":{"id":"gb-airport-gsy","name":"Grimsby","unlocode":"GBGSY","subdivision":"NEL","function":"1--4----","status":"AF","date":"1401","iata":"","importance_rank_source":"unlocode_status_iata","importance_rank":1,"importance":"local_connector","airport_type":"local","status_category":"active"},"geometry":{"type":"Point","coordinates":[-0.5,53.53333333333333]}},{"type":"Feature","properties":{"id":"gb-airport-gtd","name":"Great Shefford","unlocode":"GBGTD","subdivision":"WBK","function":"--34----","status":"RL","date":"0901","iata":"","importance_rank_source":"unlocode_status_iata","importance_rank":1,"importance":"local_connector","airport_type":"local","status_category":"active"},"geometry":{"type":"Point","coordinates":[-1.45,51.46666666666667]}},{"type":"Feature","properties":{"id":"gb-airport-huy","name":"Humberside Apt","unlocode":"GBHUY","subdivision":"ERY","function":"---4----","status":"AF","date":"1401","iata":"","importance_rank_source":"unlocode_status_iata","importance_rank":1,"importance":"local_connector","airport_type":"local","status_category":"active"},"geometry":{"type":"Point","coordinates":[-0.35,53.56666666666667]}},{"type":"Feature","properties":{"id":"gb-airport-hvr","name":"Haverfordwest","unlocode":"GBHVR","subdivision":"PEM","function":"--34----","status":"AF","date":"1401","iata":"HAW","importance_rank_source":"unlocode_status_iata","importance_rank":3,"importance":"national_core","airport_type":"national","status_category":"active"},"geometry":{"type":"Point","coordinates":[-4.966666666666667,51.8]}},{"type":"Feature","properties":{"id":"gb-airport-ily","name":"Islay Apt","unlocode":"GBILY","subdivision":"AGB","function":"---4----","status":"AF","date":"1401","iata":"","importance_rank_source":"unlocode_status_iata","importance_rank":1,"importance":"local_connector","airport_type":"local","status_category":"active"},"geometry":{"type":"Point","coordinates":[-6.233333333333333,55.68333333333333]}},{"type":"Feature","properties":{"id":"gb-airport-inv","name":"Inverness","unlocode":"GBINV","subdivision":"HLD","function":"1--4----","status":"AF","date":"2301","iata":"","importance_rank_source":"unlocode_status_iata","importance_rank":1,"importance":"local_connector","airport_type":"local","status_category":"active"},"geometry":{"type":"Point","coordinates":[-4.216666666666667,57.483333333333334]}},{"type":"Feature","properties":{"id":"gb-airport-isc","name":"Isles of Scilly","unlocode":"GBISC","subdivision":"CON","function":"---4----","status":"AI","date":"1401","iata":"","importance_rank_source":"unlocode_status_iata","importance_rank":2,"importance":"regional_core","airport_type":"specific_local","status_category":"active"},"geometry":{"type":"Point","coordinates":[-6.333333333333333,49.916666666666664]}},{"type":"Feature","properties":{"id":"gb-airport-kwh","name":"Hatston","unlocode":"GBKWH","subdivision":"ORK","function":"1--4----","status":"RL","date":"1801","iata":"","importance_rank_source":"unlocode_status_iata","importance_rank":1,"importance":"local_connector","airport_type":"local","status_category":"active"},"geometry":{"type":"Point","coordinates":[-2.966666666666667,59.0]}},{"type":"Feature","properties":{"id":"gb-airport-kwl","name":"Kirkwall","unlocode":"GBKWL","subdivision":"ORK","function":"1--4----","status":"AF","date":"2301","iata":"KOI","importance_rank_source":"unlocode_status_iata","importance_rank":3,"importance":"national_core","airport_type":"national","status_category":"active"},"geometry":{"type":"Point","coordinates":[-2.95,58.983333333333334]}},{"type":"Feature","properties":{"id":"gb-airport-lba","name":"Leeds","unlocode":"GBLBA","subdivision":"LDS","function":"1234----","status":"AA","date":"0701","iata":"","importance_rank_source":"unlocode_status_iata","importance_rank":2,"importance":"regional_core","airport_type":"specific_local","status_category":"active"},"geometry":{"type":"Point","coordinates":[-1.5833333333333335,53.8]}},{"type":"Feature","properties":{"id":"gb-airport-lct","name":"London City Airport","unlocode":"GBLCT","subdivision":"LND","function":"---4----","status":"RL","date":"1101","iata":"LCY","importance_rank_source":"unlocode_status_iata","importance_rank":3,"importance":"national_core","airport_type":"national","status_category":"active"},"geometry":{"type":"Point","coordinates":[0.05,51.5]}},{"type":"Feature","properties":{"id":"gb-airport-leq","name":"Land's End","unlocode":"GBLEQ","subdivision":"CON","function":"1-34----","status":"AF","date":"0207","iata":"","importance_rank_source":"unlocode_status_iata","importance_rank":1,"importance":"local_connector","airport_type":"local","status_category":"active"},"geometry":{"type":"Point","coordinates":[-5.716666666666667,50.06666666666667]}},{"type":"Feature","properties":{"id":"gb-airport-ler","name":"Lerwick","unlocode":"GBLER","subdivision":"ZET","function":"1--4----","status":"AF","date":"2301","iata":"LWK","importance_rank_source":"unlocode_status_iata","importance_rank":3,"importance":"national_core","airport_type":"national","status_category":"active"},"geometry":{"type":"Point","coordinates":[-1.15,60.15]}},{"type":"Feature","properties":{"id":"gb-airport-lhr","name":"Heathrow Apt/London","unlocode":"GBLHR","subdivision":"HIL","function":"---4----","status":"AF","date":"1401","iata":"","importance_rank_source":"unlocode_status_iata","importance_rank":1,"importance":"local_connector","airport_type":"local","status_category":"active"},"geometry":{"type":"Point","coordinates":[-0.45,51.46666666666667]}},{"type":"Feature","properties":{"id":"gb-airport-liv","name":"Liverpool","unlocode":"GBLIV","subdivision":"LIV","function":"1--4----","status":"AF","date":"1401","iata":"LPL","importance_rank_source":"unlocode_status_iata","importance_rank":3,"importance":"national_core","airport_type":"national","status_category":"active"},"geometry":{"type":"Point","coordinates":[-3.0,53.416666666666664]}},{"type":"Feature","properties":{"id":"gb-airport-loh","name":"Lochgilphead","unlocode":"GBLOH","subdivision":"AGB","function":"---4----","status":"AI","date":"2301","iata":"LPH","importance_rank_source":"unlocode_status_iata","importance_rank":3,"importance":"national_core","airport_type":"national","status_category":"active"},"geometry":{"type":"Point","coordinates":[-5.416666666666667,56.03333333333333]}},{"type":"Feature","properties":{"id":"gb-airport-lsi","name":"Sumburgh","unlocode":"GBLSI","subdivision":"ZET","function":"---4----","status":"AI","date":"0212","iata":"","importance_rank_source":"unlocode_status_iata","importance_rank":2,"importance":"regional_core","airport_type":"specific_local","status_category":"active"},"geometry":{"type":"Point","coordinates":[-1.2833333333333332,59.86666666666667]}},{"type":"Feature","properties":{"id":"gb-airport-lss","name":"Lossiemouth","unlocode":"GBLSS","subdivision":"MRY","function":"1--4----","status":"AF","date":"1401","iata":"LMO","importance_rank_source":"unlocode_status_iata","importance_rank":3,"importance":"national_core","airport_type":"national","status_category":"active"},"geometry":{"type":"Point","coordinates":[-3.283333333333333,57.7]}},{"type":"Feature","properties":{"id":"gb-airport-lye","name":"Lyneham","unlocode":"GBLYE","subdivision":"WIL","function":"---4----","status":"AI","date":"0212","iata":"","importance_rank_source":"unlocode_status_iata","importance_rank":2,"importance":"regional_core","airport_type":"specific_local","status_category":"active"},"geometry":{"type":"Point","coordinates":[-1.9666666666666668,51.516666666666666]}},{"type":"Feature","properties":{"id":"gb-airport-mac","name":"Machrihanish","unlocode":"GBMAC","subdivision":"AGB","function":"--34----","status":"AF","date":"1401","iata":"GQJ","importance_rank_source":"unlocode_status_iata","importance_rank":3,"importance":"national_core","airport_type":"national","status_category":"active"},"geometry":{"type":"Point","coordinates":[-5.75,55.43333333333333]}},{"type":"Feature","properties":{"id":"gb-airport-mme","name":"Teesside","unlocode":"GBMME","subdivision":"MDB","function":"---4----","status":"AF","date":"1401","iata":"","importance_rank_source":"unlocode_status_iata","importance_rank":1,"importance":"local_connector","airport_type":"local","status_category":"active"},"geometry":{"type":"Point","coordinates":[-1.2333333333333334,54.56666666666667]}},{"type":"Feature","properties":{"id":"gb-airport-mnc","name":"Manchester","unlocode":"GBMNC","subdivision":"MAN","function":"1--4----","status":"AF","date":"1401","iata":"MAN","importance_rank_source":"unlocode_status_iata","importance_rank":3,"importance":"national_core","airport_type":"national","status_category":"active"},"geometry":{"type":"Point","coordinates":[-2.216666666666667,53.5]}},{"type":"Feature","properties":{"id":"gb-airport-mno","name":"Monkton","unlocode":"GBMNO","subdivision":"SAY","function":"-234----","status":"RL","date":"0701","iata":"","importance_rank_source":"unlocode_status_iata","importance_rank":1,"importance":"local_connector","airport_type":"local","status_category":"active"},"geometry":{"type":"Point","coordinates":[-4.6,55.516666666666666]}},{"type":"Feature","properties":{"id":"gb-airport-mse","name":"Manston","unlocode":"GBMSE","subdivision":"KEN","function":"--34----","status":"AI","date":"0701","iata":"","importance_rank_source":"unlocode_status_iata","importance_rank":2,"importance":"regional_core","airport_type":"specific_local","status_category":"active"},"geometry":{"type":"Point","coordinates":[1.3666666666666667,51.35]}},{"type":"Feature","properties":{"id":"gb-airport-mul","name":"Mull Apt","unlocode":"GBMUL","subdivision":"AGB","function":"---4----","status":"AI","date":"2301","iata":"ULL","importance_rank_source":"unlocode_status_iata","importance_rank":3,"importance":"national_core","airport_type":"national","status_category":"active"},"geometry":{"type":"Point","coordinates":[-5.9,56.516666666666666]}},{"type":"Feature","properties":{"id":"gb-airport-nby","name":"Newbury","unlocode":"GBNBY","subdivision":"WBK","function":"--34----","status":"AF","date":"0507","iata":"EWY","importance_rank_source":"unlocode_status_iata","importance_rank":3,"importance":"national_core","airport_type":"national","status_category":"active"},"geometry":{"type":"Point","coordinates":[-1.3166666666666667,51.38333333333333]}},{"type":"Feature","properties":{"id":"gb-airport-ncl","name":"Newcastle upon Tyne","unlocode":"GBNCL","subdivision":"NET","function":"1-34----","status":"AF","date":"1401","iata":"","importance_rank_source":"unlocode_status_iata","importance_rank":1,"importance":"local_connector","airport_type":"local","status_category":"active"},"geometry":{"type":"Point","coordinates":[-1.6,54.96666666666667]}},{"type":"Feature","properties":{"id":"gb-airport-nht","name":"Northolt","unlocode":"GBNHT","subdivision":"EAL","function":"--34----","status":"AI","date":"1401","iata":"","importance_rank_source":"unlocode_status_iata","importance_rank":2,"importance":"regional_core","airport_type":"specific_local","status_category":"active"},"geometry":{"type":"Point","coordinates":[-0.36666666666666664,51.55]}},{"type":"Feature","properties":{"id":"gb-airport-nrs","name":"North Ronaldsay Apt","unlocode":"GBNRS","subdivision":"ORK","function":"---4----","status":"AI","date":"0212","iata":"NRL","importance_rank_source":"unlocode_status_iata","importance_rank":3,"importance":"national_core","airport_type":"national","status_category":"active"},"geometry":{"type":"Point","coordinates":[-2.4333333333333336,59.36666666666667]}},{"type":"Feature","properties":{"id":"gb-airport-oba","name":"Oban","unlocode":"GBOBA","subdivision":"AGB","function":"1--4----","status":"AF","date":"1401","iata":"OBN","importance_rank_source":"unlocode_status_iata","importance_rank":3,"importance":"national_core","airport_type":"national","status_category":"active"},"geometry":{"type":"Point","coordinates":[-5.466666666666667,56.416666666666664]}},{"type":"Feature","properties":{"id":"gb-airport-ouk","name":"Outer Skerries","unlocode":"GBOUK","subdivision":"ZET","function":"---4----","status":"AI","date":"2301","iata":"","importance_rank_source":"unlocode_status_iata","importance_rank":2,"importance":"regional_core","airport_type":"specific_local","status_category":"active"},"geometry":{"type":"Point","coordinates":[-0.7666666666666667,60.416666666666664]}},{"type":"Feature","properties":{"id":"gb-airport-per","name":"Perth","unlocode":"GBPER","subdivision":"PKN","function":"1--4----","status":"AF","date":"1401","iata":"PSL","importance_rank_source":"unlocode_status_iata","importance_rank":3,"importance":"national_core","airport_type":"national","status_category":"active"},"geometry":{"type":"Point","coordinates":[-3.4333333333333336,56.4]}},{"type":"Feature","properties":{"id":"gb-airport-pik","name":"Prestwick","unlocode":"GBPIK","subdivision":"SAY","function":"-234----","status":"RL","date":"0401","iata":"","importance_rank_source":"unlocode_status_iata","importance_rank":1,"importance":"local_connector","airport_type":"local","status_category":"active"},"geometry":{"type":"Point","coordinates":[-4.616666666666667,55.483333333333334]}},{"type":"Feature","properties":{"id":"gb-airport-ply","name":"Plymouth","unlocode":"GBPLY","subdivision":"","function":"1--4----","status":"AF","date":"0212","iata":"PLH","importance_rank_source":"unlocode_status_iata","importance_rank":3,"importance":"national_core","airport_type":"national","status_category":"active"},"geometry":{"type":"Point","coordinates":[-4.116666666666666,50.4]}},{"type":"Feature","properties":{"id":"gb-airport-ppw","name":"Papa Westray","unlocode":"GBPPW","subdivision":"ORK","function":"1-34----","status":"AA","date":"0701","iata":"","importance_rank_source":"unlocode_status_iata","importance_rank":2,"importance":"regional_core","airport_type":"specific_local","status_category":"active"},"geometry":{"type":"Point","coordinates":[-2.8833333333333333,59.333333333333336]}},{"type":"Feature","properties":{"id":"gb-airport-psv","name":"Papa Stour","unlocode":"GBPSV","subdivision":"ZET","function":"---4----","status":"AI","date":"2301","iata":"","importance_rank_source":"unlocode_status_iata","importance_rank":2,"importance":"regional_core","airport_type":"specific_local","status_category":"active"},"geometry":{"type":"Point","coordinates":[-1.6833333333333333,60.31666666666667]}},{"type":"Feature","properties":{"id":"gb-airport-qla","name":"Lasham","unlocode":"GBQLA","subdivision":"HAM","function":"---4----","status":"RL","date":"0901","iata":"","importance_rank_source":"unlocode_status_iata","importance_rank":1,"importance":"local_connector","airport_type":"local","status_category":"active"},"geometry":{"type":"Point","coordinates":[-1.0333333333333334,51.166666666666664]}},{"type":"Feature","properties":{"id":"gb-airport-qug","name":"Goodwood Airport","unlocode":"GBQUG","subdivision":"WSX","function":"---4----","status":"RL","date":"1601","iata":"","importance_rank_source":"unlocode_status_iata","importance_rank":1,"importance":"local_connector","airport_type":"local","status_category":"active"},"geometry":{"type":"Point","coordinates":[-0.75,50.85]}},{"type":"Feature","properties":{"id":"gb-airport-quy","name":"Wyton","unlocode":"GBQUY","subdivision":"CAM","function":"--34----","status":"RL","date":"0901","iata":"","importance_rank_source":"unlocode_status_iata","importance_rank":1,"importance":"local_connector","airport_type":"local","status_category":"active"},"geometry":{"type":"Point","coordinates":[-0.11666666666666667,52.333333333333336]}},{"type":"Feature","properties":{"id":"gb-airport-ray","name":"Rothesay, Isle of Bute","unlocode":"GBRAY","subdivision":"AGB","function":"1-34----","status":"AF","date":"0701","iata":"","importance_rank_source":"unlocode_status_iata","importance_rank":1,"importance":"local_connector","airport_type":"local","status_category":"active"},"geometry":{"type":"Point","coordinates":[-5.15,55.88333333333333]}},{"type":"Feature","properties":{"id":"gb-airport-sky","name":"Isle of Skye Apt","unlocode":"GBSKY","subdivision":"","function":"---4----","status":"AI","date":"2301","iata":"SKL","importance_rank_source":"unlocode_status_iata","importance_rank":3,"importance":"national_core","airport_type":"national","status_category":"active"},"geometry":{"type":"Point","coordinates":[-5.816666666666666,57.25]}},{"type":"Feature","properties":{"id":"gb-airport-snn","name":"Swindon","unlocode":"GBSNN","subdivision":"WIL","function":"--34----","status":"AF","date":"1101","iata":"SWI","importance_rank_source":"unlocode_status_iata","importance_rank":3,"importance":"national_core","airport_type":"national","status_category":"active"},"geometry":{"type":"Point","coordinates":[-1.7666666666666666,51.55]}},{"type":"Feature","properties":{"id":"gb-airport-snw","name":"St Andrews","unlocode":"GBSNW","subdivision":"FIF","function":"1-34----","status":"AF","date":"2301","iata":"ADX","importance_rank_source":"unlocode_status_iata","importance_rank":3,"importance":"national_core","airport_type":"national","status_category":"active"},"geometry":{"type":"Point","coordinates":[-2.783333333333333,56.333333333333336]}},{"type":"Feature","properties":{"id":"gb-airport-sqz","name":"Scampton","unlocode":"GBSQZ","subdivision":"LIN","function":"---4----","status":"AI","date":"0212","iata":"","importance_rank_source":"unlocode_status_iata","importance_rank":2,"importance":"regional_core","airport_type":"specific_local","status_category":"active"},"geometry":{"type":"Point","coordinates":[-0.5666666666666667,53.3]}},{"type":"Feature","properties":{"id":"gb-airport-sto","name":"Stornoway","unlocode":"GBSTO","subdivision":"ELS","function":"1--4----","status":"AF","date":"1401","iata":"","importance_rank_source":"unlocode_status_iata","importance_rank":1,"importance":"local_connector","airport_type":"local","status_category":"active"},"geometry":{"type":"Point","coordinates":[-6.366666666666666,58.21666666666667]}},{"type":"Feature","properties":{"id":"gb-airport-swa","name":"Swansea","unlocode":"GBSWA","subdivision":"SWA","function":"1--4----","status":"AF","date":"1401","iata":"SWS","importance_rank_source":"unlocode_status_iata","importance_rank":3,"importance":"national_core","airport_type":"national","status_category":"active"},"geometry":{"type":"Point","coordinates":[-3.966666666666667,51.63333333333333]}},{"type":"Feature","properties":{"id":"gb-airport-tre","name":"Tiree","unlocode":"GBTRE","subdivision":"AGB","function":"---4----","status":"AI","date":"2301","iata":"","importance_rank_source":"unlocode_status_iata","importance_rank":2,"importance":"regional_core","airport_type":"specific_local","status_category":"active"},"geometry":{"type":"Point","coordinates":[-6.916666666666667,56.483333333333334]}},{"type":"Feature","properties":{"id":"gb-airport-ttt","name":"Tottenham","unlocode":"GBTTT","subdivision":"HRY","function":"-234----","status":"AF","date":"1401","iata":"TTK","importance_rank_source":"unlocode_status_iata","importance_rank":3,"importance":"national_core","airport_type":"national","status_category":"active"},"geometry":{"type":"Point","coordinates":[-0.06666666666666667,51.6]}},{"type":"Feature","properties":{"id":"gb-airport-twl","name":"Tingwall","unlocode":"GBTWL","subdivision":"ZET","function":"1--4----","status":"AF","date":"2301","iata":"","importance_rank_source":"unlocode_status_iata","importance_rank":1,"importance":"local_connector","airport_type":"local","status_category":"active"},"geometry":{"type":"Point","coordinates":[-1.2166666666666668,60.166666666666664]}},{"type":"Feature","properties":{"id":"gb-airport-uhf","name":"Upper Heyford","unlocode":"GBUHF","subdivision":"OXF","function":"---4----","status":"AI","date":"0212","iata":"","importance_rank_source":"unlocode_status_iata","importance_rank":2,"importance":"regional_core","airport_type":"specific_local","status_category":"active"},"geometry":{"type":"Point","coordinates":[-1.2666666666666666,51.93333333333333]}},{"type":"Feature","properties":{"id":"gb-airport-unt","name":"Unst","unlocode":"GBUNT","subdivision":"ZET","function":"---4----","status":"AI","date":"0212","iata":"","importance_rank_source":"unlocode_status_iata","importance_rank":2,"importance":"regional_core","airport_type":"specific_local","status_category":"active"},"geometry":{"type":"Point","coordinates":[-0.8833333333333333,60.75]}},{"type":"Feature","properties":{"id":"gb-airport-upv","name":"Upavon","unlocode":"GBUPV","subdivision":"WIL","function":"---4----","status":"AI","date":"0212","iata":"","importance_rank_source":"unlocode_status_iata","importance_rank":2,"importance":"regional_core","airport_type":"specific_local","status_category":"active"},"geometry":{"type":"Point","coordinates":[-1.8166666666666667,51.28333333333333]}},{"type":"Feature","properties":{"id":"gb-airport-vly","name":"Anglesey","unlocode":"GBVLY","subdivision":"AGY","function":"---4----","status":"RL","date":"0907","iata":"","importance_rank_source":"unlocode_status_iata","importance_rank":1,"importance":"local_connector","airport_type":"local","status_category":"active"},"geometry":{"type":"Point","coordinates":[-4.533333333333333,53.25]}},{"type":"Feature","properties":{"id":"gb-airport-why","name":"Whalsay","unlocode":"GBWHY","subdivision":"ZET","function":"---4----","status":"AI","date":"2301","iata":"WHS","importance_rank_source":"unlocode_status_iata","importance_rank":3,"importance":"national_core","airport_type":"national","status_category":"active"},"geometry":{"type":"Point","coordinates":[-0.95,60.36666666666667]}},{"type":"Feature","properties":{"id":"gb-airport-wic","name":"Wick Caithness","unlocode":"GBWIC","subdivision":"HLD","function":"1--4----","status":"AF","date":"2301","iata":"","importance_rank_source":"unlocode_status_iata","importance_rank":1,"importance":"local_connector","airport_type":"local","status_category":"active"},"geometry":{"type":"Point","coordinates":[-3.0833333333333335,58.43333333333333]}},{"type":"Feature","properties":{"id":"gb-airport-wml","name":"West Malling","unlocode":"GBWML","subdivision":"KEN","function":"-234----","status":"AI","date":"0207","iata":"WEM","importance_rank_source":"unlocode_status_iata","importance_rank":3,"importance":"national_core","airport_type":"national","status_category":"active"},"geometry":{"type":"Point","coordinates":[0.4,51.28333333333333]}}]}