{"type":"FeatureCollection","features":[{"type":"Feature","properties":{"id":"uk-osm-industrial-way-1177857798","name":"\"Net Zero\" Teesside Power","zone_type":"industrial_landuse_center","site_class":"industrial_landuse","coastal_inland_label":"inland","source":"OpenStreetMap landuse=industrial center","source_operator":"NZT Power","osm_type":"way","osm_id":"1177857798","landuse":"industrial","industrial":"","man_made":""},"geometry":{"type":"Point","coordinates":[-1.1194183,54.6205357]}},{"type":"Feature","properties":{"id":"uk-osm-industrial-way-1429398121","name":"0474305","zone_type":"industrial_landuse_center","site_class":"industrial_landuse","coastal_inland_label":"inland","source":"OpenStreetMap landuse=industrial center","source_operator":"UK Power Networks","osm_type":"way","osm_id":"1429398121","landuse":"industrial","industrial":"","man_made":""},"geometry":{"type":"Point","coordinates":[-0.0045246,50.7933692]}},{"type":"Feature","properties":{"id":"uk-osm-industrial-way-207083037","name":"100 Baker Road","zone_type":"industrial_landuse_center","site_class":"industrial_landuse","coastal_inland_label":"inland","source":"OpenStreetMap landuse=industrial center","source_operator":"","osm_type":"way","osm_id":"207083037","landuse":"industrial","industrial":"","man_made":""},"geometry":{"type":"Point","coordinates":[-1.2783815,53.0110266]}},{"type":"Feature","properties":{"id":"uk-osm-industrial-way-1480342607","name":"100 Dudley Road East Business Park","zone_type":"industrial_landuse_center","site_class":"industrial_landuse","coastal_inland_label":"inland","source":"OpenStreetMap landuse=industrial center","source_operator":"","osm_type":"way","osm_id":"1480342607","landuse":"industrial","industrial":"","man_made":""},"geometry":{"type":"Point","coordinates":[-2.0320325,52.5104853]}},{"type":"Feature","properties":{"id":"uk-osm-industrial-way-1189678451","name":"120 Church End Business Park","zone_type":"industrial_landuse_center","site_class":"industrial_landuse","coastal_inland_label":"inland","source":"OpenStreetMap landuse=industrial center","source_operator":"","osm_type":"way","osm_id":"1189678451","landuse":"industrial","industrial":"","man_made":""},"geometry":{"type":"Point","coordinates":[0.1752296,52.1955002]}},{"type":"Feature","properties":{"id":"uk-osm-industrial-way-1419097303","name":"1st Choice Car Spares","zone_type":"scrap_yard","site_class":"industrial_landuse","coastal_inland_label":"inland","source":"OpenStreetMap landuse=industrial center","source_operator":"","osm_type":"way","osm_id":"1419097303","landuse":"industrial","industrial":"scrap_yard","man_made":""},"geometry":{"type":"Point","coordinates":[-2.3668654,53.7755569]}},{"type":"Feature","properties":{"id":"uk-osm-industrial-way-668029553","name":"1st Choice Scaffolding","zone_type":"industrial_landuse_center","site_class":"industrial_landuse","coastal_inland_label":"inland","source":"OpenStreetMap landuse=industrial center","source_operator":"","osm_type":"way","osm_id":"668029553","landuse":"industrial","industrial":"","man_made":""},"geometry":{"type":"Point","coordinates":[-1.1833642,50.7108781]}},{"type":"Feature","properties":{"id":"uk-osm-industrial-way-98772074","name":"1st Choice Vehicle Dismantlers","zone_type":"industrial_landuse_center","site_class":"industrial_landuse","coastal_inland_label":"inland","source":"OpenStreetMap landuse=industrial center","source_operator":"","osm_type":"way","osm_id":"98772074","landuse":"industrial","industrial":"","man_made":""},"geometry":{"type":"Point","coordinates":[-3.1364569,51.4753365]}},{"type":"Feature","properties":{"id":"uk-osm-industrial-way-964716877","name":"2 Ryley Row","zone_type":"industrial_landuse_center","site_class":"industrial_landuse","coastal_inland_label":"inland","source":"OpenStreetMap landuse=industrial center","source_operator":"","osm_type":"way","osm_id":"964716877","landuse":"industrial","industrial":"","man_made":""},"geometry":{"type":"Point","coordinates":[-2.5714704,51.9123754]}},{"type":"Feature","properties":{"id":"uk-osm-industrial-way-927968335","name":"2 Sisters Food","zone_type":"factory","site_class":"industrial_landuse","coastal_inland_label":"inland","source":"OpenStreetMap landuse=industrial center","source_operator":"","osm_type":"way","osm_id":"927968335","landuse":"industrial","industrial":"factory","man_made":""},"geometry":{"type":"Point","coordinates":[1.3949293,52.4228994]}},{"type":"Feature","properties":{"id":"uk-osm-industrial-way-628156738","name":"2 Sisters Food Group","zone_type":"industrial_landuse_center","site_class":"industrial_landuse","coastal_inland_label":"inland","source":"OpenStreetMap landuse=industrial center","source_operator":"","osm_type":"way","osm_id":"628156738","landuse":"industrial","industrial":"","man_made":""},"geometry":{"type":"Point","coordinates":[0.7257034,52.4075155]}},{"type":"Feature","properties":{"id":"uk-osm-industrial-way-28302868","name":"20/20 Industrial Estate","zone_type":"industrial_landuse_center","site_class":"industrial_landuse","coastal_inland_label":"inland","source":"OpenStreetMap landuse=industrial center","source_operator":"","osm_type":"way","osm_id":"28302868","landuse":"industrial","industrial":"","man_made":""},"geometry":{"type":"Point","coordinates":[0.4945211,51.2928016]}},{"type":"Feature","properties":{"id":"uk-osm-industrial-way-905468577","name":"200 degrees Roasting House","zone_type":"industrial_landuse_center","site_class":"industrial_landuse","coastal_inland_label":"inland","source":"OpenStreetMap landuse=industrial center","source_operator":"","osm_type":"way","osm_id":"905468577","landuse":"industrial","industrial":"","man_made":""},"geometry":{"type":"Point","coordinates":[-1.1351868,52.9419152]}},{"type":"Feature","properties":{"id":"uk-osm-industrial-way-929657562","name":"24","zone_type":"industrial_landuse_center","site_class":"industrial_landuse","coastal_inland_label":"inland","source":"OpenStreetMap landuse=industrial center","source_operator":"","osm_type":"way","osm_id":"929657562","landuse":"industrial","industrial":"","man_made":""},"geometry":{"type":"Point","coordinates":[-2.8125496,55.94449]}},{"type":"Feature","properties":{"id":"uk-osm-industrial-way-162974109","name":"24/7 Fitness","zone_type":"industrial_landuse_center","site_class":"industrial_landuse","coastal_inland_label":"inland","source":"OpenStreetMap landuse=industrial center","source_operator":"","osm_type":"way","osm_id":"162974109","landuse":"industrial","industrial":"","man_made":""},"geometry":{"type":"Point","coordinates":[-1.0975329,53.9904502]}},{"type":"Feature","properties":{"id":"uk-osm-industrial-way-28261256","name":"299 High Street","zone_type":"industrial_landuse_center","site_class":"industrial_landuse","coastal_inland_label":"inland","source":"OpenStreetMap landuse=industrial center","source_operator":"","osm_type":"way","osm_id":"28261256","landuse":"industrial","industrial":"","man_made":""},"geometry":{"type":"Point","coordinates":[0.1260671,52.2844895]}},{"type":"Feature","properties":{"id":"uk-osm-industrial-way-1344843389","name":"2tall.com","zone_type":"warehouse","site_class":"industrial_landuse","coastal_inland_label":"inland","source":"OpenStreetMap landuse=industrial center","source_operator":"","osm_type":"way","osm_id":"1344843389","landuse":"industrial","industrial":"warehouse","man_made":""},"geometry":{"type":"Point","coordinates":[-2.0926764,57.1124688]}},{"type":"Feature","properties":{"id":"uk-osm-industrial-way-1027057578","name":"40 Broadway (Erith)","zone_type":"industrial_landuse_center","site_class":"industrial_landuse","coastal_inland_label":"inland","source":"OpenStreetMap landuse=industrial center","source_operator":"","osm_type":"way","osm_id":"1027057578","landuse":"industrial","industrial":"","man_made":""},"geometry":{"type":"Point","coordinates":[-0.1328966,51.5000792]}},{"type":"Feature","properties":{"id":"uk-osm-industrial-way-97593539","name":"40:40 Link","zone_type":"industrial_landuse_center","site_class":"industrial_landuse","coastal_inland_label":"inland","source":"OpenStreetMap landuse=industrial center","source_operator":"","osm_type":"way","osm_id":"97593539","landuse":"industrial","industrial":"","man_made":""},"geometry":{"type":"Point","coordinates":[-0.7823114,51.6368311]}},{"type":"Feature","properties":{"id":"uk-osm-industrial-way-1429772266","name":"473897 : Coney Furlong","zone_type":"industrial_landuse_center","site_class":"industrial_landuse","coastal_inland_label":"inland","source":"OpenStreetMap landuse=industrial center","source_operator":"UK Power Networks","osm_type":"way","osm_id":"1429772266","landuse":"industrial","industrial":"","man_made":""},"geometry":{"type":"Point","coordinates":[0.0097186,50.8049448]}},{"type":"Feature","properties":{"id":"uk-osm-industrial-way-674454887","name":"473905 : Portabello Sewage Works","zone_type":"industrial_landuse_center","site_class":"industrial_landuse","coastal_inland_label":"inland","source":"OpenStreetMap landuse=industrial center","source_operator":"UK Power Networks (SPN)","osm_type":"way","osm_id":"674454887","landuse":"industrial","industrial":"","man_made":""},"geometry":{"type":"Point","coordinates":[-0.0247503,50.7963653]}},{"type":"Feature","properties":{"id":"uk-osm-industrial-way-1429751785","name":"474009 : Drove Road","zone_type":"industrial_landuse_center","site_class":"industrial_landuse","coastal_inland_label":"inland","source":"OpenStreetMap landuse=industrial center","source_operator":"UK Power Networks (SPN)","osm_type":"way","osm_id":"1429751785","landuse":"industrial","industrial":"","man_made":""},"geometry":{"type":"Point","coordinates":[0.0572576,50.7960972]}},{"type":"Feature","properties":{"id":"uk-osm-industrial-way-1423872401","name":"474012 : KEYMER AVENUE","zone_type":"industrial_landuse_center","site_class":"industrial_landuse","coastal_inland_label":"inland","source":"OpenStreetMap landuse=industrial center","source_operator":"UK Power Networks (SPN)","osm_type":"way","osm_id":"1423872401","landuse":"industrial","industrial":"","man_made":""},"geometry":{"type":"Point","coordinates":[0.0063353,50.7904776]}},{"type":"Feature","properties":{"id":"uk-osm-industrial-way-1430002683","name":"474013 : Glynn Road","zone_type":"industrial_landuse_center","site_class":"industrial_landuse","coastal_inland_label":"inland","source":"OpenStreetMap landuse=industrial center","source_operator":"UK Power Networks","osm_type":"way","osm_id":"1430002683","landuse":"industrial","industrial":"","man_made":""},"geometry":{"type":"Point","coordinates":[0.0029116,50.8031184]}},{"type":"Feature","properties":{"id":"uk-osm-industrial-way-1429772284","name":"474016 : Firle Road","zone_type":"industrial_landuse_center","site_class":"industrial_landuse","coastal_inland_label":"inland","source":"OpenStreetMap landuse=industrial center","source_operator":"UK Power Networks","osm_type":"way","osm_id":"1429772284","landuse":"industrial","industrial":"","man_made":""},"geometry":{"type":"Point","coordinates":[0.0019248,50.799781]}},{"type":"Feature","properties":{"id":"uk-osm-industrial-way-1424149799","name":"474017 : SEARLE AVENUE","zone_type":"industrial_landuse_center","site_class":"industrial_landuse","coastal_inland_label":"inland","source":"OpenStreetMap landuse=industrial center","source_operator":"UK Power Networks (SPN)","osm_type":"way","osm_id":"1424149799","landuse":"industrial","industrial":"","man_made":""},"geometry":{"type":"Point","coordinates":[0.0172383,50.7885113]}},{"type":"Feature","properties":{"id":"uk-osm-industrial-way-1429398123","name":"474034 : Rowe Avenue","zone_type":"industrial_landuse_center","site_class":"industrial_landuse","coastal_inland_label":"inland","source":"OpenStreetMap landuse=industrial center","source_operator":"UK Power Networks (SPN)","osm_type":"way","osm_id":"1429398123","landuse":"industrial","industrial":"","man_made":""},"geometry":{"type":"Point","coordinates":[-0.0056498,50.7925865]}},{"type":"Feature","properties":{"id":"uk-osm-industrial-way-1429357084","name":"474061 : Second Road","zone_type":"industrial_landuse_center","site_class":"industrial_landuse","coastal_inland_label":"inland","source":"OpenStreetMap landuse=industrial center","source_operator":"UK Power Networks (SPN)","osm_type":"way","osm_id":"1429357084","landuse":"industrial","industrial":"","man_made":""},"geometry":{"type":"Point","coordinates":[-0.0106719,50.7937309]}},{"type":"Feature","properties":{"id":"uk-osm-industrial-way-1428063313","name":"474076 : Malines Avenue","zone_type":"industrial_landuse_center","site_class":"industrial_landuse","coastal_inland_label":"inland","source":"OpenStreetMap landuse=industrial center","source_operator":"UK Power Networks","osm_type":"way","osm_id":"1428063313","landuse":"industrial","industrial":"","man_made":""},"geometry":{"type":"Point","coordinates":[-0.0071647,50.7953836]}},{"type":"Feature","properties":{"id":"uk-osm-industrial-way-1429353688","name":"474114 : St Peter's Avenue","zone_type":"industrial_landuse_center","site_class":"industrial_landuse","coastal_inland_label":"inland","source":"OpenStreetMap landuse=industrial center","source_operator":"UK Power Networks","osm_type":"way","osm_id":"1429353688","landuse":"industrial","industrial":"","man_made":""},"geometry":{"type":"Point","coordinates":[-0.0132412,50.7973234]}},{"type":"Feature","properties":{"id":"uk-osm-industrial-way-1412870182","name":"474117 : Fairlight Avenue","zone_type":"industrial_landuse_center","site_class":"industrial_landuse","coastal_inland_label":"inland","source":"OpenStreetMap landuse=industrial center","source_operator":"UK Power Networks","osm_type":"way","osm_id":"1412870182","landuse":"industrial","industrial":"","man_made":""},"geometry":{"type":"Point","coordinates":[-0.018255,50.7953842]}},{"type":"Feature","properties":{"id":"uk-osm-industrial-way-122857257","name":"474132","zone_type":"industrial_landuse_center","site_class":"industrial_landuse","coastal_inland_label":"inland","source":"OpenStreetMap landuse=industrial center","source_operator":"UK Power Networks (SPN)","osm_type":"way","osm_id":"122857257","landuse":"industrial","industrial":"","man_made":""},"geometry":{"type":"Point","coordinates":[0.0558597,50.7990672]}},{"type":"Feature","properties":{"id":"uk-osm-industrial-way-1429357092","name":"474151 : Central Avenue","zone_type":"industrial_landuse_center","site_class":"industrial_landuse","coastal_inland_label":"inland","source":"OpenStreetMap landuse=industrial center","source_operator":"UK Power Networks (SPN)","osm_type":"way","osm_id":"1429357092","landuse":"industrial","industrial":"","man_made":""},"geometry":{"type":"Point","coordinates":[-0.0133337,50.7944158]}},{"type":"Feature","properties":{"id":"uk-osm-industrial-way-1429398115","name":"474155 : Roderick Avenue","zone_type":"industrial_landuse_center","site_class":"industrial_landuse","coastal_inland_label":"inland","source":"OpenStreetMap landuse=industrial center","source_operator":"UK Power Networks (SPN)","osm_type":"way","osm_id":"1429398115","landuse":"industrial","industrial":"","man_made":""},"geometry":{"type":"Point","coordinates":[-0.001271,50.7946465]}},{"type":"Feature","properties":{"id":"uk-osm-industrial-way-1429376453","name":"474158 : Malines Avenue North","zone_type":"industrial_landuse_center","site_class":"industrial_landuse","coastal_inland_label":"inland","source":"OpenStreetMap landuse=industrial center","source_operator":"UK Power Networks","osm_type":"way","osm_id":"1429376453","landuse":"industrial","industrial":"","man_made":""},"geometry":{"type":"Point","coordinates":[-0.0055071,50.7984012]}},{"type":"Feature","properties":{"id":"uk-osm-industrial-way-1429830417","name":"474161 : Cripps Avenue","zone_type":"industrial_landuse_center","site_class":"industrial_landuse","coastal_inland_label":"inland","source":"OpenStreetMap landuse=industrial center","source_operator":"UK Power Networks","osm_type":"way","osm_id":"1429830417","landuse":"industrial","industrial":"","man_made":""},"geometry":{"type":"Point","coordinates":[0.0067616,50.8027706]}},{"type":"Feature","properties":{"id":"uk-osm-industrial-way-1433895083","name":"474207 : ESSEX PLACE","zone_type":"industrial_landuse_center","site_class":"industrial_landuse","coastal_inland_label":"inland","source":"OpenStreetMap landuse=industrial center","source_operator":"UK Power Networks (SPN)","osm_type":"way","osm_id":"1433895083","landuse":"industrial","industrial":"","man_made":""},"geometry":{"type":"Point","coordinates":[0.0480585,50.7946384]}},{"type":"Feature","properties":{"id":"uk-osm-industrial-way-1429759592","name":"474225 : Avis Way","zone_type":"industrial_landuse_center","site_class":"industrial_landuse","coastal_inland_label":"inland","source":"OpenStreetMap landuse=industrial center","source_operator":"UK Power Networks (SPN)","osm_type":"way","osm_id":"1429759592","landuse":"industrial","industrial":"","man_made":""},"geometry":{"type":"Point","coordinates":[0.056903,50.7993303]}},{"type":"Feature","properties":{"id":"uk-osm-industrial-way-1412870183","name":"474313 : Cliff Gardens","zone_type":"industrial_landuse_center","site_class":"industrial_landuse","coastal_inland_label":"inland","source":"OpenStreetMap landuse=industrial center","source_operator":"UK Power Networks (SPN)","osm_type":"way","osm_id":"1412870183","landuse":"industrial","industrial":"","man_made":""},"geometry":{"type":"Point","coordinates":[-0.0181694,50.7966842]}},{"type":"Feature","properties":{"id":"uk-osm-industrial-way-1430005849","name":"474333 : Pelham Rise","zone_type":"industrial_landuse_center","site_class":"industrial_landuse","coastal_inland_label":"inland","source":"OpenStreetMap landuse=industrial center","source_operator":"UK Power Networks (SPN)","osm_type":"way","osm_id":"1430005849","landuse":"industrial","industrial":"","man_made":""},"geometry":{"type":"Point","coordinates":[0.0041148,50.8012765]}},{"type":"Feature","properties":{"id":"uk-osm-industrial-way-1417534498","name":"481034 : Telscombe Cliffs School","zone_type":"industrial_landuse_center","site_class":"industrial_landuse","coastal_inland_label":"inland","source":"OpenStreetMap landuse=industrial center","source_operator":"UK Power Networks","osm_type":"way","osm_id":"1417534498","landuse":"industrial","industrial":"","man_made":""},"geometry":{"type":"Point","coordinates":[-0.0105947,50.7990381]}},{"type":"Feature","properties":{"id":"uk-osm-industrial-way-1424652957","name":"49 Square","zone_type":"industrial_landuse_center","site_class":"industrial_landuse","coastal_inland_label":"inland","source":"OpenStreetMap landuse=industrial center","source_operator":"","osm_type":"way","osm_id":"1424652957","landuse":"industrial","industrial":"","man_made":""},"geometry":{"type":"Point","coordinates":[-3.5695078,51.9501267]}},{"type":"Feature","properties":{"id":"uk-osm-industrial-way-280914298","name":"5 Parc Fforddlas Industrial Estate","zone_type":"industrial_landuse_center","site_class":"industrial_landuse","coastal_inland_label":"inland","source":"OpenStreetMap landuse=industrial center","source_operator":"","osm_type":"way","osm_id":"280914298","landuse":"industrial","industrial":"","man_made":""},"geometry":{"type":"Point","coordinates":[-3.4851044,53.3137254]}},{"type":"Feature","properties":{"id":"uk-osm-industrial-way-1378082984","name":"521324 : HOLLINGDEAN","zone_type":"industrial_landuse_center","site_class":"industrial_landuse","coastal_inland_label":"inland","source":"OpenStreetMap landuse=industrial center","source_operator":"UK Power Networks (SPN)","osm_type":"way","osm_id":"1378082984","landuse":"industrial","industrial":"","man_made":""},"geometry":{"type":"Point","coordinates":[-0.1255186,50.8380263]}},{"type":"Feature","properties":{"id":"uk-osm-industrial-way-1377566982","name":"521445 : HOLLINGDEAN ROAD WEST","zone_type":"industrial_landuse_center","site_class":"industrial_landuse","coastal_inland_label":"inland","source":"OpenStreetMap landuse=industrial center","source_operator":"UK Power Networks (SPN)","osm_type":"way","osm_id":"1377566982","landuse":"industrial","industrial":"","man_made":""},"geometry":{"type":"Point","coordinates":[-0.1288712,50.8382632]}},{"type":"Feature","properties":{"id":"uk-osm-industrial-way-1164235238","name":"521458 : SAINSBURYS UPPER LEWES ROAD","zone_type":"industrial_landuse_center","site_class":"industrial_landuse","coastal_inland_label":"inland","source":"OpenStreetMap landuse=industrial center","source_operator":"UK Power Networks (SPN)","osm_type":"way","osm_id":"1164235238","landuse":"industrial","industrial":"","man_made":""},"geometry":{"type":"Point","coordinates":[-0.1255611,50.8366991]}},{"type":"Feature","properties":{"id":"uk-osm-industrial-way-1057735761","name":"522187 : PRESTON BARRACKS","zone_type":"industrial_landuse_center","site_class":"industrial_landuse","coastal_inland_label":"inland","source":"OpenStreetMap landuse=industrial center","source_operator":"UK Power Networks (SPN)","osm_type":"way","osm_id":"1057735761","landuse":"industrial","industrial":"","man_made":""},"geometry":{"type":"Point","coordinates":[-0.1233404,50.8401868]}},{"type":"Feature","properties":{"id":"uk-osm-industrial-way-1154853024","name":"522872 : WILLINGDON ROAD","zone_type":"industrial_landuse_center","site_class":"industrial_landuse","coastal_inland_label":"inland","source":"OpenStreetMap landuse=industrial center","source_operator":"UK Power Networks (SPN)","osm_type":"way","osm_id":"1154853024","landuse":"industrial","industrial":"","man_made":"street_cabinet"},"geometry":{"type":"Point","coordinates":[-0.1076822,50.8386501]}},{"type":"Feature","properties":{"id":"uk-osm-industrial-way-1429556961","name":"522886 : Brighton Marina","zone_type":"industrial_landuse_center","site_class":"industrial_landuse","coastal_inland_label":"inland","source":"OpenStreetMap landuse=industrial center","source_operator":"UK Power Networks (SPN)","osm_type":"way","osm_id":"1429556961","landuse":"industrial","industrial":"","man_made":""},"geometry":{"type":"Point","coordinates":[-0.0929461,50.8113424]}},{"type":"Feature","properties":{"id":"uk-osm-industrial-way-1410357391","name":"523014 : NEVILL ROAD","zone_type":"industrial_landuse_center","site_class":"industrial_landuse","coastal_inland_label":"inland","source":"OpenStreetMap landuse=industrial center","source_operator":"UK Power Networks","osm_type":"way","osm_id":"1410357391","landuse":"industrial","industrial":"","man_made":""},"geometry":{"type":"Point","coordinates":[-0.0589816,50.8050716]}},{"type":"Feature","properties":{"id":"uk-osm-industrial-way-1376532451","name":"523018 : WARREN FARM","zone_type":"industrial_landuse_center","site_class":"industrial_landuse","coastal_inland_label":"inland","source":"OpenStreetMap landuse=industrial center","source_operator":"UK Power Networks","osm_type":"way","osm_id":"1376532451","landuse":"industrial","industrial":"","man_made":""},"geometry":{"type":"Point","coordinates":[-0.0828421,50.8348213]}},{"type":"Feature","properties":{"id":"uk-osm-industrial-way-1376993692","name":"523027: Coombe Road","zone_type":"industrial_landuse_center","site_class":"industrial_landuse","coastal_inland_label":"inland","source":"OpenStreetMap landuse=industrial center","source_operator":"UK Power Networks (SPN)","osm_type":"way","osm_id":"1376993692","landuse":"industrial","industrial":"","man_made":""},"geometry":{"type":"Point","coordinates":[-0.1212529,50.8402566]}},{"type":"Feature","properties":{"id":"uk-osm-industrial-way-1308383866","name":"523029 : Wiston Road South","zone_type":"industrial_landuse_center","site_class":"industrial_landuse","coastal_inland_label":"inland","source":"OpenStreetMap landuse=industrial center","source_operator":"UK Power Networks (SPN)","osm_type":"way","osm_id":"1308383866","landuse":"industrial","industrial":"","man_made":""},"geometry":{"type":"Point","coordinates":[-0.1032424,50.8274545]}},{"type":"Feature","properties":{"id":"uk-osm-industrial-way-908473094","name":"523040 : Whitehawk Road","zone_type":"industrial_landuse_center","site_class":"industrial_landuse","coastal_inland_label":"inland","source":"OpenStreetMap landuse=industrial center","source_operator":"UK Power Networks (SPN)","osm_type":"way","osm_id":"908473094","landuse":"industrial","industrial":"","man_made":""},"geometry":{"type":"Point","coordinates":[-0.1086753,50.8282951]}},{"type":"Feature","properties":{"id":"uk-osm-industrial-way-1179632595","name":"523054 : Hawkhurst Place","zone_type":"industrial_landuse_center","site_class":"industrial_landuse","coastal_inland_label":"inland","source":"OpenStreetMap landuse=industrial center","source_operator":"UK Power Networks (SPN)","osm_type":"way","osm_id":"1179632595","landuse":"industrial","industrial":"","man_made":""},"geometry":{"type":"Point","coordinates":[-0.1135782,50.8629126]}},{"type":"Feature","properties":{"id":"uk-osm-industrial-way-1429539258","name":"523059 : Manor Way","zone_type":"industrial_landuse_center","site_class":"industrial_landuse","coastal_inland_label":"inland","source":"OpenStreetMap landuse=industrial center","source_operator":"UK Power Networks (SPN)","osm_type":"way","osm_id":"1429539258","landuse":"industrial","industrial":"","man_made":""},"geometry":{"type":"Point","coordinates":[-0.109166,50.8213372]}},{"type":"Feature","properties":{"id":"uk-osm-industrial-way-1154632816","name":"523062 : HILLSIDE","zone_type":"industrial_landuse_center","site_class":"industrial_landuse","coastal_inland_label":"inland","source":"OpenStreetMap landuse=industrial center","source_operator":"UK Power Networks (SPN)","osm_type":"way","osm_id":"1154632816","landuse":"industrial","industrial":"","man_made":""},"geometry":{"type":"Point","coordinates":[-0.1124407,50.8437811]}},{"type":"Feature","properties":{"id":"uk-osm-industrial-way-1342510267","name":"523065 : Whitehawk Road","zone_type":"industrial_landuse_center","site_class":"industrial_landuse","coastal_inland_label":"inland","source":"OpenStreetMap landuse=industrial center","source_operator":"UK Power Networks (SPN)","osm_type":"way","osm_id":"1342510267","landuse":"industrial","industrial":"","man_made":""},"geometry":{"type":"Point","coordinates":[-0.1064696,50.8244078]}},{"type":"Feature","properties":{"id":"uk-osm-industrial-way-1416375681","name":"523069 : Lenham Avenue","zone_type":"industrial_landuse_center","site_class":"industrial_landuse","coastal_inland_label":"inland","source":"OpenStreetMap landuse=industrial center","source_operator":"UK Power Networks","osm_type":"way","osm_id":"1416375681","landuse":"industrial","industrial":"","man_made":""},"geometry":{"type":"Point","coordinates":[-0.0477416,50.8023666]}},{"type":"Feature","properties":{"id":"uk-osm-industrial-way-1408635975","name":"523070 : Moulsecoomb","zone_type":"industrial_landuse_center","site_class":"industrial_landuse","coastal_inland_label":"inland","source":"OpenStreetMap landuse=industrial center","source_operator":"UK Power Networks (SPN)","osm_type":"way","osm_id":"1408635975","landuse":"industrial","industrial":"","man_made":""},"geometry":{"type":"Point","coordinates":[-0.1065135,50.8506539]}},{"type":"Feature","properties":{"id":"uk-osm-industrial-way-1184303107","name":"523072 : BGH","zone_type":"industrial_landuse_center","site_class":"industrial_landuse","coastal_inland_label":"inland","source":"OpenStreetMap landuse=industrial center","source_operator":"UK Power Networks (SPN)","osm_type":"way","osm_id":"1184303107","landuse":"industrial","industrial":"","man_made":""},"geometry":{"type":"Point","coordinates":[-0.1168199,50.8295053]}},{"type":"Feature","properties":{"id":"uk-osm-industrial-way-1391262679","name":"523077 : Court Farm Road","zone_type":"industrial_landuse_center","site_class":"industrial_landuse","coastal_inland_label":"inland","source":"OpenStreetMap landuse=industrial center","source_operator":"UK Power Networks (SPN)","osm_type":"way","osm_id":"1391262679","landuse":"industrial","industrial":"","man_made":""},"geometry":{"type":"Point","coordinates":[-0.0639965,50.8138091]}},{"type":"Feature","properties":{"id":"uk-osm-industrial-way-1429558307","name":"523079 : Roedean Crescent","zone_type":"industrial_landuse_center","site_class":"industrial_landuse","coastal_inland_label":"inland","source":"OpenStreetMap landuse=industrial center","source_operator":"UK Power Networks (SPN)","osm_type":"way","osm_id":"1429558307","landuse":"industrial","industrial":"","man_made":""},"geometry":{"type":"Point","coordinates":[-0.0919656,50.8149719]}},{"type":"Feature","properties":{"id":"uk-osm-industrial-way-1377593099","name":"523081 : APPLEDORE ROAD","zone_type":"industrial_landuse_center","site_class":"industrial_landuse","coastal_inland_label":"inland","source":"OpenStreetMap landuse=industrial center","source_operator":"UK Power Networks (SPN)","osm_type":"way","osm_id":"1377593099","landuse":"industrial","industrial":"","man_made":""},"geometry":{"type":"Point","coordinates":[-0.1029039,50.8544301]}},{"type":"Feature","properties":{"id":"uk-osm-industrial-way-1378071947","name":"523095 : CALEDONIAN ROAD","zone_type":"industrial_landuse_center","site_class":"industrial_landuse","coastal_inland_label":"inland","source":"OpenStreetMap landuse=industrial center","source_operator":"UK Power Networks (SPN)","osm_type":"way","osm_id":"1378071947","landuse":"industrial","industrial":"","man_made":""},"geometry":{"type":"Point","coordinates":[-0.1271757,50.8348709]}},{"type":"Feature","properties":{"id":"uk-osm-industrial-way-1179632632","name":"523114 : COLDEAN LANE","zone_type":"industrial_landuse_center","site_class":"industrial_landuse","coastal_inland_label":"inland","source":"OpenStreetMap landuse=industrial center","source_operator":"UK Power Networks (SPN)","osm_type":"way","osm_id":"1179632632","landuse":"industrial","industrial":"","man_made":""},"geometry":{"type":"Point","coordinates":[-0.1093661,50.8618907]}},{"type":"Feature","properties":{"id":"uk-osm-industrial-way-1293694297","name":"523133 : Coldean","zone_type":"industrial_landuse_center","site_class":"industrial_landuse","coastal_inland_label":"inland","source":"OpenStreetMap landuse=industrial center","source_operator":"UK Power Networks (SPN)","osm_type":"way","osm_id":"1293694297","landuse":"industrial","industrial":"","man_made":""},"geometry":{"type":"Point","coordinates":[-0.1146734,50.8661561]}},{"type":"Feature","properties":{"id":"uk-osm-industrial-way-1429539253","name":"523136 : Bristol Place","zone_type":"industrial_landuse_center","site_class":"industrial_landuse","coastal_inland_label":"inland","source":"OpenStreetMap landuse=industrial center","source_operator":"UK Power Networks (SPN)","osm_type":"way","osm_id":"1429539253","landuse":"industrial","industrial":"","man_made":""},"geometry":{"type":"Point","coordinates":[-0.1090585,50.816886]}},{"type":"Feature","properties":{"id":"uk-osm-industrial-way-1377566983","name":"523139 : DAVEY DRIVE","zone_type":"industrial_landuse_center","site_class":"industrial_landuse","coastal_inland_label":"inland","source":"OpenStreetMap landuse=industrial center","source_operator":"UK Power Networks (SPN)","osm_type":"way","osm_id":"1377566983","landuse":"industrial","industrial":"","man_made":""},"geometry":{"type":"Point","coordinates":[-0.1289045,50.8389525]}},{"type":"Feature","properties":{"id":"uk-osm-industrial-way-1156829535","name":"523143 : BEVENDEAN CRESCENT","zone_type":"industrial_landuse_center","site_class":"industrial_landuse","coastal_inland_label":"inland","source":"OpenStreetMap landuse=industrial center","source_operator":"UK Power Networks (SPN)","osm_type":"way","osm_id":"1156829535","landuse":"industrial","industrial":"","man_made":""},"geometry":{"type":"Point","coordinates":[-0.1084402,50.844906]}},{"type":"Feature","properties":{"id":"uk-osm-industrial-way-1058320622","name":"523144 : MOULSECOOMB SCHOOL","zone_type":"industrial_landuse_center","site_class":"industrial_landuse","coastal_inland_label":"inland","source":"OpenStreetMap landuse=industrial center","source_operator":"UK Power Networks (SPN)","osm_type":"way","osm_id":"1058320622","landuse":"industrial","industrial":"","man_made":""},"geometry":{"type":"Point","coordinates":[-0.1106575,50.8493007]}},{"type":"Feature","properties":{"id":"uk-osm-industrial-way-1160527959","name":"523147 : SELSFIELD DRIVE","zone_type":"industrial_landuse_center","site_class":"industrial_landuse","coastal_inland_label":"inland","source":"OpenStreetMap landuse=industrial center","source_operator":"UK Power Networks (SPN)","osm_type":"way","osm_id":"1160527959","landuse":"industrial","industrial":"","man_made":""},"geometry":{"type":"Point","coordinates":[-0.1153073,50.8470604]}},{"type":"Feature","properties":{"id":"uk-osm-industrial-way-707125550","name":"523157 : UPPER BEVENDEAN AVENUE","zone_type":"industrial_landuse_center","site_class":"industrial_landuse","coastal_inland_label":"inland","source":"OpenStreetMap landuse=industrial center","source_operator":"UK Power Networks (SPN)","osm_type":"way","osm_id":"707125550","landuse":"industrial","industrial":"","man_made":""},"geometry":{"type":"Point","coordinates":[-0.1055393,50.8429661]}},{"type":"Feature","properties":{"id":"uk-osm-industrial-way-1341948084","name":"523158 : Ticehurst Road","zone_type":"industrial_landuse_center","site_class":"industrial_landuse","coastal_inland_label":"inland","source":"OpenStreetMap landuse=industrial center","source_operator":"UK Power Networks (SPN)","osm_type":"way","osm_id":"1341948084","landuse":"industrial","industrial":"","man_made":""},"geometry":{"type":"Point","coordinates":[-0.1023739,50.822205]}},{"type":"Feature","properties":{"id":"uk-osm-industrial-way-1376788481","name":"523159 : Haybourne Road","zone_type":"industrial_landuse_center","site_class":"industrial_landuse","coastal_inland_label":"inland","source":"OpenStreetMap landuse=industrial center","source_operator":"UK Power Networks (SPN)","osm_type":"way","osm_id":"1376788481","landuse":"industrial","industrial":"","man_made":""},"geometry":{"type":"Point","coordinates":[-0.1062987,50.8319483]}},{"type":"Feature","properties":{"id":"uk-osm-industrial-way-1144869837","name":"523171 : CROWHURST ROAD EAST","zone_type":"industrial_landuse_center","site_class":"industrial_landuse","coastal_inland_label":"inland","source":"OpenStreetMap landuse=industrial center","source_operator":"UK Power Networks (SPN)","osm_type":"way","osm_id":"1144869837","landuse":"industrial","industrial":"","man_made":""},"geometry":{"type":"Point","coordinates":[-0.1249908,50.8669883]}},{"type":"Feature","properties":{"id":"uk-osm-industrial-way-1377580418","name":"523175 : AUCKLAND DRIVE","zone_type":"industrial_landuse_center","site_class":"industrial_landuse","coastal_inland_label":"inland","source":"OpenStreetMap landuse=industrial center","source_operator":"UK Power Networks (SPN)","osm_type":"way","osm_id":"1377580418","landuse":"industrial","industrial":"","man_made":""},"geometry":{"type":"Point","coordinates":[-0.1015088,50.8412437]}},{"type":"Feature","properties":{"id":"uk-osm-industrial-way-707123138","name":"523176 : NORWICH DRIVE","zone_type":"industrial_landuse_center","site_class":"industrial_landuse","coastal_inland_label":"inland","source":"OpenStreetMap landuse=industrial center","source_operator":"UK Power Networks (SPN)","osm_type":"way","osm_id":"707123138","landuse":"industrial","industrial":"","man_made":""},"geometry":{"type":"Point","coordinates":[-0.0957493,50.8439203]}},{"type":"Feature","properties":{"id":"uk-osm-industrial-way-1154620108","name":"523177: LUDLOW RISE","zone_type":"industrial_landuse_center","site_class":"industrial_landuse","coastal_inland_label":"inland","source":"OpenStreetMap landuse=industrial center","source_operator":"UK Power Networks (SPN)","osm_type":"way","osm_id":"1154620108","landuse":"industrial","industrial":"","man_made":""},"geometry":{"type":"Point","coordinates":[-0.0964427,50.8411546]}},{"type":"Feature","properties":{"id":"uk-osm-industrial-way-707123804","name":"523178 : HEATH HILL AVENUE","zone_type":"industrial_landuse_center","site_class":"industrial_landuse","coastal_inland_label":"inland","source":"OpenStreetMap landuse=industrial center","source_operator":"UK Power Networks (SPN)","osm_type":"way","osm_id":"707123804","landuse":"industrial","industrial":"","man_made":""},"geometry":{"type":"Point","coordinates":[-0.0917739,50.8411802]}},{"type":"Feature","properties":{"id":"uk-osm-industrial-way-1150008339","name":"523189 : BEVENDEAN ROAD","zone_type":"industrial_landuse_center","site_class":"industrial_landuse","coastal_inland_label":"inland","source":"OpenStreetMap landuse=industrial center","source_operator":"UK Power Networks (SPN)","osm_type":"way","osm_id":"1150008339","landuse":"industrial","industrial":"","man_made":""},"geometry":{"type":"Point","coordinates":[-0.1141831,50.8373102]}},{"type":"Feature","properties":{"id":"uk-osm-industrial-way-1153099347","name":"523191 : Pankhurst Avenue ?","zone_type":"industrial_landuse_center","site_class":"industrial_landuse","coastal_inland_label":"inland","source":"OpenStreetMap landuse=industrial center","source_operator":"UK Power Networks (SPN)","osm_type":"way","osm_id":"1153099347","landuse":"industrial","industrial":"","man_made":""},"geometry":{"type":"Point","coordinates":[-0.1220835,50.8290543]}},{"type":"Feature","properties":{"id":"uk-osm-industrial-way-1391195824","name":"523240 : Rowan Way","zone_type":"industrial_landuse_center","site_class":"industrial_landuse","coastal_inland_label":"inland","source":"OpenStreetMap landuse=industrial center","source_operator":"UK Power Networks","osm_type":"way","osm_id":"1391195824","landuse":"industrial","industrial":"","man_made":""},"geometry":{"type":"Point","coordinates":[-0.0659601,50.817206]}},{"type":"Feature","properties":{"id":"uk-osm-industrial-way-1370365806","name":"523266 : BRIGHTON WORKS","zone_type":"industrial_landuse_center","site_class":"industrial_landuse","coastal_inland_label":"inland","source":"OpenStreetMap landuse=industrial center","source_operator":"UK Power Networks","osm_type":"way","osm_id":"1370365806","landuse":"industrial","industrial":"","man_made":""},"geometry":{"type":"Point","coordinates":[-0.0995332,50.8381215]}},{"type":"Feature","properties":{"id":"uk-osm-industrial-way-1379218492","name":"523268 : THE HYDE WEST","zone_type":"industrial_landuse_center","site_class":"industrial_landuse","coastal_inland_label":"inland","source":"OpenStreetMap landuse=industrial center","source_operator":"UK Power Networks (SPN)","osm_type":"way","osm_id":"1379218492","landuse":"industrial","industrial":"","man_made":""},"geometry":{"type":"Point","coordinates":[-0.1001237,50.8385409]}},{"type":"Feature","properties":{"id":"uk-osm-industrial-way-1429539257","name":"523269 : Prince Regent's Close","zone_type":"industrial_landuse_center","site_class":"industrial_landuse","coastal_inland_label":"inland","source":"OpenStreetMap landuse=industrial center","source_operator":"UK Power Networks (SPN)","osm_type":"way","osm_id":"1429539257","landuse":"industrial","industrial":"","man_made":""},"geometry":{"type":"Point","coordinates":[-0.1081708,50.8196535]}},{"type":"Feature","properties":{"id":"uk-osm-industrial-way-1194827622","name":"523290 : FRANKLIN ROAD","zone_type":"industrial_landuse_center","site_class":"industrial_landuse","coastal_inland_label":"inland","source":"OpenStreetMap landuse=industrial center","source_operator":"UK Power Networks (SPN)","osm_type":"way","osm_id":"1194827622","landuse":"industrial","industrial":"","man_made":""},"geometry":{"type":"Point","coordinates":[-0.1257447,50.8338258]}},{"type":"Feature","properties":{"id":"uk-osm-industrial-way-1376970980","name":"523291 : CARLYLE AVENUE","zone_type":"industrial_landuse_center","site_class":"industrial_landuse","coastal_inland_label":"inland","source":"OpenStreetMap landuse=industrial center","source_operator":"UK Power Networks (SPN)","osm_type":"way","osm_id":"1376970980","landuse":"industrial","industrial":"","man_made":""},"geometry":{"type":"Point","coordinates":[-0.116696,50.8401295]}},{"type":"Feature","properties":{"id":"uk-osm-industrial-way-1378063371","name":"523292 : BRIGHTON CEMETERY","zone_type":"industrial_landuse_center","site_class":"industrial_landuse","coastal_inland_label":"inland","source":"OpenStreetMap landuse=industrial center","source_operator":"UK Power Networks (SPN)","osm_type":"way","osm_id":"1378063371","landuse":"industrial","industrial":"","man_made":""},"geometry":{"type":"Point","coordinates":[-0.1246358,50.8366308]}},{"type":"Feature","properties":{"id":"uk-osm-industrial-way-1183969799","name":"523293 : Hartington Road","zone_type":"industrial_landuse_center","site_class":"industrial_landuse","coastal_inland_label":"inland","source":"OpenStreetMap landuse=industrial center","source_operator":"UK Power Networks (SPN)","osm_type":"way","osm_id":"1183969799","landuse":"industrial","industrial":"","man_made":""},"geometry":{"type":"Point","coordinates":[-0.1203736,50.834205]}},{"type":"Feature","properties":{"id":"uk-osm-industrial-way-1185276849","name":"523295 : SAINT MARTINS PLACE","zone_type":"industrial_landuse_center","site_class":"industrial_landuse","coastal_inland_label":"inland","source":"OpenStreetMap landuse=industrial center","source_operator":"UK Power Networks (SPN)","osm_type":"way","osm_id":"1185276849","landuse":"industrial","industrial":"","man_made":""},"geometry":{"type":"Point","coordinates":[-0.1273125,50.8334236]}},{"type":"Feature","properties":{"id":"uk-osm-industrial-way-913786548","name":"523313 : Eastern Street","zone_type":"industrial_landuse_center","site_class":"industrial_landuse","coastal_inland_label":"inland","source":"OpenStreetMap landuse=industrial center","source_operator":"UK Power Networks (SPN)","osm_type":"way","osm_id":"913786548","landuse":"industrial","industrial":"","man_made":""},"geometry":{"type":"Point","coordinates":[-0.1179306,50.8172878]}},{"type":"Feature","properties":{"id":"uk-osm-industrial-way-1430019630","name":"523356 : Chailey Avenue","zone_type":"industrial_landuse_center","site_class":"industrial_landuse","coastal_inland_label":"inland","source":"OpenStreetMap landuse=industrial center","source_operator":"","osm_type":"way","osm_id":"1430019630","landuse":"industrial","industrial":"","man_made":""},"geometry":{"type":"Point","coordinates":[-0.0528644,50.8050772]}},{"type":"Feature","properties":{"id":"uk-osm-industrial-way-1409865769","name":"523366 : Falmer Road","zone_type":"industrial_landuse_center","site_class":"industrial_landuse","coastal_inland_label":"inland","source":"OpenStreetMap landuse=industrial center","source_operator":"UK Power Networks","osm_type":"way","osm_id":"1409865769","landuse":"industrial","industrial":"","man_made":""},"geometry":{"type":"Point","coordinates":[-0.0595983,50.8091439]}},{"type":"Feature","properties":{"id":"uk-osm-industrial-way-1389413847","name":"523367 : Greenways","zone_type":"industrial_landuse_center","site_class":"industrial_landuse","coastal_inland_label":"inland","source":"OpenStreetMap landuse=industrial center","source_operator":"UK Power Networks","osm_type":"way","osm_id":"1389413847","landuse":"industrial","industrial":"","man_made":""},"geometry":{"type":"Point","coordinates":[-0.0744281,50.81496]}},{"type":"Feature","properties":{"id":"uk-osm-industrial-way-1054520547","name":"523379 : JEVINGTON DRIVE","zone_type":"industrial_landuse_center","site_class":"industrial_landuse","coastal_inland_label":"inland","source":"OpenStreetMap landuse=industrial center","source_operator":"UK Power Networks (SPN)","osm_type":"way","osm_id":"1054520547","landuse":"industrial","industrial":"","man_made":""},"geometry":{"type":"Point","coordinates":[-0.1112734,50.8402117]}},{"type":"Feature","properties":{"id":"uk-osm-industrial-way-1429539254","name":"523431 : Bristol Gardens","zone_type":"industrial_landuse_center","site_class":"industrial_landuse","coastal_inland_label":"inland","source":"OpenStreetMap landuse=industrial center","source_operator":"UK Power Networks (SPN)","osm_type":"way","osm_id":"1429539254","landuse":"industrial","industrial":"","man_made":""},"geometry":{"type":"Point","coordinates":[-0.1079862,50.8173632]}},{"type":"Feature","properties":{"id":"uk-osm-industrial-way-1376760640","name":"523436 : WARREN ROAD","zone_type":"industrial_landuse_center","site_class":"industrial_landuse","coastal_inland_label":"inland","source":"OpenStreetMap landuse=industrial center","source_operator":"UK Power Networks (SPN)","osm_type":"way","osm_id":"1376760640","landuse":"industrial","industrial":"","man_made":""},"geometry":{"type":"Point","coordinates":[-0.0787414,50.8355117]}},{"type":"Feature","properties":{"id":"uk-osm-industrial-way-1425375186","name":"523466 : St Mary's Square","zone_type":"industrial_landuse_center","site_class":"industrial_landuse","coastal_inland_label":"inland","source":"OpenStreetMap landuse=industrial center","source_operator":"UK Power Networks (SPN)","osm_type":"way","osm_id":"1425375186","landuse":"industrial","industrial":"","man_made":""},"geometry":{"type":"Point","coordinates":[-0.1137217,50.8172627]}},{"type":"Feature","properties":{"id":"uk-osm-industrial-way-1389422450","name":"523500 : Longhill Road","zone_type":"industrial_landuse_center","site_class":"industrial_landuse","coastal_inland_label":"inland","source":"OpenStreetMap landuse=industrial center","source_operator":"UK Power Networks","osm_type":"way","osm_id":"1389422450","landuse":"industrial","industrial":"","man_made":""},"geometry":{"type":"Point","coordinates":[-0.0745319,50.8188712]}},{"type":"Feature","properties":{"id":"uk-osm-industrial-way-1388744703","name":"523503 : Moulscecoomb Industrial Estate W.","zone_type":"industrial_landuse_center","site_class":"industrial_landuse","coastal_inland_label":"inland","source":"OpenStreetMap landuse=industrial center","source_operator":"UK Power Networks (SPN)","osm_type":"way","osm_id":"1388744703","landuse":"industrial","industrial":"","man_made":""},"geometry":{"type":"Point","coordinates":[-0.1079713,50.8522384]}},{"type":"Feature","properties":{"id":"uk-osm-industrial-way-1430019627","name":"523527 : Chichester Drive West","zone_type":"industrial_landuse_center","site_class":"industrial_landuse","coastal_inland_label":"inland","source":"OpenStreetMap landuse=industrial center","source_operator":"","osm_type":"way","osm_id":"1430019627","landuse":"industrial","industrial":"","man_made":""},"geometry":{"type":"Point","coordinates":[-0.043418,50.8040319]}},{"type":"Feature","properties":{"id":"uk-osm-industrial-way-1430019628","name":"523579 : Cranleigh Avenue","zone_type":"industrial_landuse_center","site_class":"industrial_landuse","coastal_inland_label":"inland","source":"OpenStreetMap landuse=industrial center","source_operator":"","osm_type":"way","osm_id":"1430019628","landuse":"industrial","industrial":"","man_made":""},"geometry":{"type":"Point","coordinates":[-0.0490171,50.8052846]}},{"type":"Feature","properties":{"id":"uk-osm-industrial-way-1377575619","name":"523581 : Ladysmith Road","zone_type":"industrial_landuse_center","site_class":"industrial_landuse","coastal_inland_label":"inland","source":"OpenStreetMap landuse=industrial center","source_operator":"UK Power Networks (SPN)","osm_type":"way","osm_id":"1377575619","landuse":"industrial","industrial":"","man_made":""},"geometry":{"type":"Point","coordinates":[-0.1189575,50.8377037]}},{"type":"Feature","properties":{"id":"uk-osm-industrial-way-1429564726","name":"523594 : Arundel Terrace","zone_type":"industrial_landuse_center","site_class":"industrial_landuse","coastal_inland_label":"inland","source":"OpenStreetMap landuse=industrial center","source_operator":"UK Power Networks (SPN)","osm_type":"way","osm_id":"1429564726","landuse":"industrial","industrial":"","man_made":""},"geometry":{"type":"Point","coordinates":[-0.1083074,50.8147112]}},{"type":"Feature","properties":{"id":"uk-osm-industrial-way-1429350455","name":"523612 : Brighton Racecourse","zone_type":"industrial_landuse_center","site_class":"industrial_landuse","coastal_inland_label":"inland","source":"OpenStreetMap landuse=industrial center","source_operator":"UK Power Networks (SPN)","osm_type":"way","osm_id":"1429350455","landuse":"industrial","industrial":"","man_made":""},"geometry":{"type":"Point","coordinates":[-0.1126296,50.829991]}},{"type":"Feature","properties":{"id":"uk-osm-industrial-way-1430019631","name":"523617 : Marine Cliffs Car Park","zone_type":"industrial_landuse_center","site_class":"industrial_landuse","coastal_inland_label":"inland","source":"OpenStreetMap landuse=industrial center","source_operator":"","osm_type":"way","osm_id":"1430019631","landuse":"industrial","industrial":"","man_made":""},"geometry":{"type":"Point","coordinates":[-0.0555331,50.8027177]}},{"type":"Feature","properties":{"id":"uk-osm-industrial-way-1377590696","name":"523627 : Coldean","zone_type":"industrial_landuse_center","site_class":"industrial_landuse","coastal_inland_label":"inland","source":"OpenStreetMap landuse=industrial center","source_operator":"UK Power Networks (SPN)","osm_type":"way","osm_id":"1377590696","landuse":"industrial","industrial":"","man_made":""},"geometry":{"type":"Point","coordinates":[-0.1063035,50.8601396]}},{"type":"Feature","properties":{"id":"uk-osm-industrial-way-1429564723","name":"523628 : Chesham Street","zone_type":"industrial_landuse_center","site_class":"industrial_landuse","coastal_inland_label":"inland","source":"OpenStreetMap landuse=industrial center","source_operator":"UK Power Networks (SPN)","osm_type":"way","osm_id":"1429564723","landuse":"industrial","industrial":"","man_made":""},"geometry":{"type":"Point","coordinates":[-0.1157574,50.8177029]}},{"type":"Feature","properties":{"id":"uk-osm-industrial-way-1183747692","name":"523655 : Enterprise Point","zone_type":"industrial_landuse_center","site_class":"industrial_landuse","coastal_inland_label":"inland","source":"OpenStreetMap landuse=industrial center","source_operator":"UK Power Networks (SPN)","osm_type":"way","osm_id":"1183747692","landuse":"industrial","industrial":"","man_made":""},"geometry":{"type":"Point","coordinates":[-0.1240237,50.8359649]}},{"type":"Feature","properties":{"id":"uk-osm-industrial-way-1429539260","name":"523660 : Kingfisher Court","zone_type":"industrial_landuse_center","site_class":"industrial_landuse","coastal_inland_label":"inland","source":"OpenStreetMap landuse=industrial center","source_operator":"UK Power Networks","osm_type":"way","osm_id":"1429539260","landuse":"industrial","industrial":"","man_made":""},"geometry":{"type":"Point","coordinates":[-0.1057049,50.8329064]}},{"type":"Feature","properties":{"id":"uk-osm-industrial-way-1423901534","name":"523674 : Coldean","zone_type":"industrial_landuse_center","site_class":"industrial_landuse","coastal_inland_label":"inland","source":"OpenStreetMap landuse=industrial center","source_operator":"UK Power Networks (SPN)","osm_type":"way","osm_id":"1423901534","landuse":"industrial","industrial":"","man_made":""},"geometry":{"type":"Point","coordinates":[-0.1122751,50.8588805]}},{"type":"Feature","properties":{"id":"uk-osm-industrial-way-1389422448","name":"523729 : Wanderdown Road","zone_type":"industrial_landuse_center","site_class":"industrial_landuse","coastal_inland_label":"inland","source":"OpenStreetMap landuse=industrial center","source_operator":"UK Power Networks","osm_type":"way","osm_id":"1389422448","landuse":"industrial","industrial":"","man_made":""},"geometry":{"type":"Point","coordinates":[-0.0706312,50.8166509]}},{"type":"Feature","properties":{"id":"uk-osm-industrial-way-1054931701","name":"523738 - FITCH DRIVE","zone_type":"industrial_landuse_center","site_class":"industrial_landuse","coastal_inland_label":"inland","source":"OpenStreetMap landuse=industrial center","source_operator":"UK Power Networks (SPN)","osm_type":"way","osm_id":"1054931701","landuse":"industrial","industrial":"","man_made":""},"geometry":{"type":"Point","coordinates":[-0.1035455,50.8408704]}},{"type":"Feature","properties":{"id":"uk-osm-industrial-way-1303791900","name":"523??? : Moulsecoomb","zone_type":"industrial_landuse_center","site_class":"industrial_landuse","coastal_inland_label":"inland","source":"OpenStreetMap landuse=industrial center","source_operator":"UK Power Networks (SPN)","osm_type":"way","osm_id":"1303791900","landuse":"industrial","industrial":"","man_made":""},"geometry":{"type":"Point","coordinates":[-0.1048454,50.8530071]}},{"type":"Feature","properties":{"id":"uk-osm-industrial-way-1429539256","name":"524067 : Roedean Road","zone_type":"industrial_landuse_center","site_class":"industrial_landuse","coastal_inland_label":"inland","source":"OpenStreetMap landuse=industrial center","source_operator":"UK Power Networks (SPN)","osm_type":"way","osm_id":"1429539256","landuse":"industrial","industrial":"","man_made":""},"geometry":{"type":"Point","coordinates":[-0.1050466,50.817009]}},{"type":"Feature","properties":{"id":"uk-osm-industrial-way-1376970981","name":"524094 : Wilson Avenue","zone_type":"industrial_landuse_center","site_class":"industrial_landuse","coastal_inland_label":"inland","source":"OpenStreetMap landuse=industrial center","source_operator":"UK Power Networks (SPN)","osm_type":"way","osm_id":"1376970981","landuse":"industrial","industrial":"","man_made":""},"geometry":{"type":"Point","coordinates":[-0.1006873,50.8238767]}},{"type":"Feature","properties":{"id":"uk-osm-industrial-way-1144869828","name":"524250 : BUILDERS YARD","zone_type":"industrial_landuse_center","site_class":"industrial_landuse","coastal_inland_label":"inland","source":"OpenStreetMap landuse=industrial center","source_operator":"UK Power Networks (SPN)","osm_type":"way","osm_id":"1144869828","landuse":"industrial","industrial":"","man_made":""},"geometry":{"type":"Point","coordinates":[-0.1267899,50.8663708]}},{"type":"Feature","properties":{"id":"uk-osm-industrial-way-1144869829","name":"524251 : JLR","zone_type":"industrial_landuse_center","site_class":"industrial_landuse","coastal_inland_label":"inland","source":"OpenStreetMap landuse=industrial center","source_operator":"UK Power Networks (SPN)","osm_type":"way","osm_id":"1144869829","landuse":"industrial","industrial":"","man_made":""},"geometry":{"type":"Point","coordinates":[-0.1268443,50.8663648]}},{"type":"Feature","properties":{"id":"uk-osm-industrial-way-1378065123","name":"524256 : MITHRAS HOUSE IDNO","zone_type":"industrial_landuse_center","site_class":"industrial_landuse","coastal_inland_label":"inland","source":"OpenStreetMap landuse=industrial center","source_operator":"ENERGY ASSETS NETWORKS","osm_type":"way","osm_id":"1378065123","landuse":"industrial","industrial":"","man_made":""},"geometry":{"type":"Point","coordinates":[-0.119659,50.8429481]}},{"type":"Feature","properties":{"id":"uk-osm-industrial-way-1429539259","name":"524992 : Whitehawk Crescent","zone_type":"industrial_landuse_center","site_class":"industrial_landuse","coastal_inland_label":"inland","source":"OpenStreetMap landuse=industrial center","source_operator":"UK Power Networks","osm_type":"way","osm_id":"1429539259","landuse":"industrial","industrial":"","man_made":""},"geometry":{"type":"Point","coordinates":[-0.105098,50.8220284]}},{"type":"Feature","properties":{"id":"uk-osm-industrial-way-115651186","name":"600UK","zone_type":"industrial_landuse_center","site_class":"industrial_landuse","coastal_inland_label":"inland","source":"OpenStreetMap landuse=industrial center","source_operator":"","osm_type":"way","osm_id":"115651186","landuse":"industrial","industrial":"","man_made":""},"geometry":{"type":"Point","coordinates":[-1.6793656,53.7059067]}},{"type":"Feature","properties":{"id":"uk-osm-industrial-way-34656354","name":"62 Leeds","zone_type":"industrial_landuse_center","site_class":"industrial_landuse","coastal_inland_label":"inland","source":"OpenStreetMap landuse=industrial center","source_operator":"","osm_type":"way","osm_id":"34656354","landuse":"industrial","industrial":"","man_made":""},"geometry":{"type":"Point","coordinates":[-1.6215715,53.7545609]}},{"type":"Feature","properties":{"id":"uk-osm-industrial-way-1270841251","name":"8A Telford Way","zone_type":"industrial_landuse_center","site_class":"industrial_landuse","coastal_inland_label":"inland","source":"OpenStreetMap landuse=industrial center","source_operator":"","osm_type":"way","osm_id":"1270841251","landuse":"industrial","industrial":"","man_made":""},"geometry":{"type":"Point","coordinates":[-1.3802598,53.3837357]}},{"type":"Feature","properties":{"id":"uk-osm-industrial-way-1270841252","name":"8B Telford Way","zone_type":"industrial_landuse_center","site_class":"industrial_landuse","coastal_inland_label":"inland","source":"OpenStreetMap landuse=industrial center","source_operator":"","osm_type":"way","osm_id":"1270841252","landuse":"industrial","industrial":"","man_made":""},"geometry":{"type":"Point","coordinates":[-1.3799697,53.383647]}},{"type":"Feature","properties":{"id":"uk-osm-industrial-way-1373607458","name":"9010","zone_type":"industrial_landuse_center","site_class":"industrial_landuse","coastal_inland_label":"inland","source":"OpenStreetMap landuse=industrial center","source_operator":"","osm_type":"way","osm_id":"1373607458","landuse":"industrial","industrial":"","man_made":""},"geometry":{"type":"Point","coordinates":[-0.9727143,51.8439307]}},{"type":"Feature","properties":{"id":"uk-osm-industrial-way-914166825","name":"???","zone_type":"industrial_landuse_center","site_class":"industrial_landuse","coastal_inland_label":"inland","source":"OpenStreetMap landuse=industrial center","source_operator":"","osm_type":"way","osm_id":"914166825","landuse":"industrial","industrial":"","man_made":""},"geometry":{"type":"Point","coordinates":[-0.4885745,52.0603683]}},{"type":"Feature","properties":{"id":"uk-osm-industrial-way-209242171","name":"?Brocklesbury?","zone_type":"gas","site_class":"industrial_landuse","coastal_inland_label":"inland","source":"OpenStreetMap landuse=industrial center","source_operator":"","osm_type":"way","osm_id":"209242171","landuse":"industrial","industrial":"gas","man_made":""},"geometry":{"type":"Point","coordinates":[-0.2810154,53.6066131]}},{"type":"Feature","properties":{"id":"uk-osm-industrial-way-1050764851","name":"?Castle Acre?","zone_type":"gas","site_class":"industrial_landuse","coastal_inland_label":"inland","source":"OpenStreetMap landuse=industrial center","source_operator":"","osm_type":"way","osm_id":"1050764851","landuse":"industrial","industrial":"gas","man_made":""},"geometry":{"type":"Point","coordinates":[0.6714803,52.7301058]}},{"type":"Feature","properties":{"id":"uk-osm-industrial-way-762562962","name":"?Eye?","zone_type":"gas","site_class":"industrial_landuse","coastal_inland_label":"inland","source":"OpenStreetMap landuse=industrial center","source_operator":"","osm_type":"way","osm_id":"762562962","landuse":"industrial","industrial":"gas","man_made":""},"geometry":{"type":"Point","coordinates":[-0.1672142,52.6339808]}},{"type":"Feature","properties":{"id":"uk-osm-industrial-way-762927937","name":"?Eye?","zone_type":"gas","site_class":"industrial_landuse","coastal_inland_label":"inland","source":"OpenStreetMap landuse=industrial center","source_operator":"","osm_type":"way","osm_id":"762927937","landuse":"industrial","industrial":"gas","man_made":""},"geometry":{"type":"Point","coordinates":[-0.1675123,52.6160182]}},{"type":"Feature","properties":{"id":"uk-osm-industrial-way-174740446","name":"?Goxhill? AGI","zone_type":"gas","site_class":"industrial_landuse","coastal_inland_label":"inland","source":"OpenStreetMap landuse=industrial center","source_operator":"National Grid","osm_type":"way","osm_id":"174740446","landuse":"industrial","industrial":"gas","man_made":""},"geometry":{"type":"Point","coordinates":[-0.269754,53.6935857]}},{"type":"Feature","properties":{"id":"uk-osm-industrial-way-1050769717","name":"?Kings Lynn T?","zone_type":"gas","site_class":"industrial_landuse","coastal_inland_label":"inland","source":"OpenStreetMap landuse=industrial center","source_operator":"","osm_type":"way","osm_id":"1050769717","landuse":"industrial","industrial":"gas","man_made":""},"geometry":{"type":"Point","coordinates":[0.5450805,52.7131855]}},{"type":"Feature","properties":{"id":"uk-osm-industrial-way-1060123368","name":"?Slapton?","zone_type":"gas","site_class":"industrial_landuse","coastal_inland_label":"inland","source":"OpenStreetMap landuse=industrial center","source_operator":"","osm_type":"way","osm_id":"1060123368","landuse":"industrial","industrial":"gas","man_made":""},"geometry":{"type":"Point","coordinates":[-0.6226626,51.8907585]}},{"type":"Feature","properties":{"id":"uk-osm-industrial-way-1064817401","name":"?X??X?? HECKINGTON ?X?XX??X STATION","zone_type":"gas","site_class":"industrial_landuse","coastal_inland_label":"inland","source":"OpenStreetMap landuse=industrial center","source_operator":"","osm_type":"way","osm_id":"1064817401","landuse":"industrial","industrial":"gas","man_made":""},"geometry":{"type":"Point","coordinates":[-0.216817,52.9993253]}},{"type":"Feature","properties":{"id":"uk-osm-industrial-way-124764221","name":"A & A Auto Dismantler","zone_type":"industrial_landuse_center","site_class":"industrial_landuse","coastal_inland_label":"inland","source":"OpenStreetMap landuse=industrial center","source_operator":"","osm_type":"way","osm_id":"124764221","landuse":"industrial","industrial":"","man_made":""},"geometry":{"type":"Point","coordinates":[-1.9447423,52.4945564]}},{"type":"Feature","properties":{"id":"uk-osm-industrial-way-169434919","name":"A & P Fencing","zone_type":"industrial_landuse_center","site_class":"industrial_landuse","coastal_inland_label":"inland","source":"OpenStreetMap landuse=industrial center","source_operator":"","osm_type":"way","osm_id":"169434919","landuse":"industrial","industrial":"","man_made":""},"geometry":{"type":"Point","coordinates":[-1.8070852,52.5945282]}},{"type":"Feature","properties":{"id":"uk-osm-industrial-way-1342665205","name":"A A Autowreck","zone_type":"scrap_yard","site_class":"industrial_landuse","coastal_inland_label":"inland","source":"OpenStreetMap landuse=industrial center","source_operator":"","osm_type":"way","osm_id":"1342665205","landuse":"industrial","industrial":"scrap_yard","man_made":""},"geometry":{"type":"Point","coordinates":[-2.0239992,52.5211996]}},{"type":"Feature","properties":{"id":"uk-osm-industrial-way-295244735","name":"A Cherry Coal & Coke Merchants","zone_type":"industrial_landuse_center","site_class":"industrial_landuse","coastal_inland_label":"inland","source":"OpenStreetMap landuse=industrial center","source_operator":"","osm_type":"way","osm_id":"295244735","landuse":"industrial","industrial":"","man_made":""},"geometry":{"type":"Point","coordinates":[-1.4323112,53.561775]}},{"type":"Feature","properties":{"id":"uk-osm-industrial-way-535366627","name":"A E Burgess & Sons Ltd Storage Land","zone_type":"industrial_landuse_center","site_class":"industrial_landuse","coastal_inland_label":"inland","source":"OpenStreetMap landuse=industrial center","source_operator":"","osm_type":"way","osm_id":"535366627","landuse":"industrial","industrial":"","man_made":""},"geometry":{"type":"Point","coordinates":[-1.1118343,52.6442916]}},{"type":"Feature","properties":{"id":"uk-osm-industrial-way-1331708134","name":"A E Harris & Co (Birmingham) Ltd","zone_type":"industrial_landuse_center","site_class":"industrial_landuse","coastal_inland_label":"inland","source":"OpenStreetMap landuse=industrial center","source_operator":"","osm_type":"way","osm_id":"1331708134","landuse":"industrial","industrial":"","man_made":"works"},"geometry":{"type":"Point","coordinates":[-1.9930159,52.514078]}},{"type":"Feature","properties":{"id":"uk-osm-industrial-way-1459777508","name":"A Jetty","zone_type":"port","site_class":"industrial_landuse","coastal_inland_label":"inland","source":"OpenStreetMap landuse=industrial center","source_operator":"","osm_type":"way","osm_id":"1459777508","landuse":"industrial","industrial":"port","man_made":""},"geometry":{"type":"Point","coordinates":[-0.2954713,53.743955]}},{"type":"Feature","properties":{"id":"uk-osm-industrial-way-1341615058","name":"A K Salvage & Spares","zone_type":"scrap_yard","site_class":"industrial_landuse","coastal_inland_label":"inland","source":"OpenStreetMap landuse=industrial center","source_operator":"","osm_type":"way","osm_id":"1341615058","landuse":"industrial","industrial":"scrap_yard","man_made":""},"geometry":{"type":"Point","coordinates":[-2.0219035,52.5216181]}},{"type":"Feature","properties":{"id":"uk-osm-industrial-way-1274280862","name":"A L Engineering and Sons","zone_type":"industrial_landuse_center","site_class":"industrial_landuse","coastal_inland_label":"inland","source":"OpenStreetMap landuse=industrial center","source_operator":"","osm_type":"way","osm_id":"1274280862","landuse":"industrial","industrial":"","man_made":""},"geometry":{"type":"Point","coordinates":[1.1109841,52.318531]}},{"type":"Feature","properties":{"id":"uk-osm-industrial-way-1198801583","name":"A McKinty","zone_type":"auto_wrecker","site_class":"industrial_landuse","coastal_inland_label":"inland","source":"OpenStreetMap landuse=industrial center","source_operator":"","osm_type":"way","osm_id":"1198801583","landuse":"industrial","industrial":"auto_wrecker","man_made":""},"geometry":{"type":"Point","coordinates":[-5.8008882,54.7810241]}},{"type":"Feature","properties":{"id":"uk-osm-industrial-way-1168599232","name":"A R Richards Ltd Materials Recycling Facility","zone_type":"industrial_landuse_center","site_class":"industrial_landuse","coastal_inland_label":"inland","source":"OpenStreetMap landuse=industrial center","source_operator":"","osm_type":"way","osm_id":"1168599232","landuse":"industrial","industrial":"","man_made":""},"geometry":{"type":"Point","coordinates":[-2.5310805,52.8659974]}},{"type":"Feature","properties":{"id":"uk-osm-industrial-way-71713963","name":"A Skip Hire","zone_type":"industrial_landuse_center","site_class":"industrial_landuse","coastal_inland_label":"inland","source":"OpenStreetMap landuse=industrial center","source_operator":"","osm_type":"way","osm_id":"71713963","landuse":"industrial","industrial":"","man_made":""},"geometry":{"type":"Point","coordinates":[-2.1071715,52.4612162]}},{"type":"Feature","properties":{"id":"uk-osm-industrial-way-1000354854","name":"A T Osborne Ltd","zone_type":"industrial_landuse_center","site_class":"industrial_landuse","coastal_inland_label":"inland","source":"OpenStreetMap landuse=industrial center","source_operator":"","osm_type":"way","osm_id":"1000354854","landuse":"industrial","industrial":"","man_made":""},"geometry":{"type":"Point","coordinates":[-1.5482545,50.9666588]}},{"type":"Feature","properties":{"id":"uk-osm-industrial-way-156593918","name":"A W Jenkinson Forest Products","zone_type":"industrial_landuse_center","site_class":"industrial_landuse","coastal_inland_label":"inland","source":"OpenStreetMap landuse=industrial center","source_operator":"","osm_type":"way","osm_id":"156593918","landuse":"industrial","industrial":"","man_made":""},"geometry":{"type":"Point","coordinates":[-2.7140224,54.6184349]}},{"type":"Feature","properties":{"id":"uk-osm-industrial-way-508033258","name":"A&A Scaffolding","zone_type":"industrial_landuse_center","site_class":"industrial_landuse","coastal_inland_label":"inland","source":"OpenStreetMap landuse=industrial center","source_operator":"","osm_type":"way","osm_id":"508033258","landuse":"industrial","industrial":"","man_made":""},"geometry":{"type":"Point","coordinates":[-2.2017955,53.017194]}},{"type":"Feature","properties":{"id":"uk-osm-industrial-way-158866155","name":"A&B Oil","zone_type":"industrial_landuse_center","site_class":"industrial_landuse","coastal_inland_label":"inland","source":"OpenStreetMap landuse=industrial center","source_operator":"","osm_type":"way","osm_id":"158866155","landuse":"industrial","industrial":"","man_made":""},"geometry":{"type":"Point","coordinates":[-1.3935874,50.8994822]}},{"type":"Feature","properties":{"id":"uk-osm-industrial-way-794473961","name":"A&F Grant","zone_type":"industrial_landuse_center","site_class":"industrial_landuse","coastal_inland_label":"inland","source":"OpenStreetMap landuse=industrial center","source_operator":"","osm_type":"way","osm_id":"794473961","landuse":"industrial","industrial":"","man_made":""},"geometry":{"type":"Point","coordinates":[-3.3494472,57.4276562]}},{"type":"Feature","properties":{"id":"uk-osm-industrial-way-160206328","name":"A&J Scott Sawmillers & Timber Merchants","zone_type":"industrial_landuse_center","site_class":"industrial_landuse","coastal_inland_label":"inland","source":"OpenStreetMap landuse=industrial center","source_operator":"","osm_type":"way","osm_id":"160206328","landuse":"industrial","industrial":"","man_made":"works"},"geometry":{"type":"Point","coordinates":[-1.9209329,55.471409]}},{"type":"Feature","properties":{"id":"uk-osm-industrial-way-675107763","name":"A&J Scott Sawmillers & Timber Merchants","zone_type":"industrial_landuse_center","site_class":"industrial_landuse","coastal_inland_label":"inland","source":"OpenStreetMap landuse=industrial center","source_operator":"","osm_type":"way","osm_id":"675107763","landuse":"industrial","industrial":"","man_made":"works"},"geometry":{"type":"Point","coordinates":[-1.919897,55.46998]}},{"type":"Feature","properties":{"id":"uk-osm-industrial-way-125977645","name":"A&P Falmouth","zone_type":"industrial_landuse_center","site_class":"industrial_landuse","coastal_inland_label":"inland","source":"OpenStreetMap landuse=industrial center","source_operator":"","osm_type":"way","osm_id":"125977645","landuse":"industrial","industrial":"","man_made":""},"geometry":{"type":"Point","coordinates":[-5.05639,50.153677]}},{"type":"Feature","properties":{"id":"uk-osm-industrial-way-210363901","name":"A-Plant","zone_type":"industrial_landuse_center","site_class":"industrial_landuse","coastal_inland_label":"inland","source":"OpenStreetMap landuse=industrial center","source_operator":"","osm_type":"way","osm_id":"210363901","landuse":"industrial","industrial":"","man_made":""},"geometry":{"type":"Point","coordinates":[-0.0232697,51.5280726]}},{"type":"Feature","properties":{"id":"uk-osm-industrial-way-307019597","name":"A-one+","zone_type":"depot","site_class":"industrial_landuse","coastal_inland_label":"inland","source":"OpenStreetMap landuse=industrial center","source_operator":"","osm_type":"way","osm_id":"307019597","landuse":"industrial","industrial":"depot","man_made":""},"geometry":{"type":"Point","coordinates":[-1.0225715,53.6782918]}},{"type":"Feature","properties":{"id":"uk-osm-industrial-way-1393658067","name":"A. Christie & Sons","zone_type":"scrap_yard","site_class":"industrial_landuse","coastal_inland_label":"inland","source":"OpenStreetMap landuse=industrial center","source_operator":"","osm_type":"way","osm_id":"1393658067","landuse":"industrial","industrial":"scrap_yard","man_made":""},"geometry":{"type":"Point","coordinates":[-4.2116692,55.8578373]}},{"type":"Feature","properties":{"id":"uk-osm-industrial-way-1029310337","name":"A.C. Robinson LTD Scrap metal merchants","zone_type":"industrial_landuse_center","site_class":"industrial_landuse","coastal_inland_label":"inland","source":"OpenStreetMap landuse=industrial center","source_operator":"","osm_type":"way","osm_id":"1029310337","landuse":"industrial","industrial":"","man_made":""},"geometry":{"type":"Point","coordinates":[-1.5648806,55.1570079]}},{"type":"Feature","properties":{"id":"uk-osm-industrial-way-1318454194","name":"A.F Akehurst & Sons Ltd","zone_type":"brickyard","site_class":"industrial_landuse","coastal_inland_label":"inland","source":"OpenStreetMap landuse=industrial center","source_operator":"","osm_type":"way","osm_id":"1318454194","landuse":"industrial","industrial":"brickyard","man_made":""},"geometry":{"type":"Point","coordinates":[0.5562375,51.3876085]}},{"type":"Feature","properties":{"id":"uk-osm-industrial-way-236138674","name":"A.H. Garner Ltd","zone_type":"industrial_landuse_center","site_class":"industrial_landuse","coastal_inland_label":"inland","source":"OpenStreetMap landuse=industrial center","source_operator":"","osm_type":"way","osm_id":"236138674","landuse":"industrial","industrial":"","man_made":""},"geometry":{"type":"Point","coordinates":[-1.1806693,52.9351613]}},{"type":"Feature","properties":{"id":"uk-osm-industrial-way-1236562565","name":"A.M Designs furniture","zone_type":"factory","site_class":"industrial_landuse","coastal_inland_label":"inland","source":"OpenStreetMap landuse=industrial center","source_operator":"","osm_type":"way","osm_id":"1236562565","landuse":"industrial","industrial":"factory","man_made":""},"geometry":{"type":"Point","coordinates":[1.0504746,51.3070548]}},{"type":"Feature","properties":{"id":"uk-osm-industrial-way-140094947","name":"A.V.C.","zone_type":"industrial_landuse_center","site_class":"industrial_landuse","coastal_inland_label":"inland","source":"OpenStreetMap landuse=industrial center","source_operator":"","osm_type":"way","osm_id":"140094947","landuse":"industrial","industrial":"","man_made":"inspection_access"},"geometry":{"type":"Point","coordinates":[-1.9620865,52.4217244]}},{"type":"Feature","properties":{"id":"uk-osm-industrial-way-1305238594","name":"A.W. Jenkins Forest Products","zone_type":"industrial_landuse_center","site_class":"industrial_landuse","coastal_inland_label":"inland","source":"OpenStreetMap landuse=industrial center","source_operator":"","osm_type":"way","osm_id":"1305238594","landuse":"industrial","industrial":"","man_made":""},"geometry":{"type":"Point","coordinates":[-3.3804567,55.1512286]}},{"type":"Feature","properties":{"id":"uk-osm-industrial-way-1021378048","name":"A.W. Jenkinson Forest Products","zone_type":"sawmill","site_class":"industrial_landuse","coastal_inland_label":"inland","source":"OpenStreetMap landuse=industrial center","source_operator":"","osm_type":"way","osm_id":"1021378048","landuse":"industrial","industrial":"sawmill","man_made":""},"geometry":{"type":"Point","coordinates":[-2.6479683,52.9260133]}},{"type":"Feature","properties":{"id":"uk-osm-industrial-way-1332096086","name":"A.W. Stokes & Son (Drums) Ltd.","zone_type":"industrial_landuse_center","site_class":"industrial_landuse","coastal_inland_label":"inland","source":"OpenStreetMap landuse=industrial center","source_operator":"","osm_type":"way","osm_id":"1332096086","landuse":"industrial","industrial":"","man_made":"works"},"geometry":{"type":"Point","coordinates":[-1.9950211,52.5147705]}},{"type":"Feature","properties":{"id":"uk-osm-industrial-way-105665003","name":"A1 Business Park","zone_type":"industrial_landuse_center","site_class":"industrial_landuse","coastal_inland_label":"inland","source":"OpenStreetMap landuse=industrial center","source_operator":"","osm_type":"way","osm_id":"105665003","landuse":"industrial","industrial":"","man_made":""},"geometry":{"type":"Point","coordinates":[-1.2741974,53.7037184]}},{"type":"Feature","properties":{"id":"uk-osm-industrial-way-956970815","name":"A1 Connect","zone_type":"industrial_landuse_center","site_class":"industrial_landuse","coastal_inland_label":"inland","source":"OpenStreetMap landuse=industrial center","source_operator":"","osm_type":"way","osm_id":"956970815","landuse":"industrial","industrial":"","man_made":""},"geometry":{"type":"Point","coordinates":[-0.1660657,51.7895493]}},{"type":"Feature","properties":{"id":"uk-osm-industrial-way-249075719","name":"A1 Group","zone_type":"industrial_landuse_center","site_class":"industrial_landuse","coastal_inland_label":"inland","source":"OpenStreetMap landuse=industrial center","source_operator":"","osm_type":"way","osm_id":"249075719","landuse":"industrial","industrial":"","man_made":""},"geometry":{"type":"Point","coordinates":[-0.8717165,51.4068424]}},{"type":"Feature","properties":{"id":"uk-osm-industrial-way-715334450","name":"A1 Industrial Estate","zone_type":"industrial_landuse_center","site_class":"industrial_landuse","coastal_inland_label":"inland","source":"OpenStreetMap landuse=industrial center","source_operator":"","osm_type":"way","osm_id":"715334450","landuse":"industrial","industrial":"","man_made":""},"geometry":{"type":"Point","coordinates":[-3.1071467,55.9481824]}},{"type":"Feature","properties":{"id":"uk-osm-industrial-way-821894866","name":"A19 Business Park","zone_type":"industrial_landuse_center","site_class":"industrial_landuse","coastal_inland_label":"inland","source":"OpenStreetMap landuse=industrial center","source_operator":"","osm_type":"way","osm_id":"821894866","landuse":"industrial","industrial":"","man_made":""},"geometry":{"type":"Point","coordinates":[-1.0326394,53.8249109]}},{"type":"Feature","properties":{"id":"uk-osm-industrial-way-1374769662","name":"A320 Construction Compound","zone_type":"construction","site_class":"industrial_landuse","coastal_inland_label":"inland","source":"OpenStreetMap landuse=industrial center","source_operator":"","osm_type":"way","osm_id":"1374769662","landuse":"industrial","industrial":"construction","man_made":""},"geometry":{"type":"Point","coordinates":[-0.5257597,51.3715004]}},{"type":"Feature","properties":{"id":"uk-osm-industrial-way-1212919601","name":"A421/A428 Dualling Scheme: Main Office Site Compound","zone_type":"industrial_landuse_center","site_class":"industrial_landuse","coastal_inland_label":"inland","source":"OpenStreetMap landuse=industrial center","source_operator":"","osm_type":"way","osm_id":"1212919601","landuse":"industrial","industrial":"","man_made":""},"geometry":{"type":"Point","coordinates":[-0.251554,52.2130569]}},{"type":"Feature","properties":{"id":"uk-osm-industrial-way-1046628067","name":"A52 Business Park","zone_type":"industrial_landuse_center","site_class":"industrial_landuse","coastal_inland_label":"inland","source":"OpenStreetMap landuse=industrial center","source_operator":"","osm_type":"way","osm_id":"1046628067","landuse":"industrial","industrial":"","man_made":""},"geometry":{"type":"Point","coordinates":[0.247065,53.1126716]}},{"type":"Feature","properties":{"id":"uk-osm-industrial-way-52595711","name":"ABB","zone_type":"industrial_landuse_center","site_class":"industrial_landuse","coastal_inland_label":"inland","source":"OpenStreetMap landuse=industrial center","source_operator":"","osm_type":"way","osm_id":"52595711","landuse":"industrial","industrial":"","man_made":"works"},"geometry":{"type":"Point","coordinates":[-2.1445977,52.9078935]}},{"type":"Feature","properties":{"id":"uk-osm-industrial-way-231731698","name":"ABB furse","zone_type":"industrial_landuse_center","site_class":"industrial_landuse","coastal_inland_label":"inland","source":"OpenStreetMap landuse=industrial center","source_operator":"","osm_type":"way","osm_id":"231731698","landuse":"industrial","industrial":"","man_made":""},"geometry":{"type":"Point","coordinates":[-1.1546566,52.9443744]}},{"type":"Feature","properties":{"id":"uk-osm-industrial-way-267872978","name":"ABP Abbatoir","zone_type":"slaughterhouse","site_class":"industrial_landuse","coastal_inland_label":"inland","source":"OpenStreetMap landuse=industrial center","source_operator":"","osm_type":"way","osm_id":"267872978","landuse":"industrial","industrial":"slaughterhouse","man_made":""},"geometry":{"type":"Point","coordinates":[-2.7230159,52.7417097]}},{"type":"Feature","properties":{"id":"uk-osm-industrial-way-956290942","name":"ABP Ellesmere Abbatoir","zone_type":"industrial_landuse_center","site_class":"industrial_landuse","coastal_inland_label":"inland","source":"OpenStreetMap landuse=industrial center","source_operator":"","osm_type":"way","osm_id":"956290942","landuse":"industrial","industrial":"","man_made":""},"geometry":{"type":"Point","coordinates":[-2.8976602,52.8509112]}},{"type":"Feature","properties":{"id":"uk-osm-industrial-way-296529966","name":"AC Groundworks","zone_type":"storage","site_class":"industrial_landuse","coastal_inland_label":"inland","source":"OpenStreetMap landuse=industrial center","source_operator":"","osm_type":"way","osm_id":"296529966","landuse":"industrial","industrial":"storage","man_made":""},"geometry":{"type":"Point","coordinates":[-1.6808595,53.6049308]}},{"type":"Feature","properties":{"id":"uk-osm-industrial-way-376313384","name":"ACE Forwarding","zone_type":"industrial_landuse_center","site_class":"industrial_landuse","coastal_inland_label":"inland","source":"OpenStreetMap landuse=industrial center","source_operator":"","osm_type":"way","osm_id":"376313384","landuse":"industrial","industrial":"","man_made":""},"geometry":{"type":"Point","coordinates":[-2.2182611,57.2052556]}},{"type":"Feature","properties":{"id":"uk-osm-industrial-way-48683085","name":"ACO Business Park","zone_type":"industrial_landuse_center","site_class":"industrial_landuse","coastal_inland_label":"inland","source":"OpenStreetMap landuse=industrial center","source_operator":"","osm_type":"way","osm_id":"48683085","landuse":"industrial","industrial":"","man_made":""},"geometry":{"type":"Point","coordinates":[-0.3134989,52.0208837]}},{"type":"Feature","properties":{"id":"uk-osm-industrial-way-1419097301","name":"ACR Car Spares","zone_type":"scrap_yard","site_class":"industrial_landuse","coastal_inland_label":"inland","source":"OpenStreetMap landuse=industrial center","source_operator":"","osm_type":"way","osm_id":"1419097301","landuse":"industrial","industrial":"scrap_yard","man_made":""},"geometry":{"type":"Point","coordinates":[-2.3692776,53.7755925]}},{"type":"Feature","properties":{"id":"uk-osm-industrial-way-1149862487","name":"ADAS Rain Gauge","zone_type":"industrial_landuse_center","site_class":"industrial_landuse","coastal_inland_label":"inland","source":"OpenStreetMap landuse=industrial center","source_operator":"","osm_type":"way","osm_id":"1149862487","landuse":"industrial","industrial":"","man_made":""},"geometry":{"type":"Point","coordinates":[-1.4871093,52.1861341]}},{"type":"Feature","properties":{"id":"uk-osm-industrial-way-1364717472","name":"ADH Skip And Digger Hire Yard","zone_type":"industrial_landuse_center","site_class":"industrial_landuse","coastal_inland_label":"inland","source":"OpenStreetMap landuse=industrial center","source_operator":"","osm_type":"way","osm_id":"1364717472","landuse":"industrial","industrial":"","man_made":""},"geometry":{"type":"Point","coordinates":[-2.8614222,52.7969302]}},{"type":"Feature","properties":{"id":"uk-osm-industrial-way-1378973106","name":"AFAB","zone_type":"factory","site_class":"industrial_landuse","coastal_inland_label":"inland","source":"OpenStreetMap landuse=industrial center","source_operator":"","osm_type":"way","osm_id":"1378973106","landuse":"industrial","industrial":"factory","man_made":""},"geometry":{"type":"Point","coordinates":[-2.0813835,57.1469943]}},{"type":"Feature","properties":{"id":"uk-osm-industrial-way-404241592","name":"AFBI Newforge","zone_type":"industrial_landuse_center","site_class":"industrial_landuse","coastal_inland_label":"inland","source":"OpenStreetMap landuse=industrial center","source_operator":"","osm_type":"way","osm_id":"404241592","landuse":"industrial","industrial":"","man_made":""},"geometry":{"type":"Point","coordinates":[-5.9435458,54.5599239]}},{"type":"Feature","properties":{"id":"uk-osm-industrial-way-1267468287","name":"AGA Rayburn - Waterloo Road","zone_type":"factory","site_class":"industrial_landuse","coastal_inland_label":"inland","source":"OpenStreetMap landuse=industrial center","source_operator":"","osm_type":"way","osm_id":"1267468287","landuse":"industrial","industrial":"factory","man_made":""},"geometry":{"type":"Point","coordinates":[-2.4828493,52.6978748]}},{"type":"Feature","properties":{"id":"uk-osm-industrial-way-1294806940","name":"AGD Duff & Partners","zone_type":"factory","site_class":"industrial_landuse","coastal_inland_label":"inland","source":"OpenStreetMap landuse=industrial center","source_operator":"","osm_type":"way","osm_id":"1294806940","landuse":"industrial","industrial":"factory","man_made":""},"geometry":{"type":"Point","coordinates":[-2.093158,57.1410715]}},{"type":"Feature","properties":{"id":"uk-osm-industrial-way-174740447","name":"AGI","zone_type":"industrial_landuse_center","site_class":"industrial_landuse","coastal_inland_label":"inland","source":"OpenStreetMap landuse=industrial center","source_operator":"National Grid","osm_type":"way","osm_id":"174740447","landuse":"industrial","industrial":"","man_made":""},"geometry":{"type":"Point","coordinates":[-0.2831178,53.6924596]}},{"type":"Feature","properties":{"id":"uk-osm-industrial-way-198297693","name":"AGI","zone_type":"industrial_landuse_center","site_class":"industrial_landuse","coastal_inland_label":"inland","source":"OpenStreetMap landuse=industrial center","source_operator":"","osm_type":"way","osm_id":"198297693","landuse":"industrial","industrial":"","man_made":""},"geometry":{"type":"Point","coordinates":[-0.2097313,53.71656]}},{"type":"Feature","properties":{"id":"uk-osm-industrial-way-72864039","name":"ALE","zone_type":"industrial_landuse_center","site_class":"industrial_landuse","coastal_inland_label":"inland","source":"OpenStreetMap landuse=industrial center","source_operator":"","osm_type":"way","osm_id":"72864039","landuse":"industrial","industrial":"","man_made":""},"geometry":{"type":"Point","coordinates":[-2.0074698,52.8327801]}},{"type":"Feature","properties":{"id":"uk-osm-industrial-way-907340573","name":"ALS Autos (Skoda)","zone_type":"industrial_landuse_center","site_class":"industrial_landuse","coastal_inland_label":"inland","source":"OpenStreetMap landuse=industrial center","source_operator":"","osm_type":"way","osm_id":"907340573","landuse":"industrial","industrial":"","man_made":""},"geometry":{"type":"Point","coordinates":[0.2527767,52.4332494]}},{"type":"Feature","properties":{"id":"uk-osm-industrial-way-227324538","name":"AMG Superalloys UK Limited","zone_type":"industrial_landuse_center","site_class":"industrial_landuse","coastal_inland_label":"inland","source":"OpenStreetMap landuse=industrial center","source_operator":"","osm_type":"way","osm_id":"227324538","landuse":"industrial","industrial":"","man_made":""},"geometry":{"type":"Point","coordinates":[-1.3658704,53.4156534]}},{"type":"Feature","properties":{"id":"uk-osm-industrial-way-672037089","name":"AMJ Garage Services","zone_type":"depot","site_class":"industrial_landuse","coastal_inland_label":"inland","source":"OpenStreetMap landuse=industrial center","source_operator":"AMJ Garage Services","osm_type":"way","osm_id":"672037089","landuse":"industrial","industrial":"depot","man_made":""},"geometry":{"type":"Point","coordinates":[-4.3367208,52.1657622]}},{"type":"Feature","properties":{"id":"uk-osm-industrial-way-1060166135","name":"AO.com","zone_type":"depot","site_class":"industrial_landuse","coastal_inland_label":"inland","source":"OpenStreetMap landuse=industrial center","source_operator":"","osm_type":"way","osm_id":"1060166135","landuse":"industrial","industrial":"depot","man_made":""},"geometry":{"type":"Point","coordinates":[0.3127404,51.4521572]}},{"type":"Feature","properties":{"id":"uk-osm-industrial-way-476956026","name":"APC overnight","zone_type":"industrial_landuse_center","site_class":"industrial_landuse","coastal_inland_label":"inland","source":"OpenStreetMap landuse=industrial center","source_operator":"","osm_type":"way","osm_id":"476956026","landuse":"industrial","industrial":"","man_made":""},"geometry":{"type":"Point","coordinates":[-2.0028377,52.6733584]}},{"type":"Feature","properties":{"id":"uk-osm-industrial-way-158037398","name":"AQUAtreat CHEMtreat","zone_type":"industrial_landuse_center","site_class":"industrial_landuse","coastal_inland_label":"inland","source":"OpenStreetMap landuse=industrial center","source_operator":"","osm_type":"way","osm_id":"158037398","landuse":"industrial","industrial":"","man_made":""},"geometry":{"type":"Point","coordinates":[-4.1744427,51.6781411]}},{"type":"Feature","properties":{"id":"uk-osm-industrial-way-400897472","name":"ARA Business Park","zone_type":"industrial_landuse_center","site_class":"industrial_landuse","coastal_inland_label":"inland","source":"OpenStreetMap landuse=industrial center","source_operator":"","osm_type":"way","osm_id":"400897472","landuse":"industrial","industrial":"","man_made":""},"geometry":{"type":"Point","coordinates":[-1.8041549,52.9048633]}},{"type":"Feature","properties":{"id":"uk-osm-industrial-relation-19231774","name":"AS Scaffolding","zone_type":"industrial_landuse_center","site_class":"industrial_landuse","coastal_inland_label":"inland","source":"OpenStreetMap landuse=industrial center","source_operator":"","osm_type":"relation","osm_id":"19231774","landuse":"industrial","industrial":"","man_made":""},"geometry":{"type":"Point","coordinates":[-4.2116841,55.8574693]}},{"type":"Feature","properties":{"id":"uk-osm-industrial-way-1350036924","name":"ASCO","zone_type":"warehouse","site_class":"industrial_landuse","coastal_inland_label":"inland","source":"OpenStreetMap landuse=industrial center","source_operator":"","osm_type":"way","osm_id":"1350036924","landuse":"industrial","industrial":"warehouse","man_made":""},"geometry":{"type":"Point","coordinates":[-2.2174455,57.193706]}}]}