{"type":"FeatureCollection","features":[{"type":"Feature","properties":{"id":"DEBKGDL200007IFH","name":"E35"},"geometry":{"type":"Point","coordinates":[7.546714436697117,47.64876458699398]}},{"type":"Feature","properties":{"id":"DEBKGDL200007GIM","name":"A98"},"geometry":{"type":"Point","coordinates":[7.603981516572741,47.625390713072974]}},{"type":"Feature","properties":{"id":"DEBKGDL200007QDB","name":"E54"},"geometry":{"type":"Point","coordinates":[7.6208671129992815,47.62764940867898]}},{"type":"Feature","properties":{"id":"DEBKGDL200007BHY","name":"A861"},"geometry":{"type":"Point","coordinates":[7.758813381650678,47.56103688813661]}},{"type":"Feature","properties":{"id":"DEBKGDL2000059QQ","name":"A5"},"geometry":{"type":"Point","coordinates":[7.6002470681396685,47.60162902076277]}},{"type":"Feature","properties":{"id":"DEBKGDL200004Q4K","name":"E52"},"geometry":{"type":"Point","coordinates":[7.936189671726449,48.533555514760906]}},{"type":"Feature","properties":{"id":"DEBKGDL200007DKO","name":"A8"},"geometry":{"type":"Point","coordinates":[7.506917542554914,49.213670601167486]}},{"type":"Feature","properties":{"id":"DEBKGDL200007GJF","name":"A65"},"geometry":{"type":"Point","coordinates":[8.209841872910058,49.06697094719636]}},{"type":"Feature","properties":{"id":"DEBKGDL200007GBB","name":"E41"},"geometry":{"type":"Point","coordinates":[8.744859757280498,47.73909022454083]}},{"type":"Feature","properties":{"id":"DEBKGDL200003H1N","name":"A81"},"geometry":{"type":"Point","coordinates":[8.796449038731605,47.763015421733726]}},{"type":"Feature","properties":{"id":"DEBKGDL200005BU4","name":"E531"},"geometry":{"type":"Point","coordinates":[8.536489209465264,47.99315794439583]}},{"type":"Feature","properties":{"id":"DEBKGDL200007BZL","name":"A864"},"geometry":{"type":"Point","coordinates":[8.527918453339097,47.99015486747032]}},{"type":"Feature","properties":{"id":"DEBKGDL200002WZN","name":"E43"},"geometry":{"type":"Point","coordinates":[9.734591085783993,47.54974423582023]}},{"type":"Feature","properties":{"id":"DEBKGDL200003KIJ","name":"A96"},"geometry":{"type":"Point","coordinates":[9.73238934341762,47.550083621237995]}},{"type":"Feature","properties":{"id":"DEBKGDL200006H54","name":"A980"},"geometry":{"type":"Point","coordinates":[10.316221837117958,47.681418136909045]}},{"type":"Feature","properties":{"id":"DEBKGDL200004BKG","name":"E532"},"geometry":{"type":"Point","coordinates":[10.372612358909514,47.68043345393791]}},{"type":"Feature","properties":{"id":"DEBKGDL200005MH0","name":"A7"},"geometry":{"type":"Point","coordinates":[10.371398551889675,47.68633083830459]}},{"type":"Feature","properties":{"id":"DEBKGDL200006325","name":"A831"},"geometry":{"type":"Point","coordinates":[9.080583455398884,48.72936625118539]}},{"type":"Feature","properties":{"id":"DEBKGDL200002WUA","name":"E50"},"geometry":{"type":"Point","coordinates":[8.918316024867707,49.22699706200649]}},{"type":"Feature","properties":{"id":"DEBKGDL20000UZKU","name":"A6"},"geometry":{"type":"Point","coordinates":[8.889198238922045,49.23958784885417]}},{"type":"Feature","properties":{"id":"DEBKGDL2000022YI","name":"E29"},"geometry":{"type":"Point","coordinates":[6.523125086296075,49.45273325584364]}},{"type":"Feature","properties":{"id":"DEBKGDL200003AL3","name":"A620"},"geometry":{"type":"Point","coordinates":[6.731125292898165,49.32259379537109]}},{"type":"Feature","properties":{"id":"DEBKGDL200003CIR","name":"A623"},"geometry":{"type":"Point","coordinates":[7.064922075149163,49.31121785475899]}},{"type":"Feature","properties":{"id":"DEBKGDL2000024SZ","name":"A1"},"geometry":{"type":"Point","coordinates":[6.959017101848981,49.25966630407581]}},{"type":"Feature","properties":{"id":"DEBKGDL2000024T0","name":"E422"},"geometry":{"type":"Point","coordinates":[6.959300062040102,49.26599287345784]}},{"type":"Feature","properties":{"id":"DEBKGDL2000025GB","name":"A62"},"geometry":{"type":"Point","coordinates":[7.087306331483836,49.58298063468661]}},{"type":"Feature","properties":{"id":"DEBKGDL200003BP6","name":"E44"},"geometry":{"type":"Point","coordinates":[6.540077704024518,49.73828672595264]}},{"type":"Feature","properties":{"id":"DEBKGDL200002OE5","name":"A60"},"geometry":{"type":"Point","coordinates":[6.44890498524824,50.095088915563636]}},{"type":"Feature","properties":{"id":"DEBKGDL200005VL5","name":"A64"},"geometry":{"type":"Point","coordinates":[6.60321021122555,49.773886316284276]}},{"type":"Feature","properties":{"id":"DEBKGDL20000255Z","name":"A64a"},"geometry":{"type":"Point","coordinates":[6.692393798228007,49.80257758948311]}},{"type":"Feature","properties":{"id":"DEBKGDL200006JWZ","name":"A602"},"geometry":{"type":"Point","coordinates":[6.7300480405566585,49.809174194457626]}},{"type":"Feature","properties":{"id":"DEBKGDL2000025JO","name":"E42"},"geometry":{"type":"Point","coordinates":[6.760172996315115,49.99737957503595]}},{"type":"Feature","properties":{"id":"DEBKGDL2000027FL","name":"A63"},"geometry":{"type":"Point","coordinates":[7.8058981255309225,49.461304801570186]}},{"type":"Feature","properties":{"id":"DEBKGDL200004OC5","name":"A650"},"geometry":{"type":"Point","coordinates":[8.230314949163343,49.468767545524344]}},{"type":"Feature","properties":{"id":"DEBKGDL200002888","name":"A61"},"geometry":{"type":"Point","coordinates":[8.207989795896243,49.70043532786633]}},{"type":"Feature","properties":{"id":"DEBKGDL200004OIR","name":"E31"},"geometry":{"type":"Point","coordinates":[8.185832089394296,49.70134868538433]}},{"type":"Feature","properties":{"id":"DEBKGDL200004OPK","name":"A643"},"geometry":{"type":"Point","coordinates":[8.20140414576916,50.01043285373488]}},{"type":"Feature","properties":{"id":"DEBKGDL200005C49","name":"A66"},"geometry":{"type":"Point","coordinates":[8.20443431983863,50.05270749888912]}},{"type":"Feature","properties":{"id":"DEBKGDL200003D4H","name":"A48"},"geometry":{"type":"Point","coordinates":[6.972896930423705,50.21034977818054]}},{"type":"Feature","properties":{"id":"DEBKGDL2000025UQ","name":"A565"},"geometry":{"type":"Point","coordinates":[7.026489259177639,50.585417816427494]}},{"type":"Feature","properties":{"id":"DEBKGDL2000056FJ","name":"A544"},"geometry":{"type":"Point","coordinates":[6.155487862699491,50.80156192631198]}},{"type":"Feature","properties":{"id":"DEBKGDL2000056E8","name":"E40"},"geometry":{"type":"Point","coordinates":[6.137222527925382,50.73442612144447]}},{"type":"Feature","properties":{"id":"DEBKGDL2000056LC","name":"A44"},"geometry":{"type":"Point","coordinates":[6.17596166118234,50.82450171648928]}},{"type":"Feature","properties":{"id":"DEBKGDL200007BZV","name":"E314"},"geometry":{"type":"Point","coordinates":[6.10357340412564,50.80423254722477]}},{"type":"Feature","properties":{"id":"DEBKGDL200004HYV","name":"A4"},"geometry":{"type":"Point","coordinates":[6.107645276549221,50.80320312234558]}},{"type":"Feature","properties":{"id":"DEBKGDL20000XV9G","name":"A46"},"geometry":{"type":"Point","coordinates":[6.111598200781184,51.023247473689]}},{"type":"Feature","properties":{"id":"DEBKGDL200007HQM","name":"A555"},"geometry":{"type":"Point","coordinates":[7.030533991279883,50.76264820427044]}},{"type":"Feature","properties":{"id":"DEBKGDL200003ZF7","name":"A553"},"geometry":{"type":"Point","coordinates":[6.817972685459453,50.76332203486817]}},{"type":"Feature","properties":{"id":"DEBKGDL200007EA3","name":"A57"},"geometry":{"type":"Point","coordinates":[6.909476620126266,50.98189037101949]}},{"type":"Feature","properties":{"id":"DEBKGDL200007GA2","name":"A3"},"geometry":{"type":"Point","coordinates":[7.014947160645211,50.98141674833174]}},{"type":"Feature","properties":{"id":"DEBKGDL200003YXM","name":"E37"},"geometry":{"type":"Point","coordinates":[6.910606259635478,51.00791821209189]}},{"type":"Feature","properties":{"id":"DEBKGDL200007E7U","name":"A59"},"geometry":{"type":"Point","coordinates":[6.937518018089442,51.05445559239028]}},{"type":"Feature","properties":{"id":"DEBKGDL200003YV1","name":"A542"},"geometry":{"type":"Point","coordinates":[6.934799871661568,51.08335543255988]}},{"type":"Feature","properties":{"id":"DEBKGDL200007JY9","name":"A573"},"geometry":{"type":"Point","coordinates":[7.119571513915115,50.55160490170127]}},{"type":"Feature","properties":{"id":"DEBKGDL200004LKQ","name":"A571"},"geometry":{"type":"Point","coordinates":[7.193278899295069,50.53403955355506]}},{"type":"Feature","properties":{"id":"DEBKGDL200005AU5","name":"A562"},"geometry":{"type":"Point","coordinates":[7.148989721780987,50.72107789275522]}},{"type":"Feature","properties":{"id":"DEBKGDL200007WC8","name":"A560"},"geometry":{"type":"Point","coordinates":[7.302177916092207,50.77526425466993]}},{"type":"Feature","properties":{"id":"DEBKGDL200007CDW","name":"A559"},"geometry":{"type":"Point","coordinates":[7.0311083493368,50.91446417848228]}},{"type":"Feature","properties":{"id":"DEBKGDL200005WG3","name":"A45"},"geometry":{"type":"Point","coordinates":[8.154110972060899,50.76421564493907]}},{"type":"Feature","properties":{"id":"DEBKGDL200007HWT","name":"A656"},"geometry":{"type":"Point","coordinates":[8.571450651285808,49.44996453425176]}},{"type":"Feature","properties":{"id":"DEBKGDL200007HWH","name":"A659"},"geometry":{"type":"Point","coordinates":[8.572075162344003,49.52679631318378]}},{"type":"Feature","properties":{"id":"DEBKGDL200007JQ6","name":"A695"},"geometry":{"type":"Point","coordinates":[8.593193482508164,49.53774552796705]}},{"type":"Feature","properties":{"id":"DEBKGDL200007E7G","name":"E451"},"geometry":{"type":"Point","coordinates":[8.557710298376978,49.557415326107055]}},{"type":"Feature","properties":{"id":"DEBKGDL200003HUO","name":"A67"},"geometry":{"type":"Point","coordinates":[8.551694807109715,49.65917623033374]}},{"type":"Feature","properties":{"id":"DEBKGDL200007E6J","name":"A672"},"geometry":{"type":"Point","coordinates":[8.605755666770893,49.86997286311015]}},{"type":"Feature","properties":{"id":"DEBKGDL200007D1W","name":"A671"},"geometry":{"type":"Point","coordinates":[8.343748908185692,49.997310245354726]}},{"type":"Feature","properties":{"id":"DEBKGDL200005FG0","name":"A661"},"geometry":{"type":"Point","coordinates":[8.68965160700937,49.994544896161536]}},{"type":"Feature","properties":{"id":"DEBKGDL200002B1B","name":"A648"},"geometry":{"type":"Point","coordinates":[8.616917895014751,50.114117073363076]}},{"type":"Feature","properties":{"id":"DEBKGDL200002FUR","name":"E45"},"geometry":{"type":"Point","coordinates":[10.027857227044935,49.95445889215257]}},{"type":"Feature","properties":{"id":"DEBKGDL200002FV3","name":"E48"},"geometry":{"type":"Point","coordinates":[10.115738494247204,50.00155330774504]}},{"type":"Feature","properties":{"id":"DEBKGDL200005HEK","name":"A70"},"geometry":{"type":"Point","coordinates":[10.119354634252389,50.00083250616737]}},{"type":"Feature","properties":{"id":"DEBKGDL200002G5X","name":"A71"},"geometry":{"type":"Point","coordinates":[10.15721882967888,50.02210218324785]}},{"type":"Feature","properties":{"id":"DEBKGDL200001OFV","name":"A485"},"geometry":{"type":"Point","coordinates":[8.646029779538706,50.53774753920685]}},{"type":"Feature","properties":{"id":"DEBKGDL200005ZA8","name":"A480"},"geometry":{"type":"Point","coordinates":[8.480604032778949,50.5767570839155]}},{"type":"Feature","properties":{"id":"DEBKGDL20001BC7E","name":"A49"},"geometry":{"type":"Point","coordinates":[9.011329331308346,50.80180516693664]}},{"type":"Feature","properties":{"id":"DEBKGDL200004DOQ","name":"E533"},"geometry":{"type":"Point","coordinates":[11.176052346567868,47.60333961426328]}},{"type":"Feature","properties":{"id":"DEBKGDL2000051EK","name":"A95"},"geometry":{"type":"Point","coordinates":[11.175001639258936,47.60439959659429]}},{"type":"Feature","properties":{"id":"DEBKGDL200003PN6","name":"A952"},"geometry":{"type":"Point","coordinates":[11.403166363776783,48.00884379901303]}},{"type":"Feature","properties":{"id":"DEBKGDL200001VCM","name":"A99"},"geometry":{"type":"Point","coordinates":[11.3959591419944,48.144707099725636]}},{"type":"Feature","properties":{"id":"DEBKGDL2000053NW","name":"A93"},"geometry":{"type":"Point","coordinates":[12.18805423151932,47.64598910579512]}},{"type":"Feature","properties":{"id":"DEBKGDL200004CON","name":"A995"},"geometry":{"type":"Point","coordinates":[11.607401533545428,48.03602178068575]}},{"type":"Feature","properties":{"id":"DEBKGDL200001V96","name":"A94"},"geometry":{"type":"Point","coordinates":[11.687537528375483,48.137766762769985]}},{"type":"Feature","properties":{"id":"DEBKGDL200006WTG","name":"E552"},"geometry":{"type":"Point","coordinates":[11.776770250064477,48.14608466434566]}},{"type":"Feature","properties":{"id":"DEBKGDL200004DQX","name":"A92"},"geometry":{"type":"Point","coordinates":[11.534568408546995,48.253163879582424]}},{"type":"Feature","properties":{"id":"DEBKGDL200007Y3H","name":"E53"},"geometry":{"type":"Point","coordinates":[11.535833638286416,48.24316837584617]}},{"type":"Feature","properties":{"id":"DEBKGDL20000PTAQ","name":"A9"},"geometry":{"type":"Point","coordinates":[11.619375307191271,48.201524064611036]}},{"type":"Feature","properties":{"id":"DEBKGDL200001ZSU","name":"E56"},"geometry":{"type":"Point","coordinates":[12.059630183466732,48.99735044072649]}},{"type":"Feature","properties":{"id":"DEBKGDL20000JJV9","name":"E641"},"geometry":{"type":"Point","coordinates":[12.934642982972242,47.76869589134194]}},{"type":"Feature","properties":{"id":"DEBKGDL2000067D4","name":"A73"},"geometry":{"type":"Point","coordinates":[10.989155021459506,49.58717751036029]}},{"type":"Feature","properties":{"id":"DEBKGDL20000UZQR","name":"E51"},"geometry":{"type":"Point","coordinates":[11.266414510193496,49.481079890193755]}},{"type":"Feature","properties":{"id":"DEBKGDL200002JXS","name":"E441"},"geometry":{"type":"Point","coordinates":[11.813560530081274,50.335021005185766]}},{"type":"Feature","properties":{"id":"DEBKGDL200003STL","name":"A72"},"geometry":{"type":"Point","coordinates":[11.8312351857278,50.34190601307563]}},{"type":"Feature","properties":{"id":"DEBKGDL200007RZR","name":"E49"},"geometry":{"type":"Point","coordinates":[11.79919596506337,50.63835071247738]}},{"type":"Feature","properties":{"id":"DEBKGDL200003VFA","name":"A14"},"geometry":{"type":"Point","coordinates":[13.29003463905864,51.08158151387427]}},{"type":"Feature","properties":{"id":"DEBKGDL200002NQX","name":"E55"},"geometry":{"type":"Point","coordinates":[13.768622196275508,50.992319921124604]}},{"type":"Feature","properties":{"id":"DEBKGDL200006DXH","name":"A17"},"geometry":{"type":"Point","coordinates":[13.728367233854371,51.007213306211526]}},{"type":"Feature","properties":{"id":"DEBKGDL200005UT2","name":"A52"},"geometry":{"type":"Point","coordinates":[6.132459085527794,51.21218509709863]}},{"type":"Feature","properties":{"id":"DEBKGDL2000055VX","name":"A40"},"geometry":{"type":"Point","coordinates":[6.265483624231784,51.38796611690982]}},{"type":"Feature","properties":{"id":"DEBKGDL200003Y3A","name":"E34"},"geometry":{"type":"Point","coordinates":[6.267309962305735,51.38752733498579]}},{"type":"Feature","properties":{"id":"DEBKGDL2000058A3","name":"A524"},"geometry":{"type":"Point","coordinates":[6.741395267290591,51.351820789504245]}},{"type":"Feature","properties":{"id":"DEBKGDL200005B5T","name":"A42"},"geometry":{"type":"Point","coordinates":[6.673621048885355,51.48028018846651]}},{"type":"Feature","properties":{"id":"DEBKGDL200003EXU","name":"A31"},"geometry":{"type":"Point","coordinates":[6.937537160586234,51.58680635360409]}},{"type":"Feature","properties":{"id":"DEBKGDL20000596C","name":"A2"},"geometry":{"type":"Point","coordinates":[6.9646085925571395,51.55436901775213]}},{"type":"Feature","properties":{"id":"DEBKGDL200003ZOF","name":"A516"},"geometry":{"type":"Point","coordinates":[6.866968948835481,51.50257798416209]}},{"type":"Feature","properties":{"id":"DEBKGDL200003BN6","name":"A535"},"geometry":{"type":"Point","coordinates":[7.088250382846583,51.25508232740151]}},{"type":"Feature","properties":{"id":"DEBKGDL200004MOJ","name":"A43"},"geometry":{"type":"Point","coordinates":[7.274127972847892,51.35698065469008]}},{"type":"Feature","properties":{"id":"DEBKGDL20000SS4A","name":"A448"},"geometry":{"type":"Point","coordinates":[7.2626586436447935,51.462449834808545]}},{"type":"Feature","properties":{"id":"DEBKGDL200004OW2","name":"E331"},"geometry":{"type":"Point","coordinates":[7.712699869161101,51.52507214281678]}},{"type":"Feature","properties":{"id":"DEBKGDL2000041P7","name":"A445"},"geometry":{"type":"Point","coordinates":[7.957420498177575,51.45845793829916]}},{"type":"Feature","properties":{"id":"DEBKGDL200003DIV","name":"E30"},"geometry":{"type":"Point","coordinates":[7.17222956612347,52.34166870291852]}},{"type":"Feature","properties":{"id":"DEBKGDL200003DIS","name":"A30"},"geometry":{"type":"Point","coordinates":[7.148952099063919,52.337244722938266]}},{"type":"Feature","properties":{"id":"DEBKGDL200003ICU","name":"A33"},"geometry":{"type":"Point","coordinates":[8.087486973787584,52.2433941048741]}},{"type":"Feature","properties":{"id":"DEBKGDL2000079GX","name":"A38"},"geometry":{"type":"Point","coordinates":[9.909673458184507,51.40928565668109]}},{"type":"Feature","properties":{"id":"DEBKGDL200002H22","name":"A39"},"geometry":{"type":"Point","coordinates":[10.229049877277,52.1231932345807]}},{"type":"Feature","properties":{"id":"DEBKGDL200012PJB","name":"A29"},"geometry":{"type":"Point","coordinates":[8.227470848814972,52.850360371648726]}},{"type":"Feature","properties":{"id":"DEBKGDL200007GU1","name":"E22"},"geometry":{"type":"Point","coordinates":[8.317393142838954,53.07941897650764]}},{"type":"Feature","properties":{"id":"DEBKGDL2000045JU","name":"A28"},"geometry":{"type":"Point","coordinates":[8.623637672127437,53.035476752288304]}},{"type":"Feature","properties":{"id":"DEBKGDL200002YUW","name":"E234"},"geometry":{"type":"Point","coordinates":[8.940359061885776,53.07895094763268]}},{"type":"Feature","properties":{"id":"DEBKGDL200010ZAC","name":"A281"},"geometry":{"type":"Point","coordinates":[8.739001352189025,53.078234504271954]}},{"type":"Feature","properties":{"id":"DEBKGDL200002AZQ","name":"A27"},"geometry":{"type":"Point","coordinates":[8.907174046902215,53.081213236394454]}},{"type":"Feature","properties":{"id":"DEBKGDL20000652C","name":"A37"},"geometry":{"type":"Point","coordinates":[9.827458127293326,52.30747542208109]}},{"type":"Feature","properties":{"id":"DEBKGDL20000658R","name":"A352"},"geometry":{"type":"Point","coordinates":[9.76913598947137,52.512180739908736]}},{"type":"Feature","properties":{"id":"DEBKGDL200004LYO","name":"A280"},"geometry":{"type":"Point","coordinates":[7.242504036746871,53.18166633982118]}},{"type":"Feature","properties":{"id":"DEBKGDL20000608M","name":"A293"},"geometry":{"type":"Point","coordinates":[8.20869472308148,53.16200985910859]}},{"type":"Feature","properties":{"id":"DEBKGDL200010P5F","name":"A270"},"geometry":{"type":"Point","coordinates":[8.638095235793418,53.17550901402613]}},{"type":"Feature","properties":{"id":"DEBKGDL20000PTA1","name":"A26"},"geometry":{"type":"Point","coordinates":[9.501294538802929,53.58227243227044]}},{"type":"Feature","properties":{"id":"DEBKGDL200001T6F","name":"A261"},"geometry":{"type":"Point","coordinates":[9.873349674426127,53.384634024875176]}},{"type":"Feature","properties":{"id":"DEBKGDL200004Y7N","name":"A255"},"geometry":{"type":"Point","coordinates":[10.025855249654537,53.52038584097556]}},{"type":"Feature","properties":{"id":"DEBKGDL200002F0A","name":"A25"},"geometry":{"type":"Point","coordinates":[10.115965054849662,53.4869208496949]}},{"type":"Feature","properties":{"id":"DEBKGDL200006QLN","name":"A24"},"geometry":{"type":"Point","coordinates":[10.124665189941332,53.56782629857076]}},{"type":"Feature","properties":{"id":"DEBKGDL200006RXA","name":"E26"},"geometry":{"type":"Point","coordinates":[10.202975798699121,53.559373671232315]}},{"type":"Feature","properties":{"id":"DEBKGDL200004BZY","name":"A23"},"geometry":{"type":"Point","coordinates":[9.819811863492795,53.654319005565036]}},{"type":"Feature","properties":{"id":"DEBKGDL200001SHK","name":"A21"},"geometry":{"type":"Point","coordinates":[10.321715069882178,53.76904758645113]}},{"type":"Feature","properties":{"id":"DEBKGDL20000UV7I","name":"A20"},"geometry":{"type":"Point","coordinates":[10.39800176647271,53.91837729245694]}},{"type":"Feature","properties":{"id":"DEBKGDL200005I48","name":"A210"},"geometry":{"type":"Point","coordinates":[9.732476648036364,54.298584740353235]}},{"type":"Feature","properties":{"id":"DEBKGDL200002G2T","name":"A215"},"geometry":{"type":"Point","coordinates":[10.007939577953195,54.22333052732584]}},{"type":"Feature","properties":{"id":"DEBKGDL200003PKQ","name":"A36"},"geometry":{"type":"Point","coordinates":[10.99807690567105,51.80011683938521]}},{"type":"Feature","properties":{"id":"DEBKGDL200004A92","name":"A369"},"geometry":{"type":"Point","coordinates":[10.553885565990468,51.907102685183034]}},{"type":"Feature","properties":{"id":"DEBKGDL200004HAL","name":"A143"},"geometry":{"type":"Point","coordinates":[11.861715455191291,51.41671695885049]}},{"type":"Feature","properties":{"id":"DEBKGDL200003Q4A","name":"A391"},"geometry":{"type":"Point","coordinates":[10.508914916693954,52.240007439727165]}},{"type":"Feature","properties":{"id":"DEBKGDL200003QHF","name":"A392"},"geometry":{"type":"Point","coordinates":[10.513704921232637,52.281741751184846]}},{"type":"Feature","properties":{"id":"DEBKGDL200006DYN","name":"A13"},"geometry":{"type":"Point","coordinates":[13.734391041885344,51.21222409376249]}},{"type":"Feature","properties":{"id":"DEBKGDL2000020SC","name":"E36"},"geometry":{"type":"Point","coordinates":[13.916010964056612,51.8476202515282]}},{"type":"Feature","properties":{"id":"DEBKGDL200004K8M","name":"A15"},"geometry":{"type":"Point","coordinates":[14.461283281639574,51.7128565626043]}},{"type":"Feature","properties":{"id":"DEBKGDL2000037WI","name":"A10"},"geometry":{"type":"Point","coordinates":[13.290257104966892,52.305859815137126]}},{"type":"Feature","properties":{"id":"DEBKGDL2000021H0","name":"A115"},"geometry":{"type":"Point","coordinates":[13.139037831064602,52.35444416165441]}},{"type":"Feature","properties":{"id":"DEBKGDL200005U1V","name":"A100"},"geometry":{"type":"Point","coordinates":[13.36848213969704,52.47136958741224]}},{"type":"Feature","properties":{"id":"DEBKGDL200005UA7","name":"A103"},"geometry":{"type":"Point","coordinates":[13.32351238406708,52.45954299051925]}},{"type":"Feature","properties":{"id":"DEBKGDL200005UA3","name":"A111"},"geometry":{"type":"Point","coordinates":[13.313592939592843,52.565235860125554]}},{"type":"Feature","properties":{"id":"DEBKGDL2000022I7","name":"A12"},"geometry":{"type":"Point","coordinates":[13.782720261129858,52.31749560131851]}},{"type":"Feature","properties":{"id":"DEBKGDL200004KK2","name":"A113"},"geometry":{"type":"Point","coordinates":[13.520612726076898,52.403120743993604]}},{"type":"Feature","properties":{"id":"DEBKGDL200002PMI","name":"A117"},"geometry":{"type":"Point","coordinates":[13.556974122397687,52.40316365177308]}},{"type":"Feature","properties":{"id":"DEBKGDL200002N80","name":"A114"},"geometry":{"type":"Point","coordinates":[13.427986259324653,52.580921308908344]}},{"type":"Feature","properties":{"id":"DEBKGDL2000021NO","name":"E251"},"geometry":{"type":"Point","coordinates":[13.201646910215135,52.70422921015056]}},{"type":"Feature","properties":{"id":"DEBKGDL2000056WE","name":"E28"},"geometry":{"type":"Point","coordinates":[13.564077119781066,52.68130808708638]}},{"type":"Feature","properties":{"id":"DEBKGDL200003UQU","name":"A11"},"geometry":{"type":"Point","coordinates":[13.565405664674483,52.64338900369222]}},{"type":"Feature","properties":{"id":"DEBKGDL200005KT0","name":"E47"},"geometry":{"type":"Point","coordinates":[10.63939892443187,53.86944717801981]}},{"type":"Feature","properties":{"id":"DEBKGDL2000068CW","name":"A226"},"geometry":{"type":"Point","coordinates":[10.738345941392195,53.91601291869165]}},{"type":"Feature","properties":{"id":"DEBKGDL200004HMJ","name":"A19"},"geometry":{"type":"Point","coordinates":[12.466975842585239,53.36609887666475]}},{"type":"Feature","properties":{"id":"DEBKGDL2000170TV","name":"A"},"geometry":{"type":"Point","coordinates":[11.251374865555055,54.51887489417517]}}]}