{"type":"FeatureCollection","features":[{"type":"Feature","properties":{"id":"DEBKGDL200007IFH","name":"E35"},"geometry":{"type":"Point","coordinates":[7.546714436697117,47.64876458699398]}},{"type":"Feature","properties":{"id":"DEBKGDL200007E46","name":"B532"},"geometry":{"type":"Point","coordinates":[7.598898843867772,47.60078288178513]}},{"type":"Feature","properties":{"id":"DEBKGDL200007BKA","name":"B3"},"geometry":{"type":"Point","coordinates":[7.6085708214223775,47.58924223567459]}},{"type":"Feature","properties":{"id":"DEBKGDL200007GIM","name":"A98"},"geometry":{"type":"Point","coordinates":[7.603981516572741,47.625390713072974]}},{"type":"Feature","properties":{"id":"DEBKGDL200007QDB","name":"E54"},"geometry":{"type":"Point","coordinates":[7.6208671129992815,47.62764940867898]}},{"type":"Feature","properties":{"id":"DEBKGDL200007BHY","name":"A861"},"geometry":{"type":"Point","coordinates":[7.758813381650678,47.56103688813661]}},{"type":"Feature","properties":{"id":"DEBKGDL200007TTZ","name":"B317"},"geometry":{"type":"Point","coordinates":[7.668005671253654,47.62874637170175]}},{"type":"Feature","properties":{"id":"DEBKGDL20000251C","name":"B34"},"geometry":{"type":"Point","coordinates":[7.691853342514557,47.54960947659028]}},{"type":"Feature","properties":{"id":"DEBKGDL2000059QQ","name":"A5"},"geometry":{"type":"Point","coordinates":[7.6002470681396685,47.60162902076277]}},{"type":"Feature","properties":{"id":"DEBKGDL200007EJC","name":"B316"},"geometry":{"type":"Point","coordinates":[7.728415094259674,47.58852414252366]}},{"type":"Feature","properties":{"id":"DEBKGDL20000258C","name":"B518"},"geometry":{"type":"Point","coordinates":[7.833631724283519,47.650065565277984]}},{"type":"Feature","properties":{"id":"DEBKGDL200007FZH","name":"B500"},"geometry":{"type":"Point","coordinates":[8.175537411206882,47.650711305673276]}},{"type":"Feature","properties":{"id":"DEBKGDL2000025F4","name":"B31"},"geometry":{"type":"Point","coordinates":[7.734708190084913,47.98019485364826]}},{"type":"Feature","properties":{"id":"DEBKGDL200002SUU","name":"B378"},"geometry":{"type":"Point","coordinates":[7.556944383022289,47.81499017257283]}},{"type":"Feature","properties":{"id":"DEBKGDL2000025F3","name":"B31a"},"geometry":{"type":"Point","coordinates":[7.725734241125467,48.05741096556153]}},{"type":"Feature","properties":{"id":"DEBKGDL200007O9T","name":"B315"},"geometry":{"type":"Point","coordinates":[8.245216517613532,47.860923992624436]}},{"type":"Feature","properties":{"id":"DEBKGDL2000026BF","name":"B294"},"geometry":{"type":"Point","coordinates":[7.876765276807387,48.058854727071854]}},{"type":"Feature","properties":{"id":"DEBKGDL200003I3D","name":"E531"},"geometry":{"type":"Point","coordinates":[8.232068219308161,48.204907983150676]}},{"type":"Feature","properties":{"id":"DEBKGDL200003Y3N","name":"E29"},"geometry":{"type":"Point","coordinates":[7.045281100715551,49.14931343419289]}},{"type":"Feature","properties":{"id":"DEBKGDL200007BUF","name":"B423"},"geometry":{"type":"Point","coordinates":[7.132005495942227,49.13900935683348]}},{"type":"Feature","properties":{"id":"DEBKGDL20000251V","name":"B406"},"geometry":{"type":"Point","coordinates":[7.026400936876698,49.19214011918852]}},{"type":"Feature","properties":{"id":"DEBKGDL200003CI8","name":"B51"},"geometry":{"type":"Point","coordinates":[7.030593915805599,49.19706507962901]}},{"type":"Feature","properties":{"id":"DEBKGDL200005Y5Q","name":"B415"},"geometry":{"type":"Point","coordinates":[7.793260307306777,48.36052061569327]}},{"type":"Feature","properties":{"id":"DEBKGDL2000027WR","name":"B33"},"geometry":{"type":"Point","coordinates":[8.001017907289894,48.40420497686759]}},{"type":"Feature","properties":{"id":"DEBKGDL200005XWC","name":"B33a"},"geometry":{"type":"Point","coordinates":[7.9188308497161985,48.47106824822435]}},{"type":"Feature","properties":{"id":"DEBKGDL20001494K","name":"B28"},"geometry":{"type":"Point","coordinates":[8.20459729591845,48.42848331037801]}},{"type":"Feature","properties":{"id":"DEBKGDL200004Q4K","name":"E52"},"geometry":{"type":"Point","coordinates":[7.936189671726449,48.533555514760906]}},{"type":"Feature","properties":{"id":"DEBKGDL20000PP4L","name":"B3n"},"geometry":{"type":"Point","coordinates":[8.144220554176588,48.73615206546441]}},{"type":"Feature","properties":{"id":"DEBKGDL200005YCG","name":"B10"},"geometry":{"type":"Point","coordinates":[7.670704260794677,49.20954949134514]}},{"type":"Feature","properties":{"id":"DEBKGDL200003EIS","name":"B270"},"geometry":{"type":"Point","coordinates":[7.601308469730769,49.214902322548625]}},{"type":"Feature","properties":{"id":"DEBKGDL200007DKO","name":"A8"},"geometry":{"type":"Point","coordinates":[7.506917542554914,49.213670601167486]}},{"type":"Feature","properties":{"id":"DEBKGDL200007E6D","name":"B424"},"geometry":{"type":"Point","coordinates":[7.370502249721788,49.187831350683346]}},{"type":"Feature","properties":{"id":"DEBKGDL200007KWV","name":"B36"},"geometry":{"type":"Point","coordinates":[8.238953894890834,48.874898305864036]}},{"type":"Feature","properties":{"id":"DEBKGDL200007GB6","name":"B462"},"geometry":{"type":"Point","coordinates":[8.24807996629088,48.86166411385997]}},{"type":"Feature","properties":{"id":"DEBKGDL200007FHJ","name":"B9"},"geometry":{"type":"Point","coordinates":[8.16646043944961,48.98610211380138]}},{"type":"Feature","properties":{"id":"DEBKGDL2000027UY","name":"B38"},"geometry":{"type":"Point","coordinates":[8.116481733535462,49.1775780106406]}},{"type":"Feature","properties":{"id":"DEBKGDL200004QWK","name":"B427"},"geometry":{"type":"Point","coordinates":[8.168205151286905,49.07613398710956]}},{"type":"Feature","properties":{"id":"DEBKGDL200007GJF","name":"A65"},"geometry":{"type":"Point","coordinates":[8.209841872910058,49.06697094719636]}},{"type":"Feature","properties":{"id":"DEBKGDL200007SY5","name":"B48"},"geometry":{"type":"Point","coordinates":[8.012261870916305,49.13686411825787]}},{"type":"Feature","properties":{"id":"DEBKGDL2000042VS","name":"B272"},"geometry":{"type":"Point","coordinates":[8.160934642776752,49.22592533308027]}},{"type":"Feature","properties":{"id":"DEBKGDL20001BO98","name":"B410"},"geometry":{"type":"Point","coordinates":[7.7435580911662525,49.20075575699324]}},{"type":"Feature","properties":{"id":"DEBKGDL200007HW0","name":"B314"},"geometry":{"type":"Point","coordinates":[8.367222176474211,47.6657633709738]}},{"type":"Feature","properties":{"id":"DEBKGDL200007T6F","name":"B27"},"geometry":{"type":"Point","coordinates":[8.565538860730818,47.648380849785596]}},{"type":"Feature","properties":{"id":"DEBKGDL200007GBB","name":"E41"},"geometry":{"type":"Point","coordinates":[8.744859757280498,47.73909022454083]}},{"type":"Feature","properties":{"id":"DEBKGDL200003H1N","name":"A81"},"geometry":{"type":"Point","coordinates":[8.796449038731605,47.763015421733726]}},{"type":"Feature","properties":{"id":"DEBKGDL200006QG4","name":"B31n"},"geometry":{"type":"Point","coordinates":[9.146179731708548,47.7944685971616]}},{"type":"Feature","properties":{"id":"DEBKGDL20001BBUP","name":"B33n"},"geometry":{"type":"Point","coordinates":[9.111684253350155,47.69949382680913]}},{"type":"Feature","properties":{"id":"DEBKGDL200007BZL","name":"A864"},"geometry":{"type":"Point","coordinates":[8.527918453339097,47.99015486747032]}},{"type":"Feature","properties":{"id":"DEBKGDL200007AUC","name":"B311"},"geometry":{"type":"Point","coordinates":[8.769438527406841,47.95623967979617]}},{"type":"Feature","properties":{"id":"DEBKGDL200007BJT","name":"B491"},"geometry":{"type":"Point","coordinates":[8.83545040121901,47.907612464279694]}},{"type":"Feature","properties":{"id":"DEBKGDL200004O28","name":"B523"},"geometry":{"type":"Point","coordinates":[8.660327114206222,48.00720716668191]}},{"type":"Feature","properties":{"id":"DEBKGDL200004SSI","name":"B14"},"geometry":{"type":"Point","coordinates":[8.783867764322139,48.005589224464956]}},{"type":"Feature","properties":{"id":"DEBKGDL20000463J","name":"B313"},"geometry":{"type":"Point","coordinates":[9.016214843806008,47.90326637420476]}},{"type":"Feature","properties":{"id":"DEBKGDL200018AFL","name":"B311n"},"geometry":{"type":"Point","coordinates":[9.294943169609576,48.03154735706609]}},{"type":"Feature","properties":{"id":"DEBKGDL200007OWP","name":"B463"},"geometry":{"type":"Point","coordinates":[8.85411669630517,48.26041171029647]}},{"type":"Feature","properties":{"id":"DEBKGDL200001ON2","name":"B32"},"geometry":{"type":"Point","coordinates":[9.342924608302802,48.05579445822913]}},{"type":"Feature","properties":{"id":"DEBKGDL200004UYM","name":"B312"},"geometry":{"type":"Point","coordinates":[9.361395527439322,48.276406070647404]}},{"type":"Feature","properties":{"id":"DEBKGDL200006TOT","name":"B12"},"geometry":{"type":"Point","coordinates":[9.70385151927172,47.556168020833105]}},{"type":"Feature","properties":{"id":"DEBKGDL200002WZN","name":"E43"},"geometry":{"type":"Point","coordinates":[9.734591085783993,47.54974423582023]}},{"type":"Feature","properties":{"id":"DEBKGDL200003KIJ","name":"A96"},"geometry":{"type":"Point","coordinates":[9.73238934341762,47.550083621237995]}},{"type":"Feature","properties":{"id":"DEBKGDL200001PZY","name":"B467"},"geometry":{"type":"Point","coordinates":[9.586220307007466,47.610126083988646]}},{"type":"Feature","properties":{"id":"DEBKGDL200007M2Y","name":"B30"},"geometry":{"type":"Point","coordinates":[9.553491471881383,47.68216106436432]}},{"type":"Feature","properties":{"id":"DEBKGDL200007P9I","name":"B308"},"geometry":{"type":"Point","coordinates":[9.746037814273713,47.58489561177482]}},{"type":"Feature","properties":{"id":"DEBKGDL200001TLA","name":"B19"},"geometry":{"type":"Point","coordinates":[10.257215579279904,47.41091712062419]}},{"type":"Feature","properties":{"id":"DEBKGDL200007LUW","name":"B310"},"geometry":{"type":"Point","coordinates":[10.422232826600887,47.54689206260963]}},{"type":"Feature","properties":{"id":"DEBKGDL200006H54","name":"A980"},"geometry":{"type":"Point","coordinates":[10.316221837117958,47.681418136909045]}},{"type":"Feature","properties":{"id":"DEBKGDL200004BKG","name":"E532"},"geometry":{"type":"Point","coordinates":[10.372612358909514,47.68043345393791]}},{"type":"Feature","properties":{"id":"DEBKGDL200005MH0","name":"A7"},"geometry":{"type":"Point","coordinates":[10.371398551889675,47.68633083830459]}},{"type":"Feature","properties":{"id":"DEBKGDL200005IDH","name":"B465"},"geometry":{"type":"Point","coordinates":[9.795798290056347,47.97374422657384]}},{"type":"Feature","properties":{"id":"DEBKGDL20000767N","name":"B300"},"geometry":{"type":"Point","coordinates":[10.130039823904138,48.034810424313804]}},{"type":"Feature","properties":{"id":"DEBKGDL200003NUK","name":"B16"},"geometry":{"type":"Point","coordinates":[10.388326724626912,48.20612796733187]}},{"type":"Feature","properties":{"id":"DEBKGDL200004T5M","name":"B296"},"geometry":{"type":"Point","coordinates":[8.711087022810075,48.740016011165245]}},{"type":"Feature","properties":{"id":"DEBKGDL200007NUH","name":"B295"},"geometry":{"type":"Point","coordinates":[8.789664734918059,48.73488576791155]}},{"type":"Feature","properties":{"id":"DEBKGDL200007W07","name":"B464"},"geometry":{"type":"Point","coordinates":[9.232811629296368,48.48188003287734]}},{"type":"Feature","properties":{"id":"DEBKGDL200006325","name":"A831"},"geometry":{"type":"Point","coordinates":[9.080583455398884,48.72936625118539]}},{"type":"Feature","properties":{"id":"DEBKGDL200004V08","name":"B297"},"geometry":{"type":"Point","coordinates":[9.264194578944576,48.61112796066894]}},{"type":"Feature","properties":{"id":"DEBKGDL200002UFX","name":"B35"},"geometry":{"type":"Point","coordinates":[8.776525034939462,48.995870241208735]}},{"type":"Feature","properties":{"id":"DEBKGDL2000028IZ","name":"B293"},"geometry":{"type":"Point","coordinates":[8.528412202139823,49.00528268526112]}},{"type":"Feature","properties":{"id":"DEBKGDL2000028BS","name":"B35a"},"geometry":{"type":"Point","coordinates":[8.58860443446183,49.14308155795205]}},{"type":"Feature","properties":{"id":"DEBKGDL200002U9G","name":"B292"},"geometry":{"type":"Point","coordinates":[8.7505551871735,49.229597955773684]}},{"type":"Feature","properties":{"id":"DEBKGDL20000646Y","name":"B29"},"geometry":{"type":"Point","coordinates":[9.351208611936979,48.815893718262245]}},{"type":"Feature","properties":{"id":"DEBKGDL200001O69","name":"B27a"},"geometry":{"type":"Point","coordinates":[9.170851129036853,48.77442543065207]}},{"type":"Feature","properties":{"id":"DEBKGDL200004VHK","name":"B328"},"geometry":{"type":"Point","coordinates":[9.286193913255126,48.99572549647482]}},{"type":"Feature","properties":{"id":"DEBKGDL200001ODA","name":"B39"},"geometry":{"type":"Point","coordinates":[8.939048916849575,49.22729819487269]}},{"type":"Feature","properties":{"id":"DEBKGDL200002WUA","name":"E50"},"geometry":{"type":"Point","coordinates":[8.918316024867707,49.22699706200649]}},{"type":"Feature","properties":{"id":"DEBKGDL20000UZKU","name":"A6"},"geometry":{"type":"Point","coordinates":[8.889198238922045,49.23958784885417]}},{"type":"Feature","properties":{"id":"DEBKGDL20000498S","name":"B39a"},"geometry":{"type":"Point","coordinates":[9.309341471537223,49.13804178322891]}},{"type":"Feature","properties":{"id":"DEBKGDL200007STX","name":"B492"},"geometry":{"type":"Point","coordinates":[9.722866468544382,48.30841619374224]}},{"type":"Feature","properties":{"id":"DEBKGDL200012S82","name":"B466"},"geometry":{"type":"Point","coordinates":[9.770205482657488,48.67662907366562]}},{"type":"Feature","properties":{"id":"DEBKGDL200002CEZ","name":"B466a"},"geometry":{"type":"Point","coordinates":[10.205990393317052,48.69257639948074]}},{"type":"Feature","properties":{"id":"DEBKGDL200001QRT","name":"B298"},"geometry":{"type":"Point","coordinates":[9.794366656339808,48.811496697850856]}},{"type":"Feature","properties":{"id":"DEBKGDL2000064HS","name":"B290"},"geometry":{"type":"Point","coordinates":[10.145762868191111,48.93098204254851]}},{"type":"Feature","properties":{"id":"DEBKGDL200005J5X","name":"B29a"},"geometry":{"type":"Point","coordinates":[10.210291718453004,48.80636738140752]}},{"type":"Feature","properties":{"id":"DEBKGDL20001317B","name":"B25"},"geometry":{"type":"Point","coordinates":[10.40939875956797,49.00597028462063]}},{"type":"Feature","properties":{"id":"DEBKGDL2000040M1","name":"B419"},"geometry":{"type":"Point","coordinates":[6.374324934072072,49.509789563243885]}},{"type":"Feature","properties":{"id":"DEBKGDL20000204V","name":"B407"},"geometry":{"type":"Point","coordinates":[6.542118164539471,49.60341367036693]}},{"type":"Feature","properties":{"id":"DEBKGDL200003AQM","name":"B419L"},"geometry":{"type":"Point","coordinates":[6.371566428980465,49.47123507332699]}},{"type":"Feature","properties":{"id":"DEBKGDL200003AL3","name":"A620"},"geometry":{"type":"Point","coordinates":[6.731125292898165,49.32259379537109]}},{"type":"Feature","properties":{"id":"DEBKGDL200004M95","name":"B269"},"geometry":{"type":"Point","coordinates":[6.718225576340268,49.22181388334688]}},{"type":"Feature","properties":{"id":"DEBKGDL200004M9K","name":"B405"},"geometry":{"type":"Point","coordinates":[6.7593613619427675,49.32626314186455]}},{"type":"Feature","properties":{"id":"DEBKGDL200003CIR","name":"A623"},"geometry":{"type":"Point","coordinates":[7.064922075149163,49.31121785475899]}},{"type":"Feature","properties":{"id":"DEBKGDL2000024SZ","name":"A1"},"geometry":{"type":"Point","coordinates":[6.959017101848981,49.25966630407581]}},{"type":"Feature","properties":{"id":"DEBKGDL2000024T0","name":"E422"},"geometry":{"type":"Point","coordinates":[6.959300062040102,49.26599287345784]}},{"type":"Feature","properties":{"id":"DEBKGDL2000024WK","name":"B41"},"geometry":{"type":"Point","coordinates":[7.004594033028885,49.24488987602556]}},{"type":"Feature","properties":{"id":"DEBKGDL200004NMC","name":"B268"},"geometry":{"type":"Point","coordinates":[6.956707352006714,49.287538128251825]}},{"type":"Feature","properties":{"id":"DEBKGDL200005TKK","name":"B52"},"geometry":{"type":"Point","coordinates":[6.903901976439533,49.670465692020485]}},{"type":"Feature","properties":{"id":"DEBKGDL2000025GB","name":"A62"},"geometry":{"type":"Point","coordinates":[7.087306331483836,49.58298063468661]}},{"type":"Feature","properties":{"id":"DEBKGDL200004L64","name":"B327"},"geometry":{"type":"Point","coordinates":[6.9545701621115885,49.67784538208174]}},{"type":"Feature","properties":{"id":"DEBKGDL200004IQS","name":"B49"},"geometry":{"type":"Point","coordinates":[6.542317270113994,49.71230228084823]}},{"type":"Feature","properties":{"id":"DEBKGDL200007HD8","name":"B418"},"geometry":{"type":"Point","coordinates":[6.511647835960463,49.71980156399765]}},{"type":"Feature","properties":{"id":"DEBKGDL200002O60","name":"B257"},"geometry":{"type":"Point","coordinates":[6.434870526345668,49.81463056196674]}},{"type":"Feature","properties":{"id":"DEBKGDL200007E53","name":"B422"},"geometry":{"type":"Point","coordinates":[6.539265298100986,49.855932543209846]}},{"type":"Feature","properties":{"id":"DEBKGDL200003BP6","name":"E44"},"geometry":{"type":"Point","coordinates":[6.540077704024518,49.73828672595264]}},{"type":"Feature","properties":{"id":"DEBKGDL200007E6Q","name":"B50"},"geometry":{"type":"Point","coordinates":[6.225447942103676,49.9268416286688]}},{"type":"Feature","properties":{"id":"DEBKGDL200002OE5","name":"A60"},"geometry":{"type":"Point","coordinates":[6.44890498524824,50.095088915563636]}},{"type":"Feature","properties":{"id":"DEBKGDL200005VL5","name":"A64"},"geometry":{"type":"Point","coordinates":[6.60321021122555,49.773886316284276]}},{"type":"Feature","properties":{"id":"DEBKGDL20000255W","name":"B53"},"geometry":{"type":"Point","coordinates":[6.689115530956541,49.79303189521474]}},{"type":"Feature","properties":{"id":"DEBKGDL20000255Z","name":"A64a"},"geometry":{"type":"Point","coordinates":[6.692393798228007,49.80257758948311]}},{"type":"Feature","properties":{"id":"DEBKGDL200006JWZ","name":"A602"},"geometry":{"type":"Point","coordinates":[6.7300480405566585,49.809174194457626]}},{"type":"Feature","properties":{"id":"DEBKGDL2000025JO","name":"E42"},"geometry":{"type":"Point","coordinates":[6.760172996315115,49.99737957503595]}},{"type":"Feature","properties":{"id":"DEBKGDL200004LUB","name":"B421"},"geometry":{"type":"Point","coordinates":[6.943998892775534,50.13020890024272]}},{"type":"Feature","properties":{"id":"DEBKGDL20000PTJ9","name":"B50n"},"geometry":{"type":"Point","coordinates":[6.944264397997552,49.96204360423917]}},{"type":"Feature","properties":{"id":"DEBKGDL20000UZZ8","name":"B420"},"geometry":{"type":"Point","coordinates":[7.238275784173094,49.440490358016135]}},{"type":"Feature","properties":{"id":"DEBKGDL2000025GH","name":"B41a"},"geometry":{"type":"Point","coordinates":[7.162270734971724,49.6048822869923]}},{"type":"Feature","properties":{"id":"DEBKGDL2000027FL","name":"A63"},"geometry":{"type":"Point","coordinates":[7.8058981255309225,49.461304801570186]}},{"type":"Feature","properties":{"id":"DEBKGDL200003EVB","name":"B37"},"geometry":{"type":"Point","coordinates":[7.722366314035726,49.43822187343791]}},{"type":"Feature","properties":{"id":"DEBKGDL200007F01","name":"B271"},"geometry":{"type":"Point","coordinates":[8.195514081848454,49.466479515917214]}},{"type":"Feature","properties":{"id":"DEBKGDL200004OC5","name":"A650"},"geometry":{"type":"Point","coordinates":[8.230314949163343,49.468767545524344]}},{"type":"Feature","properties":{"id":"DEBKGDL200005YYU","name":"B47"},"geometry":{"type":"Point","coordinates":[8.07446368507752,49.54187960566272]}},{"type":"Feature","properties":{"id":"DEBKGDL200002888","name":"A61"},"geometry":{"type":"Point","coordinates":[8.207989795896243,49.70043532786633]}},{"type":"Feature","properties":{"id":"DEBKGDL200004OIR","name":"E31"},"geometry":{"type":"Point","coordinates":[8.185832089394296,49.70134868538433]}},{"type":"Feature","properties":{"id":"DEBKGDL200007XI9","name":"B259"},"geometry":{"type":"Point","coordinates":[7.130999811118011,50.14126384438321]}},{"type":"Feature","properties":{"id":"DEBKGDL200003FJH","name":"B428"},"geometry":{"type":"Point","coordinates":[7.90241944468043,49.84947794190363]}},{"type":"Feature","properties":{"id":"DEBKGDL200007QAG","name":"B42"},"geometry":{"type":"Point","coordinates":[7.851462548855128,50.01536464476443]}},{"type":"Feature","properties":{"id":"DEBKGDL2000042XK","name":"B274"},"geometry":{"type":"Point","coordinates":[7.71549099293486,50.157221544634524]}},{"type":"Feature","properties":{"id":"DEBKGDL200004OPK","name":"A643"},"geometry":{"type":"Point","coordinates":[8.20140414576916,50.01043285373488]}},{"type":"Feature","properties":{"id":"DEBKGDL200005C49","name":"A66"},"geometry":{"type":"Point","coordinates":[8.20443431983863,50.05270749888912]}},{"type":"Feature","properties":{"id":"DEBKGDL200007S1V","name":"B275"},"geometry":{"type":"Point","coordinates":[8.198302133284498,50.16331721253175]}},{"type":"Feature","properties":{"id":"DEBKGDL200007XIN","name":"B42a"},"geometry":{"type":"Point","coordinates":[7.976715421632518,49.9876859130935]}},{"type":"Feature","properties":{"id":"DEBKGDL200007D44","name":"B260"},"geometry":{"type":"Point","coordinates":[8.109046217373368,50.08627584713174]}},{"type":"Feature","properties":{"id":"DEBKGDL200005D1B","name":"B54"},"geometry":{"type":"Point","coordinates":[8.064915237524371,50.18813197696471]}},{"type":"Feature","properties":{"id":"DEBKGDL2000020JW","name":"B265"},"geometry":{"type":"Point","coordinates":[6.427836135382785,50.2693453917076]}},{"type":"Feature","properties":{"id":"DEBKGDL200007DNV","name":"B258"},"geometry":{"type":"Point","coordinates":[6.258979979688901,50.58150659165014]}},{"type":"Feature","properties":{"id":"DEBKGDL200007XEK","name":"B399"},"geometry":{"type":"Point","coordinates":[6.215290194907762,50.51468829551065]}},{"type":"Feature","properties":{"id":"DEBKGDL2000020PX","name":"B266"},"geometry":{"type":"Point","coordinates":[6.332824066988101,50.60613753139022]}},{"type":"Feature","properties":{"id":"DEBKGDL200003D4H","name":"A48"},"geometry":{"type":"Point","coordinates":[6.972896930423705,50.21034977818054]}},{"type":"Feature","properties":{"id":"DEBKGDL200002SCZ","name":"B412"},"geometry":{"type":"Point","coordinates":[7.008256704921558,50.37187253697954]}},{"type":"Feature","properties":{"id":"DEBKGDL200005U5A","name":"B477"},"geometry":{"type":"Point","coordinates":[6.6339440085291255,50.5954695191961]}},{"type":"Feature","properties":{"id":"DEBKGDL2000025UQ","name":"A565"},"geometry":{"type":"Point","coordinates":[7.026489259177639,50.585417816427494]}},{"type":"Feature","properties":{"id":"DEBKGDL200007OK6","name":"B267"},"geometry":{"type":"Point","coordinates":[7.050744952202326,50.534970039023456]}},{"type":"Feature","properties":{"id":"DEBKGDL200006NLH","name":"B57"},"geometry":{"type":"Point","coordinates":[6.100099356522268,50.793390910529624]}},{"type":"Feature","properties":{"id":"DEBKGDL2000071E1","name":"B1"},"geometry":{"type":"Point","coordinates":[6.087368376208861,50.768645085001445]}},{"type":"Feature","properties":{"id":"DEBKGDL200006OCL","name":"B1a"},"geometry":{"type":"Point","coordinates":[6.071565287486996,50.77265252461653]}},{"type":"Feature","properties":{"id":"DEBKGDL2000056FJ","name":"A544"},"geometry":{"type":"Point","coordinates":[6.155487862699491,50.80156192631198]}},{"type":"Feature","properties":{"id":"DEBKGDL2000056E8","name":"E40"},"geometry":{"type":"Point","coordinates":[6.137222527925382,50.73442612144447]}},{"type":"Feature","properties":{"id":"DEBKGDL2000056LC","name":"A44"},"geometry":{"type":"Point","coordinates":[6.17596166118234,50.82450171648928]}},{"type":"Feature","properties":{"id":"DEBKGDL200007BZV","name":"E314"},"geometry":{"type":"Point","coordinates":[6.10357340412564,50.80423254722477]}},{"type":"Feature","properties":{"id":"DEBKGDL200004HYV","name":"A4"},"geometry":{"type":"Point","coordinates":[6.107645276549221,50.80320312234558]}},{"type":"Feature","properties":{"id":"DEBKGDL200003B3D","name":"B264"},"geometry":{"type":"Point","coordinates":[6.069638088195409,50.76482225661141]}},{"type":"Feature","properties":{"id":"DEBKGDL2000020QG","name":"B56"},"geometry":{"type":"Point","coordinates":[6.427608413262462,50.870544252390786]}},{"type":"Feature","properties":{"id":"DEBKGDL20000XV9G","name":"A46"},"geometry":{"type":"Point","coordinates":[6.111598200781184,51.023247473689]}},{"type":"Feature","properties":{"id":"DEBKGDL200002NL4","name":"B221"},"geometry":{"type":"Point","coordinates":[6.109367106110634,51.027592174595725]}},{"type":"Feature","properties":{"id":"DEBKGDL200007APJ","name":"B55"},"geometry":{"type":"Point","coordinates":[6.375466677901688,50.953160547576566]}},{"type":"Feature","properties":{"id":"DEBKGDL20000JMU0","name":"B56n"},"geometry":{"type":"Point","coordinates":[6.7339847487406335,50.678334219053]}},{"type":"Feature","properties":{"id":"DEBKGDL200007HQM","name":"A555"},"geometry":{"type":"Point","coordinates":[7.030533991279883,50.76264820427044]}},{"type":"Feature","properties":{"id":"DEBKGDL200003ZF7","name":"A553"},"geometry":{"type":"Point","coordinates":[6.817972685459453,50.76332203486817]}},{"type":"Feature","properties":{"id":"DEBKGDL2000163WU","name":"B51n"},"geometry":{"type":"Point","coordinates":[6.91605025842201,50.85655893413029]}},{"type":"Feature","properties":{"id":"DEBKGDL200006GCW","name":"B59"},"geometry":{"type":"Point","coordinates":[6.689808713854679,51.02127386499272]}},{"type":"Feature","properties":{"id":"DEBKGDL200007EA3","name":"A57"},"geometry":{"type":"Point","coordinates":[6.909476620126266,50.98189037101949]}},{"type":"Feature","properties":{"id":"DEBKGDL2000078NZ","name":"B55a"},"geometry":{"type":"Point","coordinates":[6.986868511608294,50.948590774236024]}},{"type":"Feature","properties":{"id":"DEBKGDL200007GA2","name":"A3"},"geometry":{"type":"Point","coordinates":[7.014947160645211,50.98141674833174]}},{"type":"Feature","properties":{"id":"DEBKGDL200005XGD","name":"B8"},"geometry":{"type":"Point","coordinates":[7.001479208520656,50.98300752314729]}},{"type":"Feature","properties":{"id":"DEBKGDL200005XGQ","name":"B506"},"geometry":{"type":"Point","coordinates":[7.017740354438348,50.96436319903363]}},{"type":"Feature","properties":{"id":"DEBKGDL200003YXM","name":"E37"},"geometry":{"type":"Point","coordinates":[6.910606259635478,51.00791821209189]}},{"type":"Feature","properties":{"id":"DEBKGDL200007E7U","name":"A59"},"geometry":{"type":"Point","coordinates":[6.937518018089442,51.05445559239028]}},{"type":"Feature","properties":{"id":"DEBKGDL200003B3A","name":"B229"},"geometry":{"type":"Point","coordinates":[6.9919726698609646,51.12508496812092]}},{"type":"Feature","properties":{"id":"DEBKGDL200003YV1","name":"A542"},"geometry":{"type":"Point","coordinates":[6.934799871661568,51.08335543255988]}},{"type":"Feature","properties":{"id":"DEBKGDL200007FPI","name":"B262"},"geometry":{"type":"Point","coordinates":[7.239326323651756,50.315227572012176]}},{"type":"Feature","properties":{"id":"DEBKGDL200002QL8","name":"B256"},"geometry":{"type":"Point","coordinates":[7.267319395439826,50.34712505503259]}},{"type":"Feature","properties":{"id":"DEBKGDL200003Y80","name":"B416"},"geometry":{"type":"Point","coordinates":[7.461948610130705,50.29877879099777]}},{"type":"Feature","properties":{"id":"DEBKGDL200002QUJ","name":"B411"},"geometry":{"type":"Point","coordinates":[7.470865936071489,50.310356773175435]}},{"type":"Feature","properties":{"id":"DEBKGDL2000023BV","name":"B413"},"geometry":{"type":"Point","coordinates":[7.588017955762947,50.41303735877875]}},{"type":"Feature","properties":{"id":"DEBKGDL200007JY9","name":"A573"},"geometry":{"type":"Point","coordinates":[7.119571513915115,50.55160490170127]}},{"type":"Feature","properties":{"id":"DEBKGDL200004LKQ","name":"A571"},"geometry":{"type":"Point","coordinates":[7.193278899295069,50.53403955355506]}},{"type":"Feature","properties":{"id":"DEBKGDL200007ND9","name":"B417"},"geometry":{"type":"Point","coordinates":[7.887832577208151,50.317866839801326]}},{"type":"Feature","properties":{"id":"DEBKGDL2000023C6","name":"B261"},"geometry":{"type":"Point","coordinates":[7.694348460101484,50.36907831002479]}},{"type":"Feature","properties":{"id":"DEBKGDL20000286B","name":"B255"},"geometry":{"type":"Point","coordinates":[7.848795077087438,50.464206988513816]}},{"type":"Feature","properties":{"id":"DEBKGDL2000028CL","name":"B414"},"geometry":{"type":"Point","coordinates":[7.814818080236437,50.67099820108204]}},{"type":"Feature","properties":{"id":"DEBKGDL200005AU5","name":"A562"},"geometry":{"type":"Point","coordinates":[7.148989721780987,50.72107789275522]}},{"type":"Feature","properties":{"id":"DEBKGDL200007FE2","name":"B478"},"geometry":{"type":"Point","coordinates":[7.302105937939734,50.77403743971394]}},{"type":"Feature","properties":{"id":"DEBKGDL200007WC8","name":"A560"},"geometry":{"type":"Point","coordinates":[7.302177916092207,50.77526425466993]}},{"type":"Feature","properties":{"id":"DEBKGDL2000023M9","name":"B484"},"geometry":{"type":"Point","coordinates":[7.2057397914919825,50.81861348344814]}},{"type":"Feature","properties":{"id":"DEBKGDL200007C60","name":"B507"},"geometry":{"type":"Point","coordinates":[7.2785055440892075,50.84930638538811]}},{"type":"Feature","properties":{"id":"DEBKGDL200007CDW","name":"A559"},"geometry":{"type":"Point","coordinates":[7.0311083493368,50.91446417848228]}},{"type":"Feature","properties":{"id":"DEBKGDL200006Y61","name":"B237"},"geometry":{"type":"Point","coordinates":[7.350719022172825,51.14235923088939]}},{"type":"Feature","properties":{"id":"DEBKGDL200002V9L","name":"B62"},"geometry":{"type":"Point","coordinates":[7.874051353636477,50.790043613474886]}},{"type":"Feature","properties":{"id":"DEBKGDL200004OLY","name":"B277"},"geometry":{"type":"Point","coordinates":[8.163942010605494,50.75200927425434]}},{"type":"Feature","properties":{"id":"DEBKGDL200005WG3","name":"A45"},"geometry":{"type":"Point","coordinates":[8.154110972060899,50.76421564493907]}},{"type":"Feature","properties":{"id":"DEBKGDL20000JORU","name":"B62a"},"geometry":{"type":"Point","coordinates":[7.965669457363509,50.84254908459265]}},{"type":"Feature","properties":{"id":"DEBKGDL200006GNG","name":"B517"},"geometry":{"type":"Point","coordinates":[7.984271691634304,50.96736620595182]}},{"type":"Feature","properties":{"id":"DEBKGDL2000075BU","name":"B508"},"geometry":{"type":"Point","coordinates":[8.01806678078884,50.960332486845594]}},{"type":"Feature","properties":{"id":"DEBKGDL20000773Z","name":"B236"},"geometry":{"type":"Point","coordinates":[8.061425798345939,51.11337742502751]}},{"type":"Feature","properties":{"id":"DEBKGDL200006QZ7","name":"B38a"},"geometry":{"type":"Point","coordinates":[8.50926586934236,49.44473299492796]}},{"type":"Feature","properties":{"id":"DEBKGDL200006SV4","name":"B44"},"geometry":{"type":"Point","coordinates":[8.434401168649973,49.46090185358615]}},{"type":"Feature","properties":{"id":"DEBKGDL2000028VI","name":"B291"},"geometry":{"type":"Point","coordinates":[8.631377189319846,49.29996999707311]}},{"type":"Feature","properties":{"id":"DEBKGDL200007HWT","name":"A656"},"geometry":{"type":"Point","coordinates":[8.571450651285808,49.44996453425176]}},{"type":"Feature","properties":{"id":"DEBKGDL200004ZJ9","name":"B535"},"geometry":{"type":"Point","coordinates":[8.575176486564114,49.399634283018685]}},{"type":"Feature","properties":{"id":"DEBKGDL200015RGP","name":"B47neu"},"geometry":{"type":"Point","coordinates":[8.349152105899186,49.61575196596412]}},{"type":"Feature","properties":{"id":"DEBKGDL200007HWH","name":"A659"},"geometry":{"type":"Point","coordinates":[8.572075162344003,49.52679631318378]}},{"type":"Feature","properties":{"id":"DEBKGDL200007JQ6","name":"A695"},"geometry":{"type":"Point","coordinates":[8.593193482508164,49.53774552796705]}},{"type":"Feature","properties":{"id":"DEBKGDL200007E7G","name":"E451"},"geometry":{"type":"Point","coordinates":[8.557710298376978,49.557415326107055]}},{"type":"Feature","properties":{"id":"DEBKGDL200007AVF","name":"B460"},"geometry":{"type":"Point","coordinates":[8.573890882199679,49.663326431615275]}},{"type":"Feature","properties":{"id":"DEBKGDL200003HUO","name":"A67"},"geometry":{"type":"Point","coordinates":[8.551694807109715,49.65917623033374]}},{"type":"Feature","properties":{"id":"DEBKGDL200007HET","name":"B45"},"geometry":{"type":"Point","coordinates":[8.816866421172024,49.31303245120986]}},{"type":"Feature","properties":{"id":"DEBKGDL200007NFD","name":"B469"},"geometry":{"type":"Point","coordinates":[9.218790160945124,49.679160472239424]}},{"type":"Feature","properties":{"id":"DEBKGDL20000457S","name":"B26"},"geometry":{"type":"Point","coordinates":[8.486704753215477,49.85190282241767]}},{"type":"Feature","properties":{"id":"DEBKGDL2000148RI","name":"B426"},"geometry":{"type":"Point","coordinates":[8.62238365931615,49.814708155661634]}},{"type":"Feature","properties":{"id":"DEBKGDL200007E6J","name":"A672"},"geometry":{"type":"Point","coordinates":[8.605755666770893,49.86997286311015]}},{"type":"Feature","properties":{"id":"DEBKGDL2000148Z2","name":"B449"},"geometry":{"type":"Point","coordinates":[8.70478301428394,49.83004625604374]}},{"type":"Feature","properties":{"id":"DEBKGDL200007D1W","name":"A671"},"geometry":{"type":"Point","coordinates":[8.343748908185692,49.997310245354726]}},{"type":"Feature","properties":{"id":"DEBKGDL200005DI2","name":"B43"},"geometry":{"type":"Point","coordinates":[8.345692486238114,49.996482846336676]}},{"type":"Feature","properties":{"id":"DEBKGDL200007FEL","name":"B40"},"geometry":{"type":"Point","coordinates":[8.342268065409755,50.02409901571295]}},{"type":"Feature","properties":{"id":"DEBKGDL2000123FZ","name":"B455"},"geometry":{"type":"Point","coordinates":[8.295822920174235,50.04700160605468]}},{"type":"Feature","properties":{"id":"DEBKGDL2000026K1","name":"B486"},"geometry":{"type":"Point","coordinates":[8.448743764671807,49.98724779044073]}},{"type":"Feature","properties":{"id":"DEBKGDL200007HBT","name":"B519"},"geometry":{"type":"Point","coordinates":[8.412574269730339,49.97630089153561]}},{"type":"Feature","properties":{"id":"DEBKGDL200005FG0","name":"A661"},"geometry":{"type":"Point","coordinates":[8.68965160700937,49.994544896161536]}},{"type":"Feature","properties":{"id":"DEBKGDL2000046JI","name":"B459"},"geometry":{"type":"Point","coordinates":[8.735351316971524,50.06935596775553]}},{"type":"Feature","properties":{"id":"DEBKGDL200002B1B","name":"A648"},"geometry":{"type":"Point","coordinates":[8.616917895014751,50.114117073363076]}},{"type":"Feature","properties":{"id":"DEBKGDL200004SJJ","name":"B40a"},"geometry":{"type":"Point","coordinates":[8.578557066240858,50.09371411867779]}},{"type":"Feature","properties":{"id":"DEBKGDL200002B7O","name":"B521"},"geometry":{"type":"Point","coordinates":[8.710590976329197,50.14995651881684]}},{"type":"Feature","properties":{"id":"DEBKGDL200004419","name":"B448"},"geometry":{"type":"Point","coordinates":[8.86835343930803,50.068674004523196]}},{"type":"Feature","properties":{"id":"DEBKGDL200003KKG","name":"B43a"},"geometry":{"type":"Point","coordinates":[8.891143561409367,50.08534282150582]}},{"type":"Feature","properties":{"id":"DEBKGDL200007QMV","name":"B276"},"geometry":{"type":"Point","coordinates":[9.314219625906329,50.160731658251635]}},{"type":"Feature","properties":{"id":"DEBKGDL200002XCX","name":"B457"},"geometry":{"type":"Point","coordinates":[9.131496472224374,50.20375130311932]}},{"type":"Feature","properties":{"id":"DEBKGDL200005EEH","name":"B292a"},"geometry":{"type":"Point","coordinates":[9.38394707628315,49.41246829221254]}},{"type":"Feature","properties":{"id":"DEBKGDL2000033UA","name":"B470"},"geometry":{"type":"Point","coordinates":[10.398439700438953,49.49039035819053]}},{"type":"Feature","properties":{"id":"DEBKGDL200003OKS","name":"B13"},"geometry":{"type":"Point","coordinates":[10.419178500977614,49.413060156840345]}},{"type":"Feature","properties":{"id":"DEBKGDL2000071HM","name":"B286"},"geometry":{"type":"Point","coordinates":[10.347653062327165,49.727069108564514]}},{"type":"Feature","properties":{"id":"DEBKGDL200006QGT","name":"B468"},"geometry":{"type":"Point","coordinates":[9.774571322708095,49.76772970879053]}},{"type":"Feature","properties":{"id":"DEBKGDL200002FUR","name":"E45"},"geometry":{"type":"Point","coordinates":[10.027857227044935,49.95445889215257]}},{"type":"Feature","properties":{"id":"DEBKGDL200001P6R","name":"B22"},"geometry":{"type":"Point","coordinates":[10.223010137350837,49.79586727681236]}},{"type":"Feature","properties":{"id":"DEBKGDL200002FV3","name":"E48"},"geometry":{"type":"Point","coordinates":[10.115738494247204,50.00155330774504]}},{"type":"Feature","properties":{"id":"DEBKGDL200001TAS","name":"B26a"},"geometry":{"type":"Point","coordinates":[10.039385133315928,50.00608561322815]}},{"type":"Feature","properties":{"id":"DEBKGDL200005HEK","name":"A70"},"geometry":{"type":"Point","coordinates":[10.119354634252389,50.00083250616737]}},{"type":"Feature","properties":{"id":"DEBKGDL200002G5X","name":"A71"},"geometry":{"type":"Point","coordinates":[10.15721882967888,50.02210218324785]}},{"type":"Feature","properties":{"id":"DEBKGDL200003OUF","name":"B303"},"geometry":{"type":"Point","coordinates":[10.082652455064098,50.059692912448924]}},{"type":"Feature","properties":{"id":"DEBKGDL200005HKP","name":"B287"},"geometry":{"type":"Point","coordinates":[10.079722446833436,50.19009528988758]}},{"type":"Feature","properties":{"id":"DEBKGDL200005E2K","name":"B456"},"geometry":{"type":"Point","coordinates":[8.461099694697005,50.38198310703632]}},{"type":"Feature","properties":{"id":"DEBKGDL200001OFV","name":"A485"},"geometry":{"type":"Point","coordinates":[8.646029779538706,50.53774753920685]}},{"type":"Feature","properties":{"id":"DEBKGDL200005ZA8","name":"A480"},"geometry":{"type":"Point","coordinates":[8.480604032778949,50.5767570839155]}},{"type":"Feature","properties":{"id":"DEBKGDL200002YD2","name":"B429"},"geometry":{"type":"Point","coordinates":[8.649847199189747,50.58770725880895]}},{"type":"Feature","properties":{"id":"DEBKGDL200007E0V","name":"B489"},"geometry":{"type":"Point","coordinates":[8.885723988296775,50.44252454261566]}},{"type":"Feature","properties":{"id":"DEBKGDL200007I7F","name":"B253"},"geometry":{"type":"Point","coordinates":[8.358628813384449,50.81246189733591]}},{"type":"Feature","properties":{"id":"DEBKGDL2000044LU","name":"B453"},"geometry":{"type":"Point","coordinates":[8.584679640823072,50.77294672184013]}},{"type":"Feature","properties":{"id":"DEBKGDL2000151EC","name":"B252"},"geometry":{"type":"Point","coordinates":[8.707156726013174,50.90538166001815]}},{"type":"Feature","properties":{"id":"DEBKGDL200004T1B","name":"B480"},"geometry":{"type":"Point","coordinates":[8.377176197584326,51.030523581566804]}},{"type":"Feature","properties":{"id":"DEBKGDL200007JZM","name":"B454"},"geometry":{"type":"Point","coordinates":[8.958710309570268,50.819048973464064]}},{"type":"Feature","properties":{"id":"DEBKGDL20001BC7E","name":"A49"},"geometry":{"type":"Point","coordinates":[9.011329331308346,50.80180516693664]}},{"type":"Feature","properties":{"id":"DEBKGDL200007VVM","name":"B254"},"geometry":{"type":"Point","coordinates":[9.288360520272356,50.7223415026268]}},{"type":"Feature","properties":{"id":"DEBKGDL200004786","name":"B485"},"geometry":{"type":"Point","coordinates":[9.146396133594118,51.067812059889185]}},{"type":"Feature","properties":{"id":"DEBKGDL200003JMS","name":"B450"},"geometry":{"type":"Point","coordinates":[9.270799162661852,51.16365643805683]}},{"type":"Feature","properties":{"id":"DEBKGDL2000047D0","name":"B279"},"geometry":{"type":"Point","coordinates":[9.753341524533859,50.44202865325127]}},{"type":"Feature","properties":{"id":"DEBKGDL200003JJ3","name":"B458"},"geometry":{"type":"Point","coordinates":[9.68016763743081,50.54954142460906]}},{"type":"Feature","properties":{"id":"DEBKGDL200003LZ2","name":"B84"},"geometry":{"type":"Point","coordinates":[9.823432850230851,50.70121761849231]}},{"type":"Feature","properties":{"id":"DEBKGDL2000065DU","name":"B285"},"geometry":{"type":"Point","coordinates":[10.311412882135759,50.445129457586916]}},{"type":"Feature","properties":{"id":"DEBKGDL200005JL2","name":"B284"},"geometry":{"type":"Point","coordinates":[9.920013757879982,50.44985666680975]}},{"type":"Feature","properties":{"id":"DEBKGDL200002ZY2","name":"B278"},"geometry":{"type":"Point","coordinates":[9.991872711218864,50.421558698871266]}},{"type":"Feature","properties":{"id":"DEBKGDL200014V3S","name":"B324"},"geometry":{"type":"Point","coordinates":[9.577676299615526,50.913944371135344]}},{"type":"Feature","properties":{"id":"DEBKGDL200007XYP","name":"B487"},"geometry":{"type":"Point","coordinates":[9.56253350545095,51.11094929204609]}},{"type":"Feature","properties":{"id":"DEBKGDL200005J6V","name":"B83"},"geometry":{"type":"Point","coordinates":[9.548463825932618,51.106175027050725]}},{"type":"Feature","properties":{"id":"DEBKGDL200007W0K","name":"B323"},"geometry":{"type":"Point","coordinates":[9.428666610491854,51.02734647934432]}},{"type":"Feature","properties":{"id":"DEBKGDL200001RX1","name":"B88"},"geometry":{"type":"Point","coordinates":[10.427635246112523,50.91077049366214]}},{"type":"Feature","properties":{"id":"DEBKGDL200007LPR","name":"B7"},"geometry":{"type":"Point","coordinates":[10.250236261879788,51.048322906040944]}},{"type":"Feature","properties":{"id":"DEBKGDL200007WMH","name":"B250"},"geometry":{"type":"Point","coordinates":[10.209926750415976,51.073685561557646]}},{"type":"Feature","properties":{"id":"DEBKGDL200003ME6","name":"B400"},"geometry":{"type":"Point","coordinates":[10.103735256721851,51.02331796941063]}},{"type":"Feature","properties":{"id":"DEBKGDL200007RES","name":"B452"},"geometry":{"type":"Point","coordinates":[9.998648484495423,51.15402066572864]}},{"type":"Feature","properties":{"id":"DEBKGDL200001TUV","name":"B249"},"geometry":{"type":"Point","coordinates":[10.17559149115296,51.1852892411958]}},{"type":"Feature","properties":{"id":"DEBKGDL200004X20","name":"B17"},"geometry":{"type":"Point","coordinates":[10.700021080765062,47.56438473312118]}},{"type":"Feature","properties":{"id":"DEBKGDL200001W2R","name":"B23"},"geometry":{"type":"Point","coordinates":[10.934186267673974,47.47388416220393]}},{"type":"Feature","properties":{"id":"DEBKGDL200006ISZ","name":"B472"},"geometry":{"type":"Point","coordinates":[10.690109040649624,47.784088651074185]}},{"type":"Feature","properties":{"id":"DEBKGDL200017EG4","name":"B2"},"geometry":{"type":"Point","coordinates":[11.272356616597595,47.44104638758294]}},{"type":"Feature","properties":{"id":"DEBKGDL200007QB1","name":"E533"},"geometry":{"type":"Point","coordinates":[11.258157452572664,47.49601079167897]}},{"type":"Feature","properties":{"id":"DEBKGDL200007MBS","name":"B11"},"geometry":{"type":"Point","coordinates":[11.281275448838137,47.516501784370746]}},{"type":"Feature","properties":{"id":"DEBKGDL2000150LV","name":"B23n"},"geometry":{"type":"Point","coordinates":[11.050062004769298,47.4806032705995]}},{"type":"Feature","properties":{"id":"DEBKGDL2000051EK","name":"A95"},"geometry":{"type":"Point","coordinates":[11.175001639258936,47.60439959659429]}},{"type":"Feature","properties":{"id":"DEBKGDL2000189Z8","name":"B2n"},"geometry":{"type":"Point","coordinates":[11.160454111211816,47.57935942855953]}},{"type":"Feature","properties":{"id":"DEBKGDL200003PN6","name":"A952"},"geometry":{"type":"Point","coordinates":[11.403166363776783,48.00884379901303]}},{"type":"Feature","properties":{"id":"DEBKGDL200001V3F","name":"B471"},"geometry":{"type":"Point","coordinates":[11.151596716821523,48.084855276929815]}},{"type":"Feature","properties":{"id":"DEBKGDL200001VCM","name":"A99"},"geometry":{"type":"Point","coordinates":[11.3959591419944,48.144707099725636]}},{"type":"Feature","properties":{"id":"DEBKGDL2000050TK","name":"B304"},"geometry":{"type":"Point","coordinates":[11.494542388908908,48.196888802177426]}},{"type":"Feature","properties":{"id":"DEBKGDL200007QWL","name":"B307"},"geometry":{"type":"Point","coordinates":[11.650014358280632,47.61162447519039]}},{"type":"Feature","properties":{"id":"DEBKGDL2000036FM","name":"B318"},"geometry":{"type":"Point","coordinates":[11.75224389280079,47.687924723812486]}},{"type":"Feature","properties":{"id":"DEBKGDL2000053NW","name":"A93"},"geometry":{"type":"Point","coordinates":[12.18805423151932,47.64598910579512]}},{"type":"Feature","properties":{"id":"DEBKGDL200007V2I","name":"B305"},"geometry":{"type":"Point","coordinates":[12.51389841716921,47.66452403110775]}},{"type":"Feature","properties":{"id":"DEBKGDL200004CON","name":"A995"},"geometry":{"type":"Point","coordinates":[11.607401533545428,48.03602178068575]}},{"type":"Feature","properties":{"id":"DEBKGDL200004DQY","name":"B2R"},"geometry":{"type":"Point","coordinates":[11.53742162905225,48.15880011632373]}},{"type":"Feature","properties":{"id":"DEBKGDL200001V96","name":"A94"},"geometry":{"type":"Point","coordinates":[11.687537528375483,48.137766762769985]}},{"type":"Feature","properties":{"id":"DEBKGDL200006WTG","name":"E552"},"geometry":{"type":"Point","coordinates":[11.776770250064477,48.14608466434566]}},{"type":"Feature","properties":{"id":"DEBKGDL200004DQX","name":"A92"},"geometry":{"type":"Point","coordinates":[11.534568408546995,48.253163879582424]}},{"type":"Feature","properties":{"id":"DEBKGDL200007Y3H","name":"E53"},"geometry":{"type":"Point","coordinates":[11.535833638286416,48.24316837584617]}},{"type":"Feature","properties":{"id":"DEBKGDL20000PTAQ","name":"A9"},"geometry":{"type":"Point","coordinates":[11.619375307191271,48.201524064611036]}},{"type":"Feature","properties":{"id":"DEBKGDL2000115VA","name":"B388"},"geometry":{"type":"Point","coordinates":[11.6873935351289,48.235711845750075]}},{"type":"Feature","properties":{"id":"DEBKGDL2000070I5","name":"B301"},"geometry":{"type":"Point","coordinates":[11.711700432112277,48.27300095576335]}},{"type":"Feature","properties":{"id":"DEBKGDL200001Z8K","name":"B15"},"geometry":{"type":"Point","coordinates":[12.128747794924951,47.96843151491942]}},{"type":"Feature","properties":{"id":"DEBKGDL200014HS0","name":"B15n"},"geometry":{"type":"Point","coordinates":[12.098884233824236,47.87903230676076]}},{"type":"Feature","properties":{"id":"DEBKGDL20000XXBV","name":"B15a"},"geometry":{"type":"Point","coordinates":[12.077554319398155,47.84361941545624]}},{"type":"Feature","properties":{"id":"DEBKGDL200001YA3","name":"B299"},"geometry":{"type":"Point","coordinates":[12.550702929662036,48.02636008714309]}},{"type":"Feature","properties":{"id":"DEBKGDL200001VDJ","name":"B16a"},"geometry":{"type":"Point","coordinates":[11.522794643563943,48.76048594575698]}},{"type":"Feature","properties":{"id":"DEBKGDL200001ZSU","name":"E56"},"geometry":{"type":"Point","coordinates":[12.059630183466732,48.99735044072649]}},{"type":"Feature","properties":{"id":"DEBKGDL20000UZ6N","name":"B20"},"geometry":{"type":"Point","coordinates":[12.620172330429275,48.950622125228094]}},{"type":"Feature","properties":{"id":"DEBKGDL2000053YB","name":"B85"},"geometry":{"type":"Point","coordinates":[12.507703776826306,49.20491482893864]}},{"type":"Feature","properties":{"id":"DEBKGDL200004WZ0","name":"E641"},"geometry":{"type":"Point","coordinates":[12.895059085966025,47.73972518060919]}},{"type":"Feature","properties":{"id":"DEBKGDL200007UL0","name":"B999"},"geometry":{"type":"Point","coordinates":[13.088877680154328,47.642088498166615]}},{"type":"Feature","properties":{"id":"DEBKGDL20000222G","name":"B319"},"geometry":{"type":"Point","coordinates":[13.049483249521657,47.6521797138404]}},{"type":"Feature","properties":{"id":"DEBKGDL200002MBW","name":"B21"},"geometry":{"type":"Point","coordinates":[12.940918500473163,47.770448241831815]}},{"type":"Feature","properties":{"id":"DEBKGDL200007QBM","name":"B306"},"geometry":{"type":"Point","coordinates":[12.749191887247566,47.75563331466726]}},{"type":"Feature","properties":{"id":"DEBKGDL2000078QM","name":"B588"},"geometry":{"type":"Point","coordinates":[12.697659408627995,48.25915515054583]}},{"type":"Feature","properties":{"id":"DEBKGDL2000021IX","name":"B512"},"geometry":{"type":"Point","coordinates":[13.413567426804336,48.46422752885053]}},{"type":"Feature","properties":{"id":"DEBKGDL200006DNW","name":"B533"},"geometry":{"type":"Point","coordinates":[13.041873369906849,48.77272511446891]}},{"type":"Feature","properties":{"id":"DEBKGDL200005M4Z","name":"B4"},"geometry":{"type":"Point","coordinates":[10.987941705789812,49.58219423018323]}},{"type":"Feature","properties":{"id":"DEBKGDL2000067D4","name":"A73"},"geometry":{"type":"Point","coordinates":[10.989155021459506,49.58717751036029]}},{"type":"Feature","properties":{"id":"DEBKGDL200004A3V","name":"B505"},"geometry":{"type":"Point","coordinates":[10.826336219380867,49.73566179851819]}},{"type":"Feature","properties":{"id":"DEBKGDL20000UZQR","name":"E51"},"geometry":{"type":"Point","coordinates":[11.266414510193496,49.481079890193755]}},{"type":"Feature","properties":{"id":"DEBKGDL200005T9U","name":"B4R"},"geometry":{"type":"Point","coordinates":[11.099523410025213,49.43135748875778]}},{"type":"Feature","properties":{"id":"DEBKGDL2000067P6","name":"B289"},"geometry":{"type":"Point","coordinates":[10.957832622964709,50.18586770810572]}},{"type":"Feature","properties":{"id":"DEBKGDL200007OM0","name":"B173"},"geometry":{"type":"Point","coordinates":[11.209427246621235,50.16771029671814]}},{"type":"Feature","properties":{"id":"DEBKGDL200003SY9","name":"E49"},"geometry":{"type":"Point","coordinates":[12.313963232933617,50.17652944151442]}},{"type":"Feature","properties":{"id":"DEBKGDL200004AB7","name":"B89"},"geometry":{"type":"Point","coordinates":[10.678958006227852,50.453188074698474]}},{"type":"Feature","properties":{"id":"DEBKGDL2000067V3","name":"B281"},"geometry":{"type":"Point","coordinates":[10.902869747484095,50.43597653629511]}},{"type":"Feature","properties":{"id":"DEBKGDL200014A7E","name":"B90"},"geometry":{"type":"Point","coordinates":[11.540883811971288,50.46417608035139]}},{"type":"Feature","properties":{"id":"DEBKGDL20000332Z","name":"B247"},"geometry":{"type":"Point","coordinates":[10.728358746687501,50.90319813157682]}},{"type":"Feature","properties":{"id":"DEBKGDL200012RPC","name":"B176"},"geometry":{"type":"Point","coordinates":[10.922720642570646,51.07780990259043]}},{"type":"Feature","properties":{"id":"DEBKGDL200005OCC","name":"B87"},"geometry":{"type":"Point","coordinates":[11.39781515642612,50.941027313617354]}},{"type":"Feature","properties":{"id":"DEBKGDL200014K47","name":"B90n"},"geometry":{"type":"Point","coordinates":[11.072808930912643,50.74477636730609]}},{"type":"Feature","properties":{"id":"DEBKGDL200004ZKD","name":"B86"},"geometry":{"type":"Point","coordinates":[11.030383771692023,51.181172928540875]}},{"type":"Feature","properties":{"id":"DEBKGDL200002JXS","name":"E441"},"geometry":{"type":"Point","coordinates":[11.813560530081274,50.335021005185766]}},{"type":"Feature","properties":{"id":"DEBKGDL200003STL","name":"A72"},"geometry":{"type":"Point","coordinates":[11.8312351857278,50.34190601307563]}},{"type":"Feature","properties":{"id":"DEBKGDL200004GSU","name":"B94"},"geometry":{"type":"Point","coordinates":[11.808098285021838,50.57757730988243]}},{"type":"Feature","properties":{"id":"DEBKGDL200002KDY","name":"B92"},"geometry":{"type":"Point","coordinates":[12.102593514010966,50.53775513853511]}},{"type":"Feature","properties":{"id":"DEBKGDL200005PTX","name":"B283"},"geometry":{"type":"Point","coordinates":[12.30611941277991,50.30980123044924]}},{"type":"Feature","properties":{"id":"DEBKGDL200010ZYJ","name":"B169"},"geometry":{"type":"Point","coordinates":[12.388771121249652,50.531395038435676]}},{"type":"Feature","properties":{"id":"DEBKGDL2000134BF","name":"B196"},"geometry":{"type":"Point","coordinates":[12.371974513093406,50.50601403474961]}},{"type":"Feature","properties":{"id":"DEBKGDL200007JS8","name":"B93"},"geometry":{"type":"Point","coordinates":[12.556175082258914,50.6557361491472]}},{"type":"Feature","properties":{"id":"DEBKGDL200007OYR","name":"B101"},"geometry":{"type":"Point","coordinates":[12.699103926980982,50.58620624128828]}},{"type":"Feature","properties":{"id":"DEBKGDL200007MCH","name":"B175"},"geometry":{"type":"Point","coordinates":[12.132566569418412,50.74733079771133]}},{"type":"Feature","properties":{"id":"DEBKGDL200002HGY","name":"B180"},"geometry":{"type":"Point","coordinates":[11.787366109466861,51.16403830549411]}},{"type":"Feature","properties":{"id":"DEBKGDL200014LL6","name":"B91n"},"geometry":{"type":"Point","coordinates":[12.09806495551829,51.102733887214626]}},{"type":"Feature","properties":{"id":"DEBKGDL2000079T5","name":"B91"},"geometry":{"type":"Point","coordinates":[12.041696684350914,51.14340333999022]}},{"type":"Feature","properties":{"id":"DEBKGDL200003X3I","name":"B95"},"geometry":{"type":"Point","coordinates":[12.679518061846291,50.942418544549795]}},{"type":"Feature","properties":{"id":"DEBKGDL2000038BC","name":"B171"},"geometry":{"type":"Point","coordinates":[13.079736376242412,50.653823913610466]}},{"type":"Feature","properties":{"id":"DEBKGDL200003A4M","name":"B174"},"geometry":{"type":"Point","coordinates":[13.182718461740038,50.642708177399896]}},{"type":"Feature","properties":{"id":"DEBKGDL20000382K","name":"B107"},"geometry":{"type":"Point","coordinates":[12.899692085919284,50.89848577788928]}},{"type":"Feature","properties":{"id":"DEBKGDL20000PTPR","name":"B173n"},"geometry":{"type":"Point","coordinates":[13.055423188626843,50.85795814416408]}},{"type":"Feature","properties":{"id":"DEBKGDL200003VFA","name":"A14"},"geometry":{"type":"Point","coordinates":[13.29003463905864,51.08158151387427]}},{"type":"Feature","properties":{"id":"DEBKGDL200003BWV","name":"B170"},"geometry":{"type":"Point","coordinates":[13.673082042828174,50.841939700371604]}},{"type":"Feature","properties":{"id":"DEBKGDL2000056BG","name":"B6"},"geometry":{"type":"Point","coordinates":[13.547808538064988,51.119309020534814]}},{"type":"Feature","properties":{"id":"DEBKGDL200002NQX","name":"E55"},"geometry":{"type":"Point","coordinates":[13.768622196275508,50.992319921124604]}},{"type":"Feature","properties":{"id":"DEBKGDL200006DXH","name":"A17"},"geometry":{"type":"Point","coordinates":[13.728367233854371,51.007213306211526]}},{"type":"Feature","properties":{"id":"DEBKGDL200006JB7","name":"B97"},"geometry":{"type":"Point","coordinates":[13.748629036965196,51.06762726311051]}},{"type":"Feature","properties":{"id":"DEBKGDL200002OJ3","name":"B172"},"geometry":{"type":"Point","coordinates":[14.037624506902397,50.92074344017399]}},{"type":"Feature","properties":{"id":"DEBKGDL200014LP7","name":"B172n"},"geometry":{"type":"Point","coordinates":[13.945500304176278,50.94248808143397]}},{"type":"Feature","properties":{"id":"DEBKGDL20000UWRF","name":"B172a"},"geometry":{"type":"Point","coordinates":[13.909563820358393,50.94639209006856]}},{"type":"Feature","properties":{"id":"DEBKGDL2000071T3","name":"B98"},"geometry":{"type":"Point","coordinates":[14.19507469823905,51.10544750087909]}},{"type":"Feature","properties":{"id":"DEBKGDL200005U09","name":"B96"},"geometry":{"type":"Point","coordinates":[14.646531480706933,50.99106092019336]}},{"type":"Feature","properties":{"id":"DEBKGDL2000021T7","name":"B178"},"geometry":{"type":"Point","coordinates":[14.839777665884004,50.905054982522444]}},{"type":"Feature","properties":{"id":"DEBKGDL200004KMP","name":"B99"},"geometry":{"type":"Point","coordinates":[14.856901973191317,50.922791993226]}},{"type":"Feature","properties":{"id":"DEBKGDL200002PHZ","name":"B178n"},"geometry":{"type":"Point","coordinates":[14.745289534768311,50.966792405683975]}},{"type":"Feature","properties":{"id":"DEBKGDL200005UT2","name":"A52"},"geometry":{"type":"Point","coordinates":[6.132459085527794,51.21218509709863]}},{"type":"Feature","properties":{"id":"DEBKGDL200007LTB","name":"B509"},"geometry":{"type":"Point","coordinates":[6.274235344460633,51.283405767105556]}},{"type":"Feature","properties":{"id":"DEBKGDL2000055VX","name":"A40"},"geometry":{"type":"Point","coordinates":[6.265483624231784,51.38796611690982]}},{"type":"Feature","properties":{"id":"DEBKGDL200003Y3A","name":"E34"},"geometry":{"type":"Point","coordinates":[6.267309962305735,51.38752733498579]}},{"type":"Feature","properties":{"id":"DEBKGDL200002NS9","name":"B58"},"geometry":{"type":"Point","coordinates":[6.2142664004247665,51.403306024282685]}},{"type":"Feature","properties":{"id":"DEBKGDL200007HI1","name":"B230"},"geometry":{"type":"Point","coordinates":[6.5664195273460235,51.17364993399679]}},{"type":"Feature","properties":{"id":"DEBKGDL200004NHY","name":"B288"},"geometry":{"type":"Point","coordinates":[6.64965492909487,51.34725672740655]}},{"type":"Feature","properties":{"id":"DEBKGDL200004NA2","name":"B326"},"geometry":{"type":"Point","coordinates":[6.767362849385156,51.20030393139517]}},{"type":"Feature","properties":{"id":"DEBKGDL200003B9F","name":"B228"},"geometry":{"type":"Point","coordinates":[6.873076215949177,51.16105806542325]}},{"type":"Feature","properties":{"id":"DEBKGDL2000058A3","name":"A524"},"geometry":{"type":"Point","coordinates":[6.741395267290591,51.351820789504245]}},{"type":"Feature","properties":{"id":"DEBKGDL200014B0Z","name":"B227"},"geometry":{"type":"Point","coordinates":[6.894613893387073,51.341145844905576]}},{"type":"Feature","properties":{"id":"DEBKGDL200005B5T","name":"A42"},"geometry":{"type":"Point","coordinates":[6.673621048885355,51.48028018846651]}},{"type":"Feature","properties":{"id":"DEBKGDL200005V2U","name":"B528"},"geometry":{"type":"Point","coordinates":[6.554196780815426,51.481547709440825]}},{"type":"Feature","properties":{"id":"DEBKGDL200007DFD","name":"B510"},"geometry":{"type":"Point","coordinates":[6.474043261555609,51.4759353743437]}},{"type":"Feature","properties":{"id":"DEBKGDL200006QP7","name":"B223"},"geometry":{"type":"Point","coordinates":[6.877474256280898,51.43217446906742]}},{"type":"Feature","properties":{"id":"DEBKGDL200014CFQ","name":"B231"},"geometry":{"type":"Point","coordinates":[6.960192046839095,51.46259859358762]}},{"type":"Feature","properties":{"id":"DEBKGDL200003EXU","name":"A31"},"geometry":{"type":"Point","coordinates":[6.937537160586234,51.58680635360409]}},{"type":"Feature","properties":{"id":"DEBKGDL20000596C","name":"A2"},"geometry":{"type":"Point","coordinates":[6.9646085925571395,51.55436901775213]}},{"type":"Feature","properties":{"id":"DEBKGDL200003ZOF","name":"A516"},"geometry":{"type":"Point","coordinates":[6.866968948835481,51.50257798416209]}},{"type":"Feature","properties":{"id":"DEBKGDL200007FV6","name":"B67"},"geometry":{"type":"Point","coordinates":[6.373829469721006,51.746825879903426]}},{"type":"Feature","properties":{"id":"DEBKGDL200007LTA","name":"B504"},"geometry":{"type":"Point","coordinates":[6.034304506671086,51.7629131216287]}},{"type":"Feature","properties":{"id":"DEBKGDL200005T9J","name":"B220"},"geometry":{"type":"Point","coordinates":[6.237759562892343,51.84789343949289]}},{"type":"Feature","properties":{"id":"DEBKGDL200005SMO","name":"B70"},"geometry":{"type":"Point","coordinates":[6.6403059495184085,51.67285819239152]}},{"type":"Feature","properties":{"id":"DEBKGDL200005SMA","name":"B473"},"geometry":{"type":"Point","coordinates":[6.604509186939229,51.69173675931707]}},{"type":"Feature","properties":{"id":"DEBKGDL200015QA6","name":"B85n"},"geometry":{"type":"Point","coordinates":[6.646396444215325,51.65776962915083]}},{"type":"Feature","properties":{"id":"DEBKGDL20000253T","name":"B224"},"geometry":{"type":"Point","coordinates":[6.952251424642996,51.6855766857029]}},{"type":"Feature","properties":{"id":"DEBKGDL200003EXZ","name":"B225"},"geometry":{"type":"Point","coordinates":[6.947781106795703,51.641326372344906]}},{"type":"Feature","properties":{"id":"DEBKGDL20000402X","name":"B525"},"geometry":{"type":"Point","coordinates":[6.879692339967017,51.926828385221924]}},{"type":"Feature","properties":{"id":"DEBKGDL200003BN6","name":"A535"},"geometry":{"type":"Point","coordinates":[7.088250382846583,51.25508232740151]}},{"type":"Feature","properties":{"id":"DEBKGDL200004MOI","name":"B234"},"geometry":{"type":"Point","coordinates":[7.274924254515723,51.35564226901181]}},{"type":"Feature","properties":{"id":"DEBKGDL200004MOJ","name":"A43"},"geometry":{"type":"Point","coordinates":[7.274127972847892,51.35698065469008]}},{"type":"Feature","properties":{"id":"DEBKGDL200005BAJ","name":"B483"},"geometry":{"type":"Point","coordinates":[7.263803776225652,51.286229389176654]}},{"type":"Feature","properties":{"id":"DEBKGDL20000412U","name":"B226"},"geometry":{"type":"Point","coordinates":[7.439106834257216,51.38617284092551]}},{"type":"Feature","properties":{"id":"DEBKGDL20000SS4A","name":"A448"},"geometry":{"type":"Point","coordinates":[7.2626586436447935,51.462449834808545]}},{"type":"Feature","properties":{"id":"DEBKGDL200007EEA","name":"B235"},"geometry":{"type":"Point","coordinates":[7.323896657824614,51.472196585567545]}},{"type":"Feature","properties":{"id":"DEBKGDL200005WTZ","name":"B233"},"geometry":{"type":"Point","coordinates":[7.706782688279512,51.39461056290311]}},{"type":"Feature","properties":{"id":"DEBKGDL2000041JD","name":"B515"},"geometry":{"type":"Point","coordinates":[7.844056620779016,51.3968729764989]}},{"type":"Feature","properties":{"id":"DEBKGDL200004OW2","name":"E331"},"geometry":{"type":"Point","coordinates":[7.712699869161101,51.52507214281678]}},{"type":"Feature","properties":{"id":"DEBKGDL2000041P7","name":"A445"},"geometry":{"type":"Point","coordinates":[7.957420498177575,51.45845793829916]}},{"type":"Feature","properties":{"id":"DEBKGDL200007DVZ","name":"B516"},"geometry":{"type":"Point","coordinates":[8.103061920895238,51.50484641017604]}},{"type":"Feature","properties":{"id":"DEBKGDL200003IAI","name":"B475"},"geometry":{"type":"Point","coordinates":[8.108568638241202,51.609502257468904]}},{"type":"Feature","properties":{"id":"DEBKGDL20000267P","name":"B63"},"geometry":{"type":"Point","coordinates":[7.845387728312575,51.636780028487884]}},{"type":"Feature","properties":{"id":"DEBKGDL2000150ZQ","name":"B474"},"geometry":{"type":"Point","coordinates":[7.240885146956165,51.86242002622799]}},{"type":"Feature","properties":{"id":"DEBKGDL2000150Z9","name":"B67n"},"geometry":{"type":"Point","coordinates":[7.232892436075645,51.86182346863323]}},{"type":"Feature","properties":{"id":"DEBKGDL200015RHI","name":"B474n"},"geometry":{"type":"Point","coordinates":[7.369566057244336,51.6600200554808]}},{"type":"Feature","properties":{"id":"DEBKGDL200012BNA","name":"B58n"},"geometry":{"type":"Point","coordinates":[8.046043619877498,51.77531251890234]}},{"type":"Feature","properties":{"id":"DEBKGDL200003FH9","name":"B481"},"geometry":{"type":"Point","coordinates":[7.60972490478391,52.112317561615725]}},{"type":"Feature","properties":{"id":"DEBKGDL2000041UP","name":"B219"},"geometry":{"type":"Point","coordinates":[7.609666830648628,52.11367910180853]}},{"type":"Feature","properties":{"id":"DEBKGDL200005DCA","name":"B64"},"geometry":{"type":"Point","coordinates":[7.811408127319149,51.98447020364466]}},{"type":"Feature","properties":{"id":"DEBKGDL200007BEV","name":"B513"},"geometry":{"type":"Point","coordinates":[8.034722783128231,51.98104620000642]}},{"type":"Feature","properties":{"id":"DEBKGDL2000041ZH","name":"B476"},"geometry":{"type":"Point","coordinates":[8.039222487430433,52.00638989481578]}},{"type":"Feature","properties":{"id":"DEBKGDL2000025C4","name":"B403"},"geometry":{"type":"Point","coordinates":[6.843596144646087,52.55256849387036]}},{"type":"Feature","properties":{"id":"DEBKGDL200003DIV","name":"E30"},"geometry":{"type":"Point","coordinates":[7.17222956612347,52.34166870291852]}},{"type":"Feature","properties":{"id":"DEBKGDL200003DIS","name":"A30"},"geometry":{"type":"Point","coordinates":[7.148952099063919,52.337244722938266]}},{"type":"Feature","properties":{"id":"DEBKGDL20000UX9Z","name":"B213"},"geometry":{"type":"Point","coordinates":[7.085225289108211,52.42877325336522]}},{"type":"Feature","properties":{"id":"DEBKGDL200004O0V","name":"B214"},"geometry":{"type":"Point","coordinates":[7.382656581053967,52.51015248340507]}},{"type":"Feature","properties":{"id":"DEBKGDL200007D56","name":"B68"},"geometry":{"type":"Point","coordinates":[8.089051643779566,52.224262498176245]}},{"type":"Feature","properties":{"id":"DEBKGDL200003ICU","name":"A33"},"geometry":{"type":"Point","coordinates":[8.087486973787584,52.2433941048741]}},{"type":"Feature","properties":{"id":"DEBKGDL20000271F","name":"B218"},"geometry":{"type":"Point","coordinates":[8.058014568850282,52.39534201165548]}},{"type":"Feature","properties":{"id":"DEBKGDL200007KBS","name":"B402"},"geometry":{"type":"Point","coordinates":[7.6659267079098665,52.5303073816855]}},{"type":"Feature","properties":{"id":"DEBKGDL200003E1Y","name":"E233"},"geometry":{"type":"Point","coordinates":[7.412872092545646,52.70132252269924]}},{"type":"Feature","properties":{"id":"DEBKGDL200004NUV","name":"B408"},"geometry":{"type":"Point","coordinates":[7.163350728930123,52.83049775483917]}},{"type":"Feature","properties":{"id":"DEBKGDL200002SRF","name":"B401"},"geometry":{"type":"Point","coordinates":[7.389960377577781,52.986969135596055]}},{"type":"Feature","properties":{"id":"DEBKGDL200004QA2","name":"B72"},"geometry":{"type":"Point","coordinates":[7.896215551365973,52.983757753574594]}},{"type":"Feature","properties":{"id":"DEBKGDL200007EK5","name":"B511"},"geometry":{"type":"Point","coordinates":[8.242760649175235,51.214256828783896]}},{"type":"Feature","properties":{"id":"DEBKGDL200002YP5","name":"B251"},"geometry":{"type":"Point","coordinates":[8.589097551252268,51.379021698413666]}},{"type":"Feature","properties":{"id":"DEBKGDL200002XXY","name":"B241"},"geometry":{"type":"Point","coordinates":[9.15890581698535,51.53628118899293]}},{"type":"Feature","properties":{"id":"DEBKGDL200005C2L","name":"B61"},"geometry":{"type":"Point","coordinates":[8.327243703300233,51.85132514190965]}},{"type":"Feature","properties":{"id":"DEBKGDL200006ZM6","name":"B66"},"geometry":{"type":"Point","coordinates":[8.565668297661286,52.002959295461224]}},{"type":"Feature","properties":{"id":"DEBKGDL2000044ZU","name":"B239"},"geometry":{"type":"Point","coordinates":[8.653734300900258,52.10384078754335]}},{"type":"Feature","properties":{"id":"DEBKGDL200005F6H","name":"B238"},"geometry":{"type":"Point","coordinates":[8.907150818285963,52.059285170211524]}},{"type":"Feature","properties":{"id":"DEBKGDL200007KRY","name":"B80"},"geometry":{"type":"Point","coordinates":[9.770360958946757,51.394193178528795]}},{"type":"Feature","properties":{"id":"DEBKGDL200007P9M","name":"B451"},"geometry":{"type":"Point","coordinates":[9.709158481787217,51.25788027856555]}},{"type":"Feature","properties":{"id":"DEBKGDL200001PH6","name":"B496"},"geometry":{"type":"Point","coordinates":[9.627144120484257,51.37567202550049]}},{"type":"Feature","properties":{"id":"DEBKGDL200007KW4","name":"B446"},"geometry":{"type":"Point","coordinates":[9.856158331077854,51.64520250569813]}},{"type":"Feature","properties":{"id":"DEBKGDL200012SBZ","name":"B241n"},"geometry":{"type":"Point","coordinates":[9.741163338761957,51.65963468335802]}},{"type":"Feature","properties":{"id":"DEBKGDL2000079GX","name":"A38"},"geometry":{"type":"Point","coordinates":[9.909673458184507,51.40928565668109]}},{"type":"Feature","properties":{"id":"DEBKGDL200002GP8","name":"B243"},"geometry":{"type":"Point","coordinates":[10.322248224216793,51.66606206516402]}},{"type":"Feature","properties":{"id":"DEBKGDL200007OLR","name":"B497"},"geometry":{"type":"Point","coordinates":[9.521556238500722,51.753269830071034]}},{"type":"Feature","properties":{"id":"DEBKGDL200004VT5","name":"B64a"},"geometry":{"type":"Point","coordinates":[9.572150202390294,51.89169875574368]}},{"type":"Feature","properties":{"id":"DEBKGDL20000793H","name":"B240"},"geometry":{"type":"Point","coordinates":[9.503001884395882,51.98617006950333]}},{"type":"Feature","properties":{"id":"DEBKGDL200007K5S","name":"B217"},"geometry":{"type":"Point","coordinates":[9.413238215511075,52.11383405114104]}},{"type":"Feature","properties":{"id":"DEBKGDL200002D0O","name":"B442"},"geometry":{"type":"Point","coordinates":[9.506096230239699,52.14838996432334]}},{"type":"Feature","properties":{"id":"DEBKGDL200012S9R","name":"B1n"},"geometry":{"type":"Point","coordinates":[9.576009724740214,52.109087169886266]}},{"type":"Feature","properties":{"id":"DEBKGDL200012S8X","name":"B240n"},"geometry":{"type":"Point","coordinates":[9.639562538797891,51.94358993995873]}},{"type":"Feature","properties":{"id":"DEBKGDL20000PSG4","name":"B445"},"geometry":{"type":"Point","coordinates":[10.011277211903492,51.82794022678273]}},{"type":"Feature","properties":{"id":"DEBKGDL20000318Y","name":"B248"},"geometry":{"type":"Point","coordinates":[10.06079437965819,51.7831016671716]}},{"type":"Feature","properties":{"id":"DEBKGDL200007L6H","name":"B498"},"geometry":{"type":"Point","coordinates":[10.43672682520964,51.7903798692407]}},{"type":"Feature","properties":{"id":"DEBKGDL200007K1V","name":"B242"},"geometry":{"type":"Point","coordinates":[10.363569855939375,51.792868421321444]}},{"type":"Feature","properties":{"id":"DEBKGDL200005M6W","name":"B82"},"geometry":{"type":"Point","coordinates":[10.416716014939851,51.908024628162664]}},{"type":"Feature","properties":{"id":"DEBKGDL200002H22","name":"A39"},"geometry":{"type":"Point","coordinates":[10.229049877277,52.1231932345807]}},{"type":"Feature","properties":{"id":"DEBKGDL200004WWI","name":"B444"},"geometry":{"type":"Point","coordinates":[10.168527337171529,52.11313519825052]}},{"type":"Feature","properties":{"id":"DEBKGDL200007AME","name":"B65"},"geometry":{"type":"Point","coordinates":[8.368242532947692,52.3222403131046]}},{"type":"Feature","properties":{"id":"DEBKGDL200007K8Y","name":"B514"},"geometry":{"type":"Point","coordinates":[8.856650406080185,52.18259341272688]}},{"type":"Feature","properties":{"id":"DEBKGDL200005GRU","name":"B611"},"geometry":{"type":"Point","coordinates":[8.760634324869518,52.16118695295016]}},{"type":"Feature","properties":{"id":"DEBKGDL20000XZNA","name":"B482"},"geometry":{"type":"Point","coordinates":[8.877239367335129,52.21308452862315]}},{"type":"Feature","properties":{"id":"DEBKGDL20001485D","name":"B215"},"geometry":{"type":"Point","coordinates":[9.142116150634475,52.58893377756492]}},{"type":"Feature","properties":{"id":"DEBKGDL200007T18","name":"B441"},"geometry":{"type":"Point","coordinates":[9.196542554796984,52.43819741261895]}},{"type":"Feature","properties":{"id":"DEBKGDL200007WOY","name":"B69"},"geometry":{"type":"Point","coordinates":[8.228097449410296,52.81096149230009]}},{"type":"Feature","properties":{"id":"DEBKGDL200012PJB","name":"A29"},"geometry":{"type":"Point","coordinates":[8.227470848814972,52.850360371648726]}},{"type":"Feature","properties":{"id":"DEBKGDL200007GU1","name":"E22"},"geometry":{"type":"Point","coordinates":[8.317393142838954,53.07941897650764]}},{"type":"Feature","properties":{"id":"DEBKGDL2000045JU","name":"A28"},"geometry":{"type":"Point","coordinates":[8.623637672127437,53.035476752288304]}},{"type":"Feature","properties":{"id":"DEBKGDL200004TPJ","name":"B212"},"geometry":{"type":"Point","coordinates":[8.531468329775262,53.05719592153021]}},{"type":"Feature","properties":{"id":"DEBKGDL200005IPX","name":"B209"},"geometry":{"type":"Point","coordinates":[9.250167897564843,52.70188566576468]}},{"type":"Feature","properties":{"id":"DEBKGDL2000063WD","name":"B439"},"geometry":{"type":"Point","coordinates":[8.714611736342064,52.95977900751781]}},{"type":"Feature","properties":{"id":"DEBKGDL2000045Q2","name":"B322"},"geometry":{"type":"Point","coordinates":[8.723167540901256,52.99456606160515]}},{"type":"Feature","properties":{"id":"DEBKGDL200002YUW","name":"E234"},"geometry":{"type":"Point","coordinates":[8.940359061885776,53.07895094763268]}},{"type":"Feature","properties":{"id":"DEBKGDL200010ZAC","name":"A281"},"geometry":{"type":"Point","coordinates":[8.739001352189025,53.078234504271954]}},{"type":"Feature","properties":{"id":"DEBKGDL2000045QJ","name":"B75"},"geometry":{"type":"Point","coordinates":[8.755558840807982,53.05622673565446]}},{"type":"Feature","properties":{"id":"DEBKGDL200001QX6","name":"B6n"},"geometry":{"type":"Point","coordinates":[8.86040565358121,53.02709445020576]}},{"type":"Feature","properties":{"id":"DEBKGDL200002AZQ","name":"A27"},"geometry":{"type":"Point","coordinates":[8.907174046902215,53.081213236394454]}},{"type":"Feature","properties":{"id":"DEBKGDL2000079YI","name":"B443"},"geometry":{"type":"Point","coordinates":[9.819049454555653,52.29436810271952]}},{"type":"Feature","properties":{"id":"DEBKGDL20000652C","name":"A37"},"geometry":{"type":"Point","coordinates":[9.827458127293326,52.30747542208109]}},{"type":"Feature","properties":{"id":"DEBKGDL20000658R","name":"A352"},"geometry":{"type":"Point","coordinates":[9.76913598947137,52.512180739908736]}},{"type":"Feature","properties":{"id":"DEBKGDL20000773N","name":"B522"},"geometry":{"type":"Point","coordinates":[9.720435221018597,52.44028236027529]}},{"type":"Feature","properties":{"id":"DEBKGDL20000655V","name":"B494"},"geometry":{"type":"Point","coordinates":[10.016852327196975,52.24470137545974]}},{"type":"Feature","properties":{"id":"DEBKGDL200007NKV","name":"B188"},"geometry":{"type":"Point","coordinates":[10.072668498859404,52.45229318066032]}},{"type":"Feature","properties":{"id":"DEBKGDL200006JKO","name":"B191"},"geometry":{"type":"Point","coordinates":[10.093070667460378,52.632937966140084]}},{"type":"Feature","properties":{"id":"DEBKGDL2000079W3","name":"B440"},"geometry":{"type":"Point","coordinates":[9.6329062765451,52.9638472885743]}},{"type":"Feature","properties":{"id":"DEBKGDL20000UVWM","name":"B71"},"geometry":{"type":"Point","coordinates":[9.810311899687962,53.00151536734434]}},{"type":"Feature","properties":{"id":"DEBKGDL200007M1M","name":"B436"},"geometry":{"type":"Point","coordinates":[7.4358995336313605,53.23118590854246]}},{"type":"Feature","properties":{"id":"DEBKGDL2000043KV","name":"B210"},"geometry":{"type":"Point","coordinates":[7.2075271086284305,53.38793564970179]}},{"type":"Feature","properties":{"id":"DEBKGDL200004LYO","name":"A280"},"geometry":{"type":"Point","coordinates":[7.242504036746871,53.18166633982118]}},{"type":"Feature","properties":{"id":"DEBKGDL200012BL8","name":"B210n"},"geometry":{"type":"Point","coordinates":[7.224555337891887,53.35199094998133]}},{"type":"Feature","properties":{"id":"DEBKGDL200007JLE","name":"B438"},"geometry":{"type":"Point","coordinates":[7.589724217477711,53.13673562717307]}},{"type":"Feature","properties":{"id":"DEBKGDL2000027EV","name":"B437"},"geometry":{"type":"Point","coordinates":[7.857190197205453,53.433040521517995]}},{"type":"Feature","properties":{"id":"DEBKGDL200007E7C","name":"B461"},"geometry":{"type":"Point","coordinates":[7.799064388605528,53.58059516570928]}},{"type":"Feature","properties":{"id":"DEBKGDL20000609D","name":"B211"},"geometry":{"type":"Point","coordinates":[8.32726085097557,53.265619662269856]}},{"type":"Feature","properties":{"id":"DEBKGDL20000608M","name":"A293"},"geometry":{"type":"Point","coordinates":[8.20869472308148,53.16200985910859]}},{"type":"Feature","properties":{"id":"DEBKGDL200010P5F","name":"A270"},"geometry":{"type":"Point","coordinates":[8.638095235793418,53.17550901402613]}},{"type":"Feature","properties":{"id":"DEBKGDL200004FDH","name":"B74"},"geometry":{"type":"Point","coordinates":[8.54028949624022,53.200009859358715]}},{"type":"Feature","properties":{"id":"DEBKGDL20000JJA4","name":"B74z"},"geometry":{"type":"Point","coordinates":[8.712645715441292,53.1810830292179]}},{"type":"Feature","properties":{"id":"DEBKGDL200006QK2","name":"B495"},"geometry":{"type":"Point","coordinates":[9.056321750017064,53.5383532203771]}},{"type":"Feature","properties":{"id":"DEBKGDL200004R0T","name":"B73"},"geometry":{"type":"Point","coordinates":[9.109934889892214,53.719534732294335]}},{"type":"Feature","properties":{"id":"DEBKGDL200002D46","name":"B5"},"geometry":{"type":"Point","coordinates":[9.168154011117643,53.9239612503059]}},{"type":"Feature","properties":{"id":"DEBKGDL20000PTA1","name":"A26"},"geometry":{"type":"Point","coordinates":[9.501294538802929,53.58227243227044]}},{"type":"Feature","properties":{"id":"DEBKGDL200006SHC","name":"B431"},"geometry":{"type":"Point","coordinates":[9.787012203355532,53.57975068503486]}},{"type":"Feature","properties":{"id":"DEBKGDL200003QBJ","name":"B404"},"geometry":{"type":"Point","coordinates":[10.334585147469152,53.33379915623728]}},{"type":"Feature","properties":{"id":"DEBKGDL200001T6F","name":"A261"},"geometry":{"type":"Point","coordinates":[9.873349674426127,53.384634024875176]}},{"type":"Feature","properties":{"id":"DEBKGDL2000072GV","name":"B447"},"geometry":{"type":"Point","coordinates":[9.9662917960426,53.59314309650087]}},{"type":"Feature","properties":{"id":"DEBKGDL200004Y7N","name":"A255"},"geometry":{"type":"Point","coordinates":[10.025855249654537,53.52038584097556]}},{"type":"Feature","properties":{"id":"DEBKGDL20000UVTF","name":"B433"},"geometry":{"type":"Point","coordinates":[9.984097815499185,53.59814172765388]}},{"type":"Feature","properties":{"id":"DEBKGDL200002F0A","name":"A25"},"geometry":{"type":"Point","coordinates":[10.115965054849662,53.4869208496949]}},{"type":"Feature","properties":{"id":"DEBKGDL200006QLN","name":"A24"},"geometry":{"type":"Point","coordinates":[10.124665189941332,53.56782629857076]}},{"type":"Feature","properties":{"id":"DEBKGDL200006RXA","name":"E26"},"geometry":{"type":"Point","coordinates":[10.202975798699121,53.559373671232315]}},{"type":"Feature","properties":{"id":"DEBKGDL200006UK6","name":"B207"},"geometry":{"type":"Point","coordinates":[10.217059632248125,53.486740786487225]}},{"type":"Feature","properties":{"id":"DEBKGDL200004BZY","name":"A23"},"geometry":{"type":"Point","coordinates":[9.819811863492795,53.654319005565036]}},{"type":"Feature","properties":{"id":"DEBKGDL200002Z7H","name":"B430"},"geometry":{"type":"Point","coordinates":[9.76162418067646,54.06764677031073]}},{"type":"Feature","properties":{"id":"DEBKGDL200004TY9","name":"B206"},"geometry":{"type":"Point","coordinates":[9.75337215674152,53.93105111031579]}},{"type":"Feature","properties":{"id":"DEBKGDL200014A8V","name":"B77"},"geometry":{"type":"Point","coordinates":[9.577619471825408,53.97869293531261]}},{"type":"Feature","properties":{"id":"DEBKGDL200001TDG","name":"B432"},"geometry":{"type":"Point","coordinates":[9.960859856414015,53.657440949803316]}},{"type":"Feature","properties":{"id":"DEBKGDL200001SHK","name":"A21"},"geometry":{"type":"Point","coordinates":[10.321715069882178,53.76904758645113]}},{"type":"Feature","properties":{"id":"DEBKGDL200004B2R","name":"B208"},"geometry":{"type":"Point","coordinates":[10.38099507672094,53.8093774333896]}},{"type":"Feature","properties":{"id":"DEBKGDL200004B6T","name":"B205"},"geometry":{"type":"Point","coordinates":[9.964247024188273,54.041676537204076]}},{"type":"Feature","properties":{"id":"DEBKGDL20000UV7I","name":"A20"},"geometry":{"type":"Point","coordinates":[10.39800176647271,53.91837729245694]}},{"type":"Feature","properties":{"id":"DEBKGDL200002WOW","name":"B203"},"geometry":{"type":"Point","coordinates":[8.875408318397998,54.142838671743306]}},{"type":"Feature","properties":{"id":"DEBKGDL200002BIO","name":"B202"},"geometry":{"type":"Point","coordinates":[8.746067501789131,54.32731938719756]}},{"type":"Feature","properties":{"id":"DEBKGDL200001PT7","name":"B201"},"geometry":{"type":"Point","coordinates":[9.115639727008276,54.487143141473005]}},{"type":"Feature","properties":{"id":"DEBKGDL200005J4R","name":"B200"},"geometry":{"type":"Point","coordinates":[9.088439520320224,54.49679833209366]}},{"type":"Feature","properties":{"id":"DEBKGDL200002W9G","name":"B199"},"geometry":{"type":"Point","coordinates":[9.177656702417202,54.76033443084236]}},{"type":"Feature","properties":{"id":"DEBKGDL200005I48","name":"A210"},"geometry":{"type":"Point","coordinates":[9.732476648036364,54.298584740353235]}},{"type":"Feature","properties":{"id":"DEBKGDL200004U91","name":"B76"},"geometry":{"type":"Point","coordinates":[9.510161877465842,54.528581264872756]}},{"type":"Feature","properties":{"id":"DEBKGDL200002G2T","name":"A215"},"geometry":{"type":"Point","coordinates":[10.007939577953195,54.22333052732584]}},{"type":"Feature","properties":{"id":"DEBKGDL200004BD5","name":"B502"},"geometry":{"type":"Point","coordinates":[10.15956296913959,54.31217939875541]}},{"type":"Feature","properties":{"id":"DEBKGDL200006WFO","name":"B503"},"geometry":{"type":"Point","coordinates":[10.141544689815825,54.42065393414548]}},{"type":"Feature","properties":{"id":"DEBKGDL200014AUU","name":"B81"},"geometry":{"type":"Point","coordinates":[10.8120650727807,51.622168850770436]}},{"type":"Feature","properties":{"id":"DEBKGDL2000166K4","name":"B243n"},"geometry":{"type":"Point","coordinates":[10.660070429205014,51.51496513961004]}},{"type":"Feature","properties":{"id":"DEBKGDL200014BFD","name":"B185"},"geometry":{"type":"Point","coordinates":[11.130599647429996,51.66480027962259]}},{"type":"Feature","properties":{"id":"DEBKGDL200007CNC","name":"B244"},"geometry":{"type":"Point","coordinates":[10.792200323269807,51.84182127671839]}},{"type":"Feature","properties":{"id":"DEBKGDL200003PKQ","name":"A36"},"geometry":{"type":"Point","coordinates":[10.99807690567105,51.80011683938521]}},{"type":"Feature","properties":{"id":"DEBKGDL200004A92","name":"A369"},"geometry":{"type":"Point","coordinates":[10.553885565990468,51.907102685183034]}},{"type":"Feature","properties":{"id":"DEBKGDL200007O31","name":"B79"},"geometry":{"type":"Point","coordinates":[11.002409986257875,51.911917558738125]}},{"type":"Feature","properties":{"id":"DEBKGDL200007XTW","name":"B245"},"geometry":{"type":"Point","coordinates":[11.122882267257454,51.97366457286221]}},{"type":"Feature","properties":{"id":"DEBKGDL200001X2W","name":"B246"},"geometry":{"type":"Point","coordinates":[11.233398960620592,52.03000224579279]}},{"type":"Feature","properties":{"id":"DEBKGDL20000346W","name":"B245a"},"geometry":{"type":"Point","coordinates":[11.074697855206994,52.137417941946644]}},{"type":"Feature","properties":{"id":"DEBKGDL2000067X9","name":"B246a"},"geometry":{"type":"Point","coordinates":[11.268646335311509,52.141037456876816]}},{"type":"Feature","properties":{"id":"DEBKGDL200004HAL","name":"A143"},"geometry":{"type":"Point","coordinates":[11.861715455191291,51.41671695885049]}},{"type":"Feature","properties":{"id":"DEBKGDL200005440","name":"B181"},"geometry":{"type":"Point","coordinates":[11.999008885157963,51.352796337462834]}},{"type":"Feature","properties":{"id":"DEBKGDL200004FAR","name":"B100"},"geometry":{"type":"Point","coordinates":[12.168059381169407,51.54547252265731]}},{"type":"Feature","properties":{"id":"DEBKGDL200001Z3Z","name":"B183"},"geometry":{"type":"Point","coordinates":[12.161518314186115,51.6345488612427]}},{"type":"Feature","properties":{"id":"DEBKGDL200007PUY","name":"B186"},"geometry":{"type":"Point","coordinates":[12.306868679547138,51.206241052280916]}},{"type":"Feature","properties":{"id":"DEBKGDL200006V1X","name":"B107a"},"geometry":{"type":"Point","coordinates":[12.698224517669175,51.23518728556597]}},{"type":"Feature","properties":{"id":"DEBKGDL200007W4V","name":"B184"},"geometry":{"type":"Point","coordinates":[12.349976824759981,51.4741457783937]}},{"type":"Feature","properties":{"id":"DEBKGDL200002MG9","name":"B183a"},"geometry":{"type":"Point","coordinates":[12.359475417557828,51.53232683771378]}},{"type":"Feature","properties":{"id":"DEBKGDL200006CLE","name":"B187a"},"geometry":{"type":"Point","coordinates":[12.051400830746699,51.84935534010876]}},{"type":"Feature","properties":{"id":"DEBKGDL200006FOW","name":"B182"},"geometry":{"type":"Point","coordinates":[12.740174070380604,51.76358438160443]}},{"type":"Feature","properties":{"id":"DEBKGDL200002LRH","name":"B187"},"geometry":{"type":"Point","coordinates":[12.748179669588044,51.85356992248744]}},{"type":"Feature","properties":{"id":"DEBKGDL200003XPK","name":"B102"},"geometry":{"type":"Point","coordinates":[12.692790229778847,52.09239364954051]}},{"type":"Feature","properties":{"id":"DEBKGDL200003Q4A","name":"A391"},"geometry":{"type":"Point","coordinates":[10.508914916693954,52.240007439727165]}},{"type":"Feature","properties":{"id":"DEBKGDL200003QHF","name":"A392"},"geometry":{"type":"Point","coordinates":[10.513704921232637,52.281741751184846]}},{"type":"Feature","properties":{"id":"DEBKGDL20000UWWN","name":"B189"},"geometry":{"type":"Point","coordinates":[11.605061302893008,52.20685042769368]}},{"type":"Feature","properties":{"id":"DEBKGDL200006CGM","name":"B71n"},"geometry":{"type":"Point","coordinates":[11.447939453414723,52.274929237796265]}},{"type":"Feature","properties":{"id":"DEBKGDL200007ROD","name":"B493"},"geometry":{"type":"Point","coordinates":[10.755941876004282,52.98719354453676]}},{"type":"Feature","properties":{"id":"DEBKGDL200007MKW","name":"B216"},"geometry":{"type":"Point","coordinates":[11.01230506701731,53.11187708221533]}},{"type":"Feature","properties":{"id":"DEBKGDL200006TO3","name":"B190"},"geometry":{"type":"Point","coordinates":[11.201294344771364,52.84133927940798]}},{"type":"Feature","properties":{"id":"DEBKGDL200003T9V","name":"B195"},"geometry":{"type":"Point","coordinates":[11.471861616130434,53.08987947334322]}},{"type":"Feature","properties":{"id":"DEBKGDL200002ML3","name":"B103"},"geometry":{"type":"Point","coordinates":[12.228357120912086,53.07395466133358]}},{"type":"Feature","properties":{"id":"DEBKGDL20000UV4O","name":"B167"},"geometry":{"type":"Point","coordinates":[12.654974983662653,52.89027199586514]}},{"type":"Feature","properties":{"id":"DEBKGDL200006DYN","name":"A13"},"geometry":{"type":"Point","coordinates":[13.734391041885344,51.21222409376249]}},{"type":"Feature","properties":{"id":"DEBKGDL2000038LD","name":"B115"},"geometry":{"type":"Point","coordinates":[13.140301161466775,51.98609667861401]}},{"type":"Feature","properties":{"id":"DEBKGDL2000020SC","name":"E36"},"geometry":{"type":"Point","coordinates":[13.916010964056612,51.8476202515282]}},{"type":"Feature","properties":{"id":"DEBKGDL20000564Y","name":"B179"},"geometry":{"type":"Point","coordinates":[13.816683681190716,52.10065796516462]}},{"type":"Feature","properties":{"id":"DEBKGDL20000UWPO","name":"B156"},"geometry":{"type":"Point","coordinates":[14.435957541823699,51.1720464403889]}},{"type":"Feature","properties":{"id":"DEBKGDL200003D55","name":"B168"},"geometry":{"type":"Point","coordinates":[14.377152190695464,51.7906471191449]}},{"type":"Feature","properties":{"id":"DEBKGDL200004K8M","name":"A15"},"geometry":{"type":"Point","coordinates":[14.461283281639574,51.7128565626043]}},{"type":"Feature","properties":{"id":"DEBKGDL200004K96","name":"B320"},"geometry":{"type":"Point","coordinates":[14.480751766016086,51.981621926488245]}},{"type":"Feature","properties":{"id":"DEBKGDL2000187EE","name":"B97/B168"},"geometry":{"type":"Point","coordinates":[14.413444738349948,51.733226123489985]}},{"type":"Feature","properties":{"id":"DEBKGDL200002POP","name":"B112"},"geometry":{"type":"Point","coordinates":[14.612926101076896,51.71491058585478]}},{"type":"Feature","properties":{"id":"DEBKGDL2000037WI","name":"A10"},"geometry":{"type":"Point","coordinates":[13.290257104966892,52.305859815137126]}},{"type":"Feature","properties":{"id":"DEBKGDL2000021H0","name":"A115"},"geometry":{"type":"Point","coordinates":[13.139037831064602,52.35444416165441]}},{"type":"Feature","properties":{"id":"DEBKGDL2000020HW","name":"B273"},"geometry":{"type":"Point","coordinates":[13.035147673458638,52.40901954028983]}},{"type":"Feature","properties":{"id":"DEBKGDL200005U1V","name":"A100"},"geometry":{"type":"Point","coordinates":[13.36848213969704,52.47136958741224]}},{"type":"Feature","properties":{"id":"DEBKGDL200005UA7","name":"A103"},"geometry":{"type":"Point","coordinates":[13.32351238406708,52.45954299051925]}},{"type":"Feature","properties":{"id":"DEBKGDL200005UA3","name":"A111"},"geometry":{"type":"Point","coordinates":[13.313592939592843,52.565235860125554]}},{"type":"Feature","properties":{"id":"DEBKGDL2000022I7","name":"A12"},"geometry":{"type":"Point","coordinates":[13.782720261129858,52.31749560131851]}},{"type":"Feature","properties":{"id":"DEBKGDL200003VUD","name":"B96a"},"geometry":{"type":"Point","coordinates":[13.494317670463122,52.38153543153278]}},{"type":"Feature","properties":{"id":"DEBKGDL200004KK2","name":"A113"},"geometry":{"type":"Point","coordinates":[13.520612726076898,52.403120743993604]}},{"type":"Feature","properties":{"id":"DEBKGDL200002PMI","name":"A117"},"geometry":{"type":"Point","coordinates":[13.556974122397687,52.40316365177308]}},{"type":"Feature","properties":{"id":"DEBKGDL200003CVR","name":"B158"},"geometry":{"type":"Point","coordinates":[13.558727222719938,52.560644381533784]}},{"type":"Feature","properties":{"id":"DEBKGDL200002N80","name":"A114"},"geometry":{"type":"Point","coordinates":[13.427986259324653,52.580921308908344]}},{"type":"Feature","properties":{"id":"DEBKGDL200006CVL","name":"E251"},"geometry":{"type":"Point","coordinates":[13.202237607984888,52.742631210364365]}},{"type":"Feature","properties":{"id":"DEBKGDL200007NQG","name":"B109"},"geometry":{"type":"Point","coordinates":[13.343298657356232,52.97890382820327]}},{"type":"Feature","properties":{"id":"DEBKGDL20000UVPL","name":"B122"},"geometry":{"type":"Point","coordinates":[12.85023689881689,52.94592314549238]}},{"type":"Feature","properties":{"id":"DEBKGDL2000056WE","name":"E28"},"geometry":{"type":"Point","coordinates":[13.564077119781066,52.68130808708638]}},{"type":"Feature","properties":{"id":"DEBKGDL200003UQU","name":"A11"},"geometry":{"type":"Point","coordinates":[13.565405664674483,52.64338900369222]}},{"type":"Feature","properties":{"id":"DEBKGDL20000572M","name":"B198"},"geometry":{"type":"Point","coordinates":[13.806443837293257,52.952379884496935]}},{"type":"Feature","properties":{"id":"DEBKGDL200003BZC","name":"B158a"},"geometry":{"type":"Point","coordinates":[14.091983602253368,52.8345830755624]}},{"type":"Feature","properties":{"id":"DEBKGDL200003Z9A","name":"B166"},"geometry":{"type":"Point","coordinates":[14.28865149339195,53.05846593745874]}},{"type":"Feature","properties":{"id":"DEBKGDL2000031T0","name":"B321"},"geometry":{"type":"Point","coordinates":[11.085366237906705,53.38545691044476]}},{"type":"Feature","properties":{"id":"DEBKGDL200006BGH","name":"B106"},"geometry":{"type":"Point","coordinates":[11.40509423426439,53.59344766578609]}},{"type":"Feature","properties":{"id":"DEBKGDL200002K2T","name":"B104"},"geometry":{"type":"Point","coordinates":[10.957375250048223,53.83965705530796]}},{"type":"Feature","properties":{"id":"DEBKGDL200005KT0","name":"E47"},"geometry":{"type":"Point","coordinates":[10.63939892443187,53.86944717801981]}},{"type":"Feature","properties":{"id":"DEBKGDL2000068CW","name":"A226"},"geometry":{"type":"Point","coordinates":[10.738345941392195,53.91601291869165]}},{"type":"Feature","properties":{"id":"DEBKGDL200002K3C","name":"B105"},"geometry":{"type":"Point","coordinates":[10.984666969721795,53.91207355286929]}},{"type":"Feature","properties":{"id":"DEBKGDL20000368E","name":"B192"},"geometry":{"type":"Point","coordinates":[11.631218140656527,53.85137253603402]}},{"type":"Feature","properties":{"id":"DEBKGDL200001YV0","name":"B392"},"geometry":{"type":"Point","coordinates":[12.073163769727962,53.583118083111465]}},{"type":"Feature","properties":{"id":"DEBKGDL200004HMJ","name":"A19"},"geometry":{"type":"Point","coordinates":[12.466975842585239,53.36609887666475]}},{"type":"Feature","properties":{"id":"DEBKGDL2000115GU","name":"B108"},"geometry":{"type":"Point","coordinates":[12.674777667455693,53.52536870847591]}},{"type":"Feature","properties":{"id":"DEBKGDL200014LOS","name":"B194"},"geometry":{"type":"Point","coordinates":[12.837155859843248,53.541412482395316]}},{"type":"Feature","properties":{"id":"DEBKGDL200005PQ0","name":"B110"},"geometry":{"type":"Point","coordinates":[12.8329128963516,53.90861113972894]}},{"type":"Feature","properties":{"id":"DEBKGDL200004DI2","name":"B501"},"geometry":{"type":"Point","coordinates":[10.87269470990378,54.121182481965036]}},{"type":"Feature","properties":{"id":"DEBKGDL2000170TV","name":"A"},"geometry":{"type":"Point","coordinates":[11.251374865555055,54.51887489417517]}},{"type":"Feature","properties":{"id":"DEBKGDL200003X5R","name":"B193"},"geometry":{"type":"Point","coordinates":[13.048063796791872,53.43571736098178]}},{"type":"Feature","properties":{"id":"DEBKGDL200003W21","name":"B197"},"geometry":{"type":"Point","coordinates":[13.425485855903496,53.58956075189232]}},{"type":"Feature","properties":{"id":"DEBKGDL20000SEV8","name":"B111"},"geometry":{"type":"Point","coordinates":[13.409864755881665,53.94251540220646]}},{"type":"Feature","properties":{"id":"DEBKGDL200007OK0","name":"B113"},"geometry":{"type":"Point","coordinates":[14.269515387245269,53.32253701558667]}},{"type":"Feature","properties":{"id":"DEBKGDL200015Q01","name":"B481n"},"geometry":{"type":"Point","coordinates":[7.671805518772686,51.97977457441772]}},{"type":"Feature","properties":{"id":"DEBKGDL20001CAZO","name":"B246n"},"geometry":{"type":"Point","coordinates":[13.432463379184288,52.22400337374712]}},{"type":"Feature","properties":{"id":"DEBKGDL20001BO74","name":"B97n"},"geometry":{"type":"Point","coordinates":[14.430054658635578,51.72858310330465]}},{"type":"Feature","properties":{"id":"DEBKGDL20001CDHL","name":"B229n"},"geometry":{"type":"Point","coordinates":[7.88032721617407,51.34881705666345]}}]}