{"type":"FeatureCollection","features":[{"type":"Feature","properties":{"id":"us-airport-ATL","name":"HARTSFIELD/JACKSON ATLANTA INTL","iata":"ATL","icao":"KATL","enplanements_2024":52511402,"facility_use":"PU"},"geometry":{"type":"Point","coordinates":[-84.427864,33.63669961]}},{"type":"Feature","properties":{"id":"us-airport-DFW","name":"DALLAS-FORT WORTH INTL","iata":"DFW","icao":"KDFW","enplanements_2024":42351316,"facility_use":"PU"},"geometry":{"type":"Point","coordinates":[-97.03769472,32.89723305]}},{"type":"Feature","properties":{"id":"us-airport-DEN","name":"DENVER INTL","iata":"DEN","icao":"KDEN","enplanements_2024":40012895,"facility_use":"PU"},"geometry":{"type":"Point","coordinates":[-104.67316666,39.86166666]}},{"type":"Feature","properties":{"id":"us-airport-ORD","name":"CHICAGO O'HARE INTL","iata":"ORD","icao":"KORD","enplanements_2024":38575693,"facility_use":"PU"},"geometry":{"type":"Point","coordinates":[-87.90814972,41.97694027]}},{"type":"Feature","properties":{"id":"us-airport-LAX","name":"LOS ANGELES INTL","iata":"LAX","icao":"KLAX","enplanements_2024":37760834,"facility_use":"PU"},"geometry":{"type":"Point","coordinates":[-118.40804861,33.94249638]}},{"type":"Feature","properties":{"id":"us-airport-JFK","name":"JOHN F KENNEDY INTL","iata":"JFK","icao":"KJFK","enplanements_2024":31466102,"facility_use":"PU"},"geometry":{"type":"Point","coordinates":[-73.77869222,40.63992805]}},{"type":"Feature","properties":{"id":"us-airport-CLT","name":"CHARLOTTE/DOUGLAS INTL","iata":"CLT","icao":"KCLT","enplanements_2024":28523822,"facility_use":"PU"},"geometry":{"type":"Point","coordinates":[-80.95137916,35.21318694]}},{"type":"Feature","properties":{"id":"us-airport-LAS","name":"HARRY REID INTL","iata":"LAS","icao":"KLAS","enplanements_2024":28244966,"facility_use":"PU"},"geometry":{"type":"Point","coordinates":[-115.15244861,36.08034277]}},{"type":"Feature","properties":{"id":"us-airport-MCO","name":"ORLANDO INTL","iata":"MCO","icao":"KMCO","enplanements_2024":27859783,"facility_use":"PU"},"geometry":{"type":"Point","coordinates":[-81.309,28.42938888]}},{"type":"Feature","properties":{"id":"us-airport-MIA","name":"MIAMI INTL","iata":"MIA","icao":"KMIA","enplanements_2024":26588002,"facility_use":"PU"},"geometry":{"type":"Point","coordinates":[-80.29011583,25.79536111]}},{"type":"Feature","properties":{"id":"us-airport-PHX","name":"PHOENIX SKY HARBOR INTL","iata":"PHX","icao":"KPHX","enplanements_2024":25595723,"facility_use":"PU"},"geometry":{"type":"Point","coordinates":[-112.01158333,33.43427777]}},{"type":"Feature","properties":{"id":"us-airport-SEA","name":"SEATTLE-TACOMA INTL","iata":"SEA","icao":"KSEA","enplanements_2024":25414592,"facility_use":"PU"},"geometry":{"type":"Point","coordinates":[-122.31177777,47.44988888]}},{"type":"Feature","properties":{"id":"us-airport-SFO","name":"SAN FRANCISCO INTL","iata":"SFO","icao":"KSFO","enplanements_2024":25078968,"facility_use":"PU"},"geometry":{"type":"Point","coordinates":[-122.37541666,37.61880555]}},{"type":"Feature","properties":{"id":"us-airport-EWR","name":"NEWARK LIBERTY INTL","iata":"EWR","icao":"KEWR","enplanements_2024":24544320,"facility_use":"PU"},"geometry":{"type":"Point","coordinates":[-74.16868777,40.69248055]}},{"type":"Feature","properties":{"id":"us-airport-IAH","name":"GEORGE BUSH INTCNTL/HOUSTON","iata":"IAH","icao":"KIAH","enplanements_2024":23349157,"facility_use":"PU"},"geometry":{"type":"Point","coordinates":[-95.3414425,29.98443527]}},{"type":"Feature","properties":{"id":"us-airport-BOS","name":"GENERAL EDWARD LAWRENCE LOGAN INTL","iata":"BOS","icao":"KBOS","enplanements_2024":21090721,"facility_use":"PU"},"geometry":{"type":"Point","coordinates":[-71.00638888,42.36294444]}},{"type":"Feature","properties":{"id":"us-airport-MSP","name":"MINNEAPOLIS-ST PAUL INTL/WOLD-CHAMBERLAIN","iata":"MSP","icao":"KMSP","enplanements_2024":18054481,"facility_use":"PU"},"geometry":{"type":"Point","coordinates":[-93.22177777,44.88197222]}},{"type":"Feature","properties":{"id":"us-airport-FLL","name":"FORT LAUDERDALE/HOLLYWOOD INTL","iata":"FLL","icao":"KFLL","enplanements_2024":17096131,"facility_use":"PU"},"geometry":{"type":"Point","coordinates":[-80.14969444,26.07166666]}},{"type":"Feature","properties":{"id":"us-airport-LGA","name":"LAGUARDIA","iata":"LGA","icao":"KLGA","enplanements_2024":16715567,"facility_use":"PU"},"geometry":{"type":"Point","coordinates":[-73.87260555,40.77724222]}},{"type":"Feature","properties":{"id":"us-airport-DTW","name":"DETROIT METRO WAYNE COUNTY","iata":"DTW","icao":"KDTW","enplanements_2024":16110696,"facility_use":"PU"},"geometry":{"type":"Point","coordinates":[-83.35339333,42.21243111]}},{"type":"Feature","properties":{"id":"us-airport-PHL","name":"PHILADELPHIA INTL","iata":"PHL","icao":"KPHL","enplanements_2024":15102261,"facility_use":"PU"},"geometry":{"type":"Point","coordinates":[-75.24066305,39.87208388]}},{"type":"Feature","properties":{"id":"us-airport-SLC","name":"SALT LAKE CITY INTL","iata":"SLC","icao":"KSLC","enplanements_2024":13543570,"facility_use":"PU"},"geometry":{"type":"Point","coordinates":[-111.97777333,40.78839333]}},{"type":"Feature","properties":{"id":"us-airport-BWI","name":"BALTIMORE/WASHINGTON INTL THURGOOD MARSHALL","iata":"BWI","icao":"KBWI","enplanements_2024":13221461,"facility_use":"PU"},"geometry":{"type":"Point","coordinates":[-76.66899111,39.17572833]}},{"type":"Feature","properties":{"id":"us-airport-IAD","name":"WASHINGTON DULLES INTL","iata":"IAD","icao":"KIAD","enplanements_2024":13003234,"facility_use":"PU"},"geometry":{"type":"Point","coordinates":[-77.45992861,38.94745638]}},{"type":"Feature","properties":{"id":"us-airport-SAN","name":"SAN DIEGO INTL","iata":"SAN","icao":"KSAN","enplanements_2024":12780013,"facility_use":"PU"},"geometry":{"type":"Point","coordinates":[-117.18966333,32.73356277]}},{"type":"Feature","properties":{"id":"us-airport-DCA","name":"RONALD REAGAN WASHINGTON NTL","iata":"DCA","icao":"KDCA","enplanements_2024":12750892,"facility_use":"PU"},"geometry":{"type":"Point","coordinates":[-77.03772138,38.85144027]}},{"type":"Feature","properties":{"id":"us-airport-TPA","name":"TAMPA INTL","iata":"TPA","icao":"KTPA","enplanements_2024":12075591,"facility_use":"PU"},"geometry":{"type":"Point","coordinates":[-82.5332475,27.97546944]}},{"type":"Feature","properties":{"id":"us-airport-BNA","name":"NASHVILLE INTL","iata":"BNA","icao":"KBNA","enplanements_2024":12058688,"facility_use":"PU"},"geometry":{"type":"Point","coordinates":[-86.67818055,36.124475]}},{"type":"Feature","properties":{"id":"us-airport-AUS","name":"AUSTIN-BERGSTROM INTL","iata":"AUS","icao":"KAUS","enplanements_2024":10678073,"facility_use":"PU"},"geometry":{"type":"Point","coordinates":[-97.66987611,30.19452722]}},{"type":"Feature","properties":{"id":"us-airport-HNL","name":"DANIEL K INOUYE INTL","iata":"HNL","icao":"PHNL","enplanements_2024":10449022,"facility_use":"PU"},"geometry":{"type":"Point","coordinates":[-157.92025027,21.31782472]}},{"type":"Feature","properties":{"id":"us-airport-MDW","name":"CHICAGO MIDWAY INTL","iata":"MDW","icao":"KMDW","enplanements_2024":10360093,"facility_use":"PU"},"geometry":{"type":"Point","coordinates":[-87.75272861,41.78564313]}},{"type":"Feature","properties":{"id":"us-airport-DAL","name":"DALLAS LOVE FLD","iata":"DAL","icao":"KDAL","enplanements_2024":8654991,"facility_use":"PU"},"geometry":{"type":"Point","coordinates":[-96.85087666,32.84594472]}},{"type":"Feature","properties":{"id":"us-airport-PDX","name":"PORTLAND INTL","iata":"PDX","icao":"KPDX","enplanements_2024":8639088,"facility_use":"PU"},"geometry":{"type":"Point","coordinates":[-122.59686941,45.58870886]}},{"type":"Feature","properties":{"id":"us-airport-STL","name":"ST LOUIS LAMBERT INTL","iata":"STL","icao":"KSTL","enplanements_2024":7807362,"facility_use":"PU"},"geometry":{"type":"Point","coordinates":[-90.37002572,38.74869822]}},{"type":"Feature","properties":{"id":"us-airport-RDU","name":"RALEIGH-DURHAM INTL","iata":"RDU","icao":"KRDU","enplanements_2024":7584394,"facility_use":"PU"},"geometry":{"type":"Point","coordinates":[-78.78747222,35.87763888]}},{"type":"Feature","properties":{"id":"us-airport-HOU","name":"WILLIAM P HOBBY","iata":"HOU","icao":"KHOU","enplanements_2024":7116967,"facility_use":"PU"},"geometry":{"type":"Point","coordinates":[-95.27723158,29.64579983]}},{"type":"Feature","properties":{"id":"us-airport-SMF","name":"SACRAMENTO INTL","iata":"SMF","icao":"KSMF","enplanements_2024":6679426,"facility_use":"PU"},"geometry":{"type":"Point","coordinates":[-121.59077777,38.69544444]}},{"type":"Feature","properties":{"id":"us-airport-MSY","name":"LOUIS ARMSTRONG NEW ORLEANS INTL","iata":"MSY","icao":"KMSY","enplanements_2024":6537092,"facility_use":"PU"},"geometry":{"type":"Point","coordinates":[-90.2590275,29.99327222]}},{"type":"Feature","properties":{"id":"us-airport-SJU","name":"LUIS MUNOZ MARIN INTL","iata":"SJU","icao":"TJSJ","enplanements_2024":6490669,"facility_use":"PU"},"geometry":{"type":"Point","coordinates":[-66.00213333,18.43939916]}},{"type":"Feature","properties":{"id":"us-airport-MCI","name":"KANSAS CITY INTL","iata":"MCI","icao":"KMCI","enplanements_2024":5915078,"facility_use":"PU"},"geometry":{"type":"Point","coordinates":[-94.71388888,39.29761111]}},{"type":"Feature","properties":{"id":"us-airport-SJC","name":"NORMAN Y MINETA SAN JOSE INTL","iata":"SJC","icao":"KSJC","enplanements_2024":5822019,"facility_use":"PU"},"geometry":{"type":"Point","coordinates":[-121.92862055,37.36299472]}},{"type":"Feature","properties":{"id":"us-airport-SAT","name":"SAN ANTONIO INTL","iata":"SAT","icao":"KSAT","enplanements_2024":5466684,"facility_use":"PU"},"geometry":{"type":"Point","coordinates":[-98.46905694,29.53395833]}},{"type":"Feature","properties":{"id":"us-airport-RSW","name":"SOUTHWEST FLORIDA INTL","iata":"RSW","icao":"KRSW","enplanements_2024":5425293,"facility_use":"PU"},"geometry":{"type":"Point","coordinates":[-81.755155,26.53616388]}},{"type":"Feature","properties":{"id":"us-airport-SNA","name":"JOHN WAYNE/ORANGE COUNTY","iata":"SNA","icao":"KSNA","enplanements_2024":5370273,"facility_use":"PU"},"geometry":{"type":"Point","coordinates":[-117.86823305,33.67566194]}},{"type":"Feature","properties":{"id":"us-airport-OAK","name":"OAKLAND SAN FRANCISCO BAY","iata":"OAK","icao":"KOAK","enplanements_2024":5292736,"facility_use":"PU"},"geometry":{"type":"Point","coordinates":[-122.22115055,37.72126138]}},{"type":"Feature","properties":{"id":"us-airport-IND","name":"INDIANAPOLIS INTL","iata":"IND","icao":"KIND","enplanements_2024":5181947,"facility_use":"PU"},"geometry":{"type":"Point","coordinates":[-86.29463888,39.71730555]}},{"type":"Feature","properties":{"id":"us-airport-CLE","name":"CLEVELAND-HOPKINS INTL","iata":"CLE","icao":"KCLE","enplanements_2024":4950345,"facility_use":"PU"},"geometry":{"type":"Point","coordinates":[-81.85469111,41.40940694]}},{"type":"Feature","properties":{"id":"us-airport-PIT","name":"PITTSBURGH INTL","iata":"PIT","icao":"KPIT","enplanements_2024":4862376,"facility_use":"PU"},"geometry":{"type":"Point","coordinates":[-80.23269444,40.49141666]}},{"type":"Feature","properties":{"id":"us-airport-CVG","name":"CINCINNATI/NORTHERN KENTUCKY INTL","iata":"CVG","icao":"KCVG","enplanements_2024":4500414,"facility_use":"PU"},"geometry":{"type":"Point","coordinates":[-84.66782083,39.0488375]}},{"type":"Feature","properties":{"id":"us-airport-CMH","name":"JOHN GLENN COLUMBUS INTL","iata":"CMH","icao":"KCMH","enplanements_2024":4387395,"facility_use":"PU"},"geometry":{"type":"Point","coordinates":[-82.89215916,39.99694666]}},{"type":"Feature","properties":{"id":"us-airport-PBI","name":"PALM BEACH INTL","iata":"PBI","icao":"KPBI","enplanements_2024":4127211,"facility_use":"PU"},"geometry":{"type":"Point","coordinates":[-80.09559194,26.68316166]}},{"type":"Feature","properties":{"id":"us-airport-JAX","name":"JACKSONVILLE INTL","iata":"JAX","icao":"KJAX","enplanements_2024":3749791,"facility_use":"PU"},"geometry":{"type":"Point","coordinates":[-81.68784666,30.49404555]}},{"type":"Feature","properties":{"id":"us-airport-ONT","name":"ONTARIO INTL","iata":"ONT","icao":"KONT","enplanements_2024":3494554,"facility_use":"PU"},"geometry":{"type":"Point","coordinates":[-117.6011875,34.05601416]}},{"type":"Feature","properties":{"id":"us-airport-OGG","name":"KAHULUI","iata":"OGG","icao":"PHOG","enplanements_2024":3415615,"facility_use":"PU"},"geometry":{"type":"Point","coordinates":[-156.43045861,20.89864861]}},{"type":"Feature","properties":{"id":"us-airport-BUR","name":"BOB HOPE","iata":"BUR","icao":"KBUR","enplanements_2024":3383237,"facility_use":"PU"},"geometry":{"type":"Point","coordinates":[-118.35866666,34.20069444]}},{"type":"Feature","properties":{"id":"us-airport-BDL","name":"BRADLEY INTL","iata":"BDL","icao":"KBDL","enplanements_2024":3285194,"facility_use":"PU"},"geometry":{"type":"Point","coordinates":[-72.68431583,41.93903222]}},{"type":"Feature","properties":{"id":"us-airport-CHS","name":"CHARLESTON AFB/INTL","iata":"CHS","icao":"KCHS","enplanements_2024":3115194,"facility_use":"PU"},"geometry":{"type":"Point","coordinates":[-80.04052777,32.89863888]}},{"type":"Feature","properties":{"id":"us-airport-MKE","name":"GENERAL MITCHELL INTL","iata":"MKE","icao":"KMKE","enplanements_2024":3104054,"facility_use":"PU"},"geometry":{"type":"Point","coordinates":[-87.89706444,42.94693194]}},{"type":"Feature","properties":{"id":"us-airport-ANC","name":"TED STEVENS ANCHORAGE INTL","iata":"ANC","icao":"PANC","enplanements_2024":2767856,"facility_use":"PU"},"geometry":{"type":"Point","coordinates":[-149.9981375,61.17408472]}},{"type":"Feature","properties":{"id":"us-airport-ABQ","name":"ALBUQUERQUE INTL SUNPORT","iata":"ABQ","icao":"KABQ","enplanements_2024":2690218,"facility_use":"PU"},"geometry":{"type":"Point","coordinates":[-106.60826216,35.03893155]}},{"type":"Feature","properties":{"id":"us-airport-OMA","name":"EPPLEY AIRFIELD","iata":"OMA","icao":"KOMA","enplanements_2024":2583212,"facility_use":"PU"},"geometry":{"type":"Point","coordinates":[-95.89405555,41.30316666]}},{"type":"Feature","properties":{"id":"us-airport-BUF","name":"BUFFALO NIAGARA INTL","iata":"BUF","icao":"KBUF","enplanements_2024":2499295,"facility_use":"PU"},"geometry":{"type":"Point","coordinates":[-78.73056972,42.94042722]}},{"type":"Feature","properties":{"id":"us-airport-BOI","name":"BOISE AIR TRML/GOWEN FLD","iata":"BOI","icao":"KBOI","enplanements_2024":2475370,"facility_use":"PU"},"geometry":{"type":"Point","coordinates":[-116.22286111,43.56436111]}},{"type":"Feature","properties":{"id":"us-airport-RIC","name":"RICHMOND INTL","iata":"RIC","icao":"KRIC","enplanements_2024":2456422,"facility_use":"PU"},"geometry":{"type":"Point","coordinates":[-77.31973861,37.50518111]}},{"type":"Feature","properties":{"id":"us-airport-ORF","name":"NORFOLK INTL","iata":"ORF","icao":"KORF","enplanements_2024":2444897,"facility_use":"PU"},"geometry":{"type":"Point","coordinates":[-76.19886583,36.89563111]}},{"type":"Feature","properties":{"id":"us-airport-MEM","name":"FREDERICK W SMITH INTL/MEMPHIS","iata":"MEM","icao":"KMEM","enplanements_2024":2439366,"facility_use":"PU"},"geometry":{"type":"Point","coordinates":[-89.97667916,35.04241138]}},{"type":"Feature","properties":{"id":"us-airport-RNO","name":"RENO/TAHOE INTL","iata":"RNO","icao":"KRNO","enplanements_2024":2377780,"facility_use":"PU"},"geometry":{"type":"Point","coordinates":[-119.76811111,39.49911111]}},{"type":"Feature","properties":{"id":"us-airport-SDF","name":"LOUISVILLE MUHAMMAD ALI INTL","iata":"SDF","icao":"KSDF","enplanements_2024":2343305,"facility_use":"PU"},"geometry":{"type":"Point","coordinates":[-85.73649361,38.174085]}},{"type":"Feature","properties":{"id":"us-airport-OKC","name":"OKC WILL ROGERS INTL","iata":"OKC","icao":"KOKC","enplanements_2024":2243575,"facility_use":"PU"},"geometry":{"type":"Point","coordinates":[-97.60076555,35.39307277]}},{"type":"Feature","properties":{"id":"us-airport-SRQ","name":"SARASOTA/BRADENTON INTL","iata":"SRQ","icao":"KSRQ","enplanements_2024":2112417,"facility_use":"PU"},"geometry":{"type":"Point","coordinates":[-82.55438888,27.39544444]}},{"type":"Feature","properties":{"id":"us-airport-ELP","name":"EL PASO INTL","iata":"ELP","icao":"KELP","enplanements_2024":2071894,"facility_use":"PU"},"geometry":{"type":"Point","coordinates":[-106.37636111,31.80733333]}},{"type":"Feature","properties":{"id":"us-airport-GRR","name":"GERALD R FORD INTL","iata":"GRR","icao":"KGRR","enplanements_2024":2065053,"facility_use":"PU"},"geometry":{"type":"Point","coordinates":[-85.52280555,42.88083333]}},{"type":"Feature","properties":{"id":"us-airport-GEG","name":"SPOKANE INTL","iata":"GEG","icao":"KGEG","enplanements_2024":2064142,"facility_use":"PU"},"geometry":{"type":"Point","coordinates":[-117.53522222,47.61902777]}},{"type":"Feature","properties":{"id":"us-airport-LGB","name":"LONG BEACH (DAUGHERTY FLD)","iata":"LGB","icao":"KLGB","enplanements_2024":2031810,"facility_use":"PU"},"geometry":{"type":"Point","coordinates":[-118.15189055,33.81792972]}},{"type":"Feature","properties":{"id":"us-airport-KOA","name":"ELLISON ONIZUKA KONA INTL AT KEAHOLE","iata":"KOA","icao":"PHKO","enplanements_2024":2023899,"facility_use":"PU"},"geometry":{"type":"Point","coordinates":[-156.04563111,19.738765]}},{"type":"Feature","properties":{"id":"us-airport-SAV","name":"SAVANNAH/HILTON HEAD INTL","iata":"SAV","icao":"KSAV","enplanements_2024":2020753,"facility_use":"PU"},"geometry":{"type":"Point","coordinates":[-81.20213888,32.12758333]}},{"type":"Feature","properties":{"id":"us-airport-PVD","name":"RHODE ISLAND TF GREEN INTL","iata":"PVD","icao":"KPVD","enplanements_2024":1984916,"facility_use":"PU"},"geometry":{"type":"Point","coordinates":[-71.42772222,41.72233333]}},{"type":"Feature","properties":{"id":"us-airport-TUS","name":"TUCSON INTL","iata":"TUS","icao":"KTUS","enplanements_2024":1959789,"facility_use":"PU"},"geometry":{"type":"Point","coordinates":[-110.9414625,32.11707027]}},{"type":"Feature","properties":{"id":"us-airport-MYR","name":"MYRTLE BEACH INTL","iata":"MYR","icao":"KMYR","enplanements_2024":1894929,"facility_use":"PU"},"geometry":{"type":"Point","coordinates":[-78.92832138,33.67974111]}},{"type":"Feature","properties":{"id":"us-airport-LIH","name":"LIHUE","iata":"LIH","icao":"PHLI","enplanements_2024":1776627,"facility_use":"PU"},"geometry":{"type":"Point","coordinates":[-159.33895777,21.97598333]}},{"type":"Feature","properties":{"id":"us-airport-TYS","name":"MC GHEE TYSON","iata":"TYS","icao":"KTYS","enplanements_2024":1639080,"facility_use":"PU"},"geometry":{"type":"Point","coordinates":[-83.99406722,35.81109111]}},{"type":"Feature","properties":{"id":"us-airport-TUL","name":"TULSA INTL","iata":"TUL","icao":"KTUL","enplanements_2024":1627181,"facility_use":"PU"},"geometry":{"type":"Point","coordinates":[-95.88810527,36.19839333]}},{"type":"Feature","properties":{"id":"us-airport-PSP","name":"PALM SPRINGS INTL","iata":"PSP","icao":"KPSP","enplanements_2024":1617586,"facility_use":"PU"},"geometry":{"type":"Point","coordinates":[-116.50669416,33.82966972]}},{"type":"Feature","properties":{"id":"us-airport-BHM","name":"BIRMINGHAM-SHUTTLESWORTH INTL","iata":"BHM","icao":"KBHM","enplanements_2024":1596510,"facility_use":"PU"},"geometry":{"type":"Point","coordinates":[-86.75230555,33.56388888]}},{"type":"Feature","properties":{"id":"us-airport-DSM","name":"DES MOINES INTL","iata":"DSM","icao":"KDSM","enplanements_2024":1555454,"facility_use":"PU"},"geometry":{"type":"Point","coordinates":[-93.66307222,41.53397277]}},{"type":"Feature","properties":{"id":"us-airport-PNS","name":"PENSACOLA INTL","iata":"PNS","icao":"KPNS","enplanements_2024":1528204,"facility_use":"PU"},"geometry":{"type":"Point","coordinates":[-87.18661111,30.47341666]}},{"type":"Feature","properties":{"id":"us-airport-ALB","name":"ALBANY INTL","iata":"ALB","icao":"KALB","enplanements_2024":1490673,"facility_use":"PU"},"geometry":{"type":"Point","coordinates":[-73.80198,42.74911611]}},{"type":"Feature","properties":{"id":"us-airport-SYR","name":"SYRACUSE HANCOCK INTL","iata":"SYR","icao":"KSYR","enplanements_2024":1486554,"facility_use":"PU"},"geometry":{"type":"Point","coordinates":[-76.10632055,43.11118138]}},{"type":"Feature","properties":{"id":"us-airport-SFB","name":"ORLANDO SANFORD INTL","iata":"SFB","icao":"KSFB","enplanements_2024":1412954,"facility_use":"PU"},"geometry":{"type":"Point","coordinates":[-81.23491361,28.77717805]}},{"type":"Feature","properties":{"id":"us-airport-GSP","name":"GREENVILLE SPARTANBURG INTL","iata":"GSP","icao":"KGSP","enplanements_2024":1412702,"facility_use":"PU"},"geometry":{"type":"Point","coordinates":[-82.21885944,34.89567111]}},{"type":"Feature","properties":{"id":"us-airport-ROC","name":"FREDERICK DOUGLASS/GREATER ROCHESTER INTL","iata":"ROC","icao":"KROC","enplanements_2024":1331837,"facility_use":"PU"},"geometry":{"type":"Point","coordinates":[-77.67186888,43.11914361]}},{"type":"Feature","properties":{"id":"us-airport-BZN","name":"BOZEMAN YELLOWSTONE INTL","iata":"BZN","icao":"KBZN","enplanements_2024":1321790,"facility_use":"PU"},"geometry":{"type":"Point","coordinates":[-111.15026027,45.77723577]}},{"type":"Feature","properties":{"id":"us-airport-FAT","name":"FRESNO YOSEMITE INTL","iata":"FAT","icao":"KFAT","enplanements_2024":1318250,"facility_use":"PU"},"geometry":{"type":"Point","coordinates":[-119.71883333,36.77655555]}},{"type":"Feature","properties":{"id":"us-airport-COS","name":"CITY OF COLORADO SPRINGS MUNI","iata":"COS","icao":"KCOS","enplanements_2024":1248261,"facility_use":"PU"},"geometry":{"type":"Point","coordinates":[-104.70077638,38.80581666]}},{"type":"Feature","properties":{"id":"us-airport-PIE","name":"ST PETE-CLEARWATER INTL","iata":"PIE","icao":"KPIE","enplanements_2024":1228048,"facility_use":"PU"},"geometry":{"type":"Point","coordinates":[-82.68651,27.90863361]}},{"type":"Feature","properties":{"id":"us-airport-PWM","name":"PORTLAND INTL JETPORT","iata":"PWM","icao":"KPWM","enplanements_2024":1221913,"facility_use":"PU"},"geometry":{"type":"Point","coordinates":[-70.30861636,43.6456435]}},{"type":"Feature","properties":{"id":"us-airport-HPN","name":"WESTCHESTER COUNTY","iata":"HPN","icao":"KHPN","enplanements_2024":1182384,"facility_use":"PU"},"geometry":{"type":"Point","coordinates":[-73.70756611,41.06695305]}},{"type":"Feature","properties":{"id":"us-airport-VPS","name":"EGLIN AFB/DESTIN-FT WALTON BEACH","iata":"VPS","icao":"KVPS","enplanements_2024":1164880,"facility_use":"PU"},"geometry":{"type":"Point","coordinates":[-86.52604433,30.48321941]}},{"type":"Feature","properties":{"id":"us-airport-MSN","name":"DANE COUNTY RGNL/TRUAX FLD","iata":"MSN","icao":"KMSN","enplanements_2024":1156399,"facility_use":"PU"},"geometry":{"type":"Point","coordinates":[-89.33750447,43.13987913]}},{"type":"Feature","properties":{"id":"us-airport-LIT","name":"BILL AND HILLARY CLINTON NTL/ADAMS FLD","iata":"LIT","icao":"KLIT","enplanements_2024":1145693,"facility_use":"PU"},"geometry":{"type":"Point","coordinates":[-92.22477722,34.72944138]}},{"type":"Feature","properties":{"id":"us-airport-XNA","name":"NORTHWEST ARKANSAS NTL","iata":"XNA","icao":"KXNA","enplanements_2024":1123106,"facility_use":"PU"},"geometry":{"type":"Point","coordinates":[-94.30776555,36.28157916]}},{"type":"Feature","properties":{"id":"us-airport-AVL","name":"ASHEVILLE RGNL","iata":"AVL","icao":"KAVL","enplanements_2024":1096465,"facility_use":"PU"},"geometry":{"type":"Point","coordinates":[-82.5420475,35.43611305]}},{"type":"Feature","properties":{"id":"us-airport-GSO","name":"PIEDMONT TRIAD INTL","iata":"GSO","icao":"KGSO","enplanements_2024":985563,"facility_use":"PU"},"geometry":{"type":"Point","coordinates":[-79.94112277,36.10132666]}},{"type":"Feature","properties":{"id":"us-airport-IWA","name":"MESA GATEWAY","iata":"IWA","icao":"KIWA","enplanements_2024":978296,"facility_use":"PU"},"geometry":{"type":"Point","coordinates":[-111.65545916,33.30782388]}},{"type":"Feature","properties":{"id":"us-airport-PGD","name":"PUNTA GORDA","iata":"PGD","icao":"KPGD","enplanements_2024":957136,"facility_use":"PU"},"geometry":{"type":"Point","coordinates":[-81.99088611,26.9185925]}},{"type":"Feature","properties":{"id":"us-airport-GUM","name":"GUAM INTL","iata":"GUM","icao":"PGUM","enplanements_2024":932832,"facility_use":"PU"},"geometry":{"type":"Point","coordinates":[144.79712944,13.48395194]}},{"type":"Feature","properties":{"id":"us-airport-ECP","name":"NORTHWEST FLORIDA BEACHES INTL","iata":"ECP","icao":"KECP","enplanements_2024":918470,"facility_use":"PU"},"geometry":{"type":"Point","coordinates":[-85.79560222,30.35824083]}},{"type":"Feature","properties":{"id":"us-airport-ICT","name":"WICHITA DWIGHT D EISENHOWER NTL","iata":"ICT","icao":"KICT","enplanements_2024":885585,"facility_use":"PU"},"geometry":{"type":"Point","coordinates":[-97.43304277,37.6499525]}},{"type":"Feature","properties":{"id":"us-airport-EUG","name":"MAHLON SWEET FLD","iata":"EUG","icao":"KEUG","enplanements_2024":824952,"facility_use":"PU"},"geometry":{"type":"Point","coordinates":[-123.21197222,44.12458333]}},{"type":"Feature","properties":{"id":"us-airport-STT","name":"CYRIL E KING","iata":"STT","icao":"TIST","enplanements_2024":821945,"facility_use":"PU"},"geometry":{"type":"Point","coordinates":[-64.97333333,18.33730555]}},{"type":"Feature","properties":{"id":"us-airport-HSV","name":"HUNTSVILLE INTL-CARL T JONES FLD","iata":"HSV","icao":"KHSV","enplanements_2024":804665,"facility_use":"PU"},"geometry":{"type":"Point","coordinates":[-86.77505416,34.63719694]}},{"type":"Feature","properties":{"id":"us-airport-LEX","name":"BLUE GRASS","iata":"LEX","icao":"KLEX","enplanements_2024":776297,"facility_use":"PU"},"geometry":{"type":"Point","coordinates":[-84.60861722,38.03674166]}},{"type":"Feature","properties":{"id":"us-airport-MAF","name":"MIDLAND INTL AIR AND SPACE PORT","iata":"MAF","icao":"KMAF","enplanements_2024":761865,"facility_use":"PU"},"geometry":{"type":"Point","coordinates":[-102.20191666,31.94252777]}},{"type":"Feature","properties":{"id":"us-airport-CID","name":"THE EASTERN IOWA","iata":"CID","icao":"KCID","enplanements_2024":759978,"facility_use":"PU"},"geometry":{"type":"Point","coordinates":[-91.71080555,41.88469444]}},{"type":"Feature","properties":{"id":"us-airport-EYW","name":"KEY WEST INTL","iata":"EYW","icao":"KEYW","enplanements_2024":740762,"facility_use":"PU"},"geometry":{"type":"Point","coordinates":[-81.75995583,24.55611972]}},{"type":"Feature","properties":{"id":"us-airport-ILM","name":"WILMINGTON INTL","iata":"ILM","icao":"KILM","enplanements_2024":737065,"facility_use":"PU"},"geometry":{"type":"Point","coordinates":[-77.90289055,34.27115138]}},{"type":"Feature","properties":{"id":"us-airport-MDT","name":"HARRISBURG INTL","iata":"MDT","icao":"KMDT","enplanements_2024":727163,"facility_use":"PU"},"geometry":{"type":"Point","coordinates":[-76.76261916,40.19319166]}},{"type":"Feature","properties":{"id":"us-airport-SGF","name":"SPRINGFIELD-BRANSON NTL","iata":"SGF","icao":"KSGF","enplanements_2024":702338,"facility_use":"PU"},"geometry":{"type":"Point","coordinates":[-93.38862694,37.24566138]}},{"type":"Feature","properties":{"id":"us-airport-FSD","name":"JOE FOSS FLD","iata":"FSD","icao":"KFSD","enplanements_2024":701353,"facility_use":"PU"},"geometry":{"type":"Point","coordinates":[-96.74192527,43.58201805]}},{"type":"Feature","properties":{"id":"us-airport-SBA","name":"SANTA BARBARA MUNI","iata":"SBA","icao":"KSBA","enplanements_2024":696396,"facility_use":"PU"},"geometry":{"type":"Point","coordinates":[-119.84149277,34.42619166]}},{"type":"Feature","properties":{"id":"us-airport-ISP","name":"LONG ISLAND MAC ARTHUR","iata":"ISP","icao":"KISP","enplanements_2024":682804,"facility_use":"PU"},"geometry":{"type":"Point","coordinates":[-73.10066505,40.79613569]}},{"type":"Feature","properties":{"id":"us-airport-ITO","name":"HILO INTL","iata":"ITO","icao":"PHTO","enplanements_2024":680640,"facility_use":"PU"},"geometry":{"type":"Point","coordinates":[-155.04847027,19.72026222]}},{"type":"Feature","properties":{"id":"us-airport-BTV","name":"PATRICK LEAHY BURLINGTON INTL","iata":"BTV","icao":"KBTV","enplanements_2024":670636,"facility_use":"PU"},"geometry":{"type":"Point","coordinates":[-73.15327611,44.471955]}},{"type":"Feature","properties":{"id":"us-airport-CAE","name":"COLUMBIA METRO","iata":"CAE","icao":"KCAE","enplanements_2024":654460,"facility_use":"PU"},"geometry":{"type":"Point","coordinates":[-81.11953555,33.93883805]}},{"type":"Feature","properties":{"id":"us-airport-MHT","name":"MANCHESTER BOSTON RGNL","iata":"MHT","icao":"KMHT","enplanements_2024":633257,"facility_use":"PU"},"geometry":{"type":"Point","coordinates":[-71.43575,42.93280555]}},{"type":"Feature","properties":{"id":"us-airport-MFE","name":"MC ALLEN INTL","iata":"MFE","icao":"KMFE","enplanements_2024":625670,"facility_use":"PU"},"geometry":{"type":"Point","coordinates":[-98.23861111,26.17583333]}},{"type":"Feature","properties":{"id":"us-airport-DAY","name":"JAMES M COX DAYTON INTL","iata":"DAY","icao":"KDAY","enplanements_2024":624995,"facility_use":"PU"},"geometry":{"type":"Point","coordinates":[-84.21941222,39.90225222]}},{"type":"Feature","properties":{"id":"us-airport-JAN","name":"JACKSON-MEDGAR WILEY EVERS INTL","iata":"JAN","icao":"KJAN","enplanements_2024":616695,"facility_use":"PU"},"geometry":{"type":"Point","coordinates":[-90.07588888,32.31116666]}},{"type":"Feature","properties":{"id":"us-airport-HRL","name":"VALLEY INTL","iata":"HRL","icao":"KHRL","enplanements_2024":603561,"facility_use":"PU"},"geometry":{"type":"Point","coordinates":[-97.65531194,26.22655944]}},{"type":"Feature","properties":{"id":"us-airport-RDM","name":"ROBERTS FLD","iata":"RDM","icao":"KRDM","enplanements_2024":601152,"facility_use":"PU"},"geometry":{"type":"Point","coordinates":[-121.14997138,44.25406888]}},{"type":"Feature","properties":{"id":"us-airport-HVN","name":"TWEED/NEW HAVEN","iata":"HVN","icao":"KHVN","enplanements_2024":589409,"facility_use":"PU"},"geometry":{"type":"Point","coordinates":[-72.88772916,41.26372472]}},{"type":"Feature","properties":{"id":"us-airport-FAI","name":"FAIRBANKS INTL","iata":"FAI","icao":"PAFA","enplanements_2024":574012,"facility_use":"PU"},"geometry":{"type":"Point","coordinates":[-147.85666666,64.81535555]}},{"type":"Feature","properties":{"id":"us-airport-LBB","name":"LUBBOCK PRESTON SMITH INTL","iata":"LBB","icao":"KLBB","enplanements_2024":563180,"facility_use":"PU"},"geometry":{"type":"Point","coordinates":[-101.82055555,33.66366666]}},{"type":"Feature","properties":{"id":"us-airport-CHA","name":"LOVELL FLD","iata":"CHA","icao":"KCHA","enplanements_2024":557741,"facility_use":"PU"},"geometry":{"type":"Point","coordinates":[-85.20355555,35.03519444]}},{"type":"Feature","properties":{"id":"us-airport-FAR","name":"HECTOR INTL","iata":"FAR","icao":"KFAR","enplanements_2024":552860,"facility_use":"PU"},"geometry":{"type":"Point","coordinates":[-96.81575,46.92063888]}},{"type":"Feature","properties":{"id":"us-airport-ATW","name":"APPLETON INTL","iata":"ATW","icao":"KATW","enplanements_2024":540349,"facility_use":"PU"},"geometry":{"type":"Point","coordinates":[-88.51907222,44.25809305]}},{"type":"Feature","properties":{"id":"us-airport-JAC","name":"JACKSON HOLE","iata":"JAC","icao":"KJAC","enplanements_2024":518754,"facility_use":"PU"},"geometry":{"type":"Point","coordinates":[-110.73774888,43.60733722]}},{"type":"Feature","properties":{"id":"us-airport-MSO","name":"MISSOULA MONTANA","iata":"MSO","icao":"KMSO","enplanements_2024":511553,"facility_use":"PU"},"geometry":{"type":"Point","coordinates":[-114.09055555,46.91630555]}},{"type":"Feature","properties":{"id":"us-airport-GPI","name":"GLACIER PARK INTL","iata":"GPI","icao":"KGPI","enplanements_2024":503816,"facility_use":"PU"},"geometry":{"type":"Point","coordinates":[-114.256,48.3105]}},{"type":"Feature","properties":{"id":"us-airport-MFR","name":"ROGUE VALLEY INTL/MEDFORD","iata":"MFR","icao":"KMFR","enplanements_2024":503733,"facility_use":"PU"},"geometry":{"type":"Point","coordinates":[-122.8732875,42.37496472]}},{"type":"Feature","properties":{"id":"us-airport-ACY","name":"ATLANTIC CITY INTL","iata":"ACY","icao":"KACY","enplanements_2024":489848,"facility_use":"PU"},"geometry":{"type":"Point","coordinates":[-74.57715527,39.45757583]}},{"type":"Feature","properties":{"id":"us-airport-PSC","name":"TRI-CITIES","iata":"PSC","icao":"KPSC","enplanements_2024":476639,"facility_use":"PU"},"geometry":{"type":"Point","coordinates":[-119.1194,46.26494833]}},{"type":"Feature","properties":{"id":"us-airport-BIL","name":"BILLINGS LOGAN INTL","iata":"BIL","icao":"KBIL","enplanements_2024":475334,"facility_use":"PU"},"geometry":{"type":"Point","coordinates":[-108.54354355,45.80784913]}},{"type":"Feature","properties":{"id":"us-airport-TLH","name":"TALLAHASSEE INTL","iata":"TLH","icao":"KTLH","enplanements_2024":469318,"facility_use":"PU"},"geometry":{"type":"Point","coordinates":[-84.35086888,30.39675416]}},{"type":"Feature","properties":{"id":"us-airport-PVU","name":"PROVO MUNI","iata":"PVU","icao":"KPVU","enplanements_2024":455219,"facility_use":"PU"},"geometry":{"type":"Point","coordinates":[-111.72336111,40.21916666]}},{"type":"Feature","properties":{"id":"us-airport-SBN","name":"SOUTH BEND INTL","iata":"SBN","icao":"KSBN","enplanements_2024":454920,"facility_use":"PU"},"geometry":{"type":"Point","coordinates":[-86.3173375,41.70822388]}},{"type":"Feature","properties":{"id":"us-airport-ABE","name":"LEHIGH VALLEY INTL","iata":"ABE","icao":"KABE","enplanements_2024":447899,"facility_use":"PU"},"geometry":{"type":"Point","coordinates":[-75.44040583,40.65236277]}},{"type":"Feature","properties":{"id":"us-airport-JNU","name":"JUNEAU INTL","iata":"JNU","icao":"PAJN","enplanements_2024":436457,"facility_use":"PU"},"geometry":{"type":"Point","coordinates":[-134.57847052,58.3547118]}},{"type":"Feature","properties":{"id":"us-airport-GPT","name":"GULFPORT-BILOXI INTL","iata":"GPT","icao":"KGPT","enplanements_2024":424624,"facility_use":"PU"},"geometry":{"type":"Point","coordinates":[-89.07009583,30.40726916]}},{"type":"Feature","properties":{"id":"us-airport-FWA","name":"FORT WAYNE INTL","iata":"FWA","icao":"KFWA","enplanements_2024":424491,"facility_use":"PU"},"geometry":{"type":"Point","coordinates":[-85.19516666,40.97847222]}},{"type":"Feature","properties":{"id":"us-airport-BTR","name":"BATON ROUGE METRO, RYAN FLD","iata":"BTR","icao":"KBTR","enplanements_2024":419446,"facility_use":"PU"},"geometry":{"type":"Point","coordinates":[-91.14988888,30.53291666]}},{"type":"Feature","properties":{"id":"us-airport-RAP","name":"RAPID CITY RGNL","iata":"RAP","icao":"KRAP","enplanements_2024":418183,"facility_use":"PU"},"geometry":{"type":"Point","coordinates":[-103.05736111,44.04533333]}},{"type":"Feature","properties":{"id":"us-airport-AMA","name":"RICK HUSBAND AMARILLO INTL","iata":"AMA","icao":"KAMA","enplanements_2024":402315,"facility_use":"PU"},"geometry":{"type":"Point","coordinates":[-101.70591666,35.21936111]}},{"type":"Feature","properties":{"id":"us-airport-TVC","name":"CHERRY CAPITAL","iata":"TVC","icao":"KTVC","enplanements_2024":393108,"facility_use":"PU"},"geometry":{"type":"Point","coordinates":[-85.58187,44.74157861]}},{"type":"Feature","properties":{"id":"us-airport-STS","name":"CHARLES M SCHULZ/SONOMA COUNTY","iata":"STS","icao":"KSTS","enplanements_2024":382556,"facility_use":"PU"},"geometry":{"type":"Point","coordinates":[-122.81288888,38.50969444]}},{"type":"Feature","properties":{"id":"us-airport-ROA","name":"ROANOKE/BLACKSBURG RGNL (WOODRUM FLD)","iata":"ROA","icao":"KROA","enplanements_2024":382103,"facility_use":"PU"},"geometry":{"type":"Point","coordinates":[-79.97541666,37.32547222]}},{"type":"Feature","properties":{"id":"us-airport-CAK","name":"AKRON-CANTON RGNL","iata":"CAK","icao":"KCAK","enplanements_2024":380232,"facility_use":"PU"},"geometry":{"type":"Point","coordinates":[-81.44363888,40.91505555]}},{"type":"Feature","properties":{"id":"us-airport-BGR","name":"BANGOR INTL","iata":"BGR","icao":"KBGR","enplanements_2024":376456,"facility_use":"PU"},"geometry":{"type":"Point","coordinates":[-68.82813888,44.80744444]}},{"type":"Feature","properties":{"id":"us-airport-CRP","name":"CORPUS CHRISTI INTL","iata":"CRP","icao":"KCRP","enplanements_2024":369393,"facility_use":"PU"},"geometry":{"type":"Point","coordinates":[-97.50242194,27.77218166]}},{"type":"Feature","properties":{"id":"us-airport-SBP","name":"SAN LUIS OBISPO COUNTY RGNL","iata":"SBP","icao":"KSBP","enplanements_2024":366428,"facility_use":"PU"},"geometry":{"type":"Point","coordinates":[-120.64260277,35.2372725]}},{"type":"Feature","properties":{"id":"us-airport-BQN","name":"RAFAEL HERNANDEZ","iata":"BQN","icao":"TJBQ","enplanements_2024":360645,"facility_use":"PU"},"geometry":{"type":"Point","coordinates":[-67.12944166,18.49485222]}},{"type":"Feature","properties":{"id":"us-airport-SHV","name":"SHREVEPORT RGNL","iata":"SHV","icao":"KSHV","enplanements_2024":352281,"facility_use":"PU"},"geometry":{"type":"Point","coordinates":[-93.82604,32.44651527]}},{"type":"Feature","properties":{"id":"us-airport-CHO","name":"CHARLOTTESVILLE-ALBEMARLE","iata":"CHO","icao":"KCHO","enplanements_2024":351138,"facility_use":"PU"},"geometry":{"type":"Point","coordinates":[-78.45234416,38.13964277]}},{"type":"Feature","properties":{"id":"us-airport-ASE","name":"ASPEN-PITKIN COUNTY/SARDY FLD","iata":"ASE","icao":"KASE","enplanements_2024":349781,"facility_use":"PU"},"geometry":{"type":"Point","coordinates":[-106.86823333,39.22187833]}},{"type":"Feature","properties":{"id":"us-airport-MLB","name":"MELBOURNE ORLANDO INTL","iata":"MLB","icao":"KMLB","enplanements_2024":348283,"facility_use":"PU"},"geometry":{"type":"Point","coordinates":[-80.64525,28.10275]}},{"type":"Feature","properties":{"id":"us-airport-PIA","name":"GENERAL DOWNING - PEORIA INTL","iata":"PIA","icao":"KPIA","enplanements_2024":343114,"facility_use":"PU"},"geometry":{"type":"Point","coordinates":[-89.69325,40.66419444]}},{"type":"Feature","properties":{"id":"us-airport-GRB","name":"GREEN BAY/AUSTIN STRAUBEL INTL","iata":"GRB","icao":"KGRB","enplanements_2024":338127,"facility_use":"PU"},"geometry":{"type":"Point","coordinates":[-88.12971333,44.48463361]}},{"type":"Feature","properties":{"id":"us-airport-DAB","name":"DAYTONA BEACH INTL","iata":"DAB","icao":"KDAB","enplanements_2024":337763,"facility_use":"PU"},"geometry":{"type":"Point","coordinates":[-81.05804222,29.17990888]}},{"type":"Feature","properties":{"id":"us-airport-MLI","name":"QUAD CITIES INTL","iata":"MLI","icao":"KMLI","enplanements_2024":326888,"facility_use":"PU"},"geometry":{"type":"Point","coordinates":[-90.50777,41.44820916]}},{"type":"Feature","properties":{"id":"us-airport-MOB","name":"MOBILE RGNL","iata":"MOB","icao":"KMOB","enplanements_2024":314406,"facility_use":"PU"},"geometry":{"type":"Point","coordinates":[-88.24283333,30.69141666]}},{"type":"Feature","properties":{"id":"us-airport-MRY","name":"MONTEREY RGNL","iata":"MRY","icao":"KMRY","enplanements_2024":305434,"facility_use":"PU"},"geometry":{"type":"Point","coordinates":[-121.84278305,36.58695222]}},{"type":"Feature","properties":{"id":"us-airport-IDA","name":"IDAHO FALLS RGNL","iata":"IDA","icao":"KIDA","enplanements_2024":301674,"facility_use":"PU"},"geometry":{"type":"Point","coordinates":[-112.07082027,43.51367333]}},{"type":"Feature","properties":{"id":"us-airport-AGS","name":"AUGUSTA RGNL AT BUSH FLD","iata":"AGS","icao":"KAGS","enplanements_2024":299141,"facility_use":"PU"},"geometry":{"type":"Point","coordinates":[-81.96449833,33.36995416]}},{"type":"Feature","properties":{"id":"us-airport-BIS","name":"BISMARCK MUNI","iata":"BIS","icao":"KBIS","enplanements_2024":295900,"facility_use":"PU"},"geometry":{"type":"Point","coordinates":[-100.7457375,46.77273388]}},{"type":"Feature","properties":{"id":"us-airport-GNV","name":"GAINESVILLE RGNL","iata":"GNV","icao":"KGNV","enplanements_2024":290563,"facility_use":"PU"},"geometry":{"type":"Point","coordinates":[-82.27177777,29.69005555]}},{"type":"Feature","properties":{"id":"us-airport-FNT","name":"BISHOP INTL","iata":"FNT","icao":"KFNT","enplanements_2024":285088,"facility_use":"PU"},"geometry":{"type":"Point","coordinates":[-83.74473805,42.96546388]}},{"type":"Feature","properties":{"id":"us-airport-EGE","name":"EAGLE COUNTY RGNL","iata":"EGE","icao":"KEGE","enplanements_2024":282849,"facility_use":"PU"},"geometry":{"type":"Point","coordinates":[-106.91594444,39.64275]}},{"type":"Feature","properties":{"id":"us-airport-PAE","name":"SEATTLE PAINE FLD INTL","iata":"PAE","icao":"KPAE","enplanements_2024":275996,"facility_use":"PU"},"geometry":{"type":"Point","coordinates":[-122.28209388,47.90731805]}},{"type":"Feature","properties":{"id":"us-airport-GJT","name":"GRAND JUNCTION RGNL","iata":"GJT","icao":"KGJT","enplanements_2024":270935,"facility_use":"PU"},"geometry":{"type":"Point","coordinates":[-108.52548555,39.12149916]}},{"type":"Feature","properties":{"id":"us-airport-BLI","name":"BELLINGHAM INTL","iata":"BLI","icao":"KBLI","enplanements_2024":266703,"facility_use":"PU"},"geometry":{"type":"Point","coordinates":[-122.53752777,48.79269444]}},{"type":"Feature","properties":{"id":"us-airport-STX","name":"HENRY E ROHLSEN","iata":"STX","icao":"TISX","enplanements_2024":265243,"facility_use":"PU"},"geometry":{"type":"Point","coordinates":[-64.8019825,17.70153694]}},{"type":"Feature","properties":{"id":"us-airport-MTJ","name":"MONTROSE RGNL","iata":"MTJ","icao":"KMTJ","enplanements_2024":264973,"facility_use":"PU"},"geometry":{"type":"Point","coordinates":[-107.89425,38.50980555]}},{"type":"Feature","properties":{"id":"us-airport-LFT","name":"LAFAYETTE RGNL/PAUL FOURNET FLD","iata":"LFT","icao":"KLFT","enplanements_2024":264471,"facility_use":"PU"},"geometry":{"type":"Point","coordinates":[-91.98775388,30.20502666]}},{"type":"Feature","properties":{"id":"us-airport-DRO","name":"DURANGO-LA PLATA COUNTY","iata":"DRO","icao":"KDRO","enplanements_2024":250640,"facility_use":"PU"},"geometry":{"type":"Point","coordinates":[-107.75377777,37.15152777]}},{"type":"Feature","properties":{"id":"us-airport-TTN","name":"TRENTON MERCER","iata":"TTN","icao":"KTTN","enplanements_2024":241950,"facility_use":"PU"},"geometry":{"type":"Point","coordinates":[-74.81347222,40.27669444]}},{"type":"Feature","properties":{"id":"us-airport-GSN","name":"FRANCISCO C ADA/SAIPAN INTL","iata":"GSN","icao":"PGSN","enplanements_2024":234042,"facility_use":"PU"},"geometry":{"type":"Point","coordinates":[145.72998638,15.12024861]}},{"type":"Feature","properties":{"id":"us-airport-TRI","name":"TRI-CITIES","iata":"TRI","icao":"KTRI","enplanements_2024":229860,"facility_use":"PU"},"geometry":{"type":"Point","coordinates":[-82.407415,36.47520888]}},{"type":"Feature","properties":{"id":"us-airport-HDN","name":"YAMPA VALLEY","iata":"HDN","icao":"KHDN","enplanements_2024":226830,"facility_use":"PU"},"geometry":{"type":"Point","coordinates":[-107.21766666,40.48119444]}},{"type":"Feature","properties":{"id":"us-airport-AVP","name":"WILKES-BARRE/SCRANTON INTL","iata":"AVP","icao":"KAVP","enplanements_2024":219572,"facility_use":"PU"},"geometry":{"type":"Point","coordinates":[-75.72338888,41.33847222]}},{"type":"Feature","properties":{"id":"us-airport-AEX","name":"ALEXANDRIA INTL","iata":"AEX","icao":"KAEX","enplanements_2024":204603,"facility_use":"PU"},"geometry":{"type":"Point","coordinates":[-92.54855583,31.32737166]}},{"type":"Feature","properties":{"id":"us-airport-CRW","name":"WEST VIRGINIA INTL YEAGER","iata":"CRW","icao":"KCRW","enplanements_2024":202303,"facility_use":"PU"},"geometry":{"type":"Point","coordinates":[-81.59289361,38.37601305]}},{"type":"Feature","properties":{"id":"us-airport-BFL","name":"MEADOWS FLD","iata":"BFL","icao":"KBFL","enplanements_2024":195148,"facility_use":"PU"},"geometry":{"type":"Point","coordinates":[-119.05766666,35.43386111]}},{"type":"Feature","properties":{"id":"us-airport-MGM","name":"MONTGOMERY RGNL (DANNELLY FLD)","iata":"MGM","icao":"KMGM","enplanements_2024":193746,"facility_use":"PU"},"geometry":{"type":"Point","coordinates":[-86.39397222,32.30063888]}},{"type":"Feature","properties":{"id":"us-airport-EVV","name":"EVANSVILLE RGNL","iata":"EVV","icao":"KEVV","enplanements_2024":189706,"facility_use":"PU"},"geometry":{"type":"Point","coordinates":[-87.52849361,38.04080416]}},{"type":"Feature","properties":{"id":"us-airport-BRO","name":"BROWNSVILLE/SOUTH PADRE ISLAND INTL","iata":"BRO","icao":"KBRO","enplanements_2024":188157,"facility_use":"PU"},"geometry":{"type":"Point","coordinates":[-97.426,25.90613888]}},{"type":"Feature","properties":{"id":"us-airport-GTF","name":"GREAT FALLS INTL","iata":"GTF","icao":"KGTF","enplanements_2024":186778,"facility_use":"PU"},"geometry":{"type":"Point","coordinates":[-111.37027941,47.48229927]}},{"type":"Feature","properties":{"id":"us-airport-SAF","name":"SANTA FE RGNL","iata":"SAF","icao":"KSAF","enplanements_2024":180248,"facility_use":"PU"},"geometry":{"type":"Point","coordinates":[-106.08941666,35.61711111]}},{"type":"Feature","properties":{"id":"us-airport-LRD","name":"LAREDO INTL","iata":"LRD","icao":"KLRD","enplanements_2024":172726,"facility_use":"PU"},"geometry":{"type":"Point","coordinates":[-99.46158333,27.54419444]}},{"type":"Feature","properties":{"id":"us-airport-MOT","name":"MINOT INTL","iata":"MOT","icao":"KMOT","enplanements_2024":169463,"facility_use":"PU"},"geometry":{"type":"Point","coordinates":[-101.27802777,48.25763888]}},{"type":"Feature","properties":{"id":"us-airport-FAY","name":"FAYETTEVILLE RGNL/GRANNIS FLD","iata":"FAY","icao":"KFAY","enplanements_2024":168117,"facility_use":"PU"},"geometry":{"type":"Point","coordinates":[-78.88027416,34.99121111]}},{"type":"Feature","properties":{"id":"us-airport-BET","name":"BETHEL","iata":"BET","icao":"PABE","enplanements_2024":165846,"facility_use":"PU"},"geometry":{"type":"Point","coordinates":[-161.83716666,60.77855555]}},{"type":"Feature","properties":{"id":"us-airport-BMI","name":"CENTRAL IL RGNL/BLOOMINGTON-NORMAL","iata":"BMI","icao":"KBMI","enplanements_2024":161971,"facility_use":"PU"},"geometry":{"type":"Point","coordinates":[-88.91591666,40.47711111]}},{"type":"Feature","properties":{"id":"us-airport-SGU","name":"ST GEORGE RGNL","iata":"SGU","icao":"KSGU","enplanements_2024":161201,"facility_use":"PU"},"geometry":{"type":"Point","coordinates":[-113.51030277,37.03637805]}},{"type":"Feature","properties":{"id":"us-airport-ACK","name":"NANTUCKET MEML","iata":"ACK","icao":"KACK","enplanements_2024":154173,"facility_use":"PU"},"geometry":{"type":"Point","coordinates":[-70.06051138,41.25329916]}},{"type":"Feature","properties":{"id":"us-airport-BLV","name":"SCOTT AFB/MIDAMERICA ST LOUIS","iata":"BLV","icao":"KBLV","enplanements_2024":152632,"facility_use":"PU"},"geometry":{"type":"Point","coordinates":[-89.83518555,38.54517305]}},{"type":"Feature","properties":{"id":"us-airport-KTN","name":"KETCHIKAN INTL","iata":"KTN","icao":"PAKT","enplanements_2024":152082,"facility_use":"PU"},"geometry":{"type":"Point","coordinates":[-131.71122222,55.35408333]}},{"type":"Feature","properties":{"id":"us-airport-OAJ","name":"ALBERT J ELLIS","iata":"OAJ","icao":"KOAJ","enplanements_2024":145901,"facility_use":"PU"},"geometry":{"type":"Point","coordinates":[-77.61213888,34.82916666]}},{"type":"Feature","properties":{"id":"us-airport-SWF","name":"NEW YORK STEWART INTL","iata":"SWF","icao":"KSWF","enplanements_2024":143310,"facility_use":"PU"},"geometry":{"type":"Point","coordinates":[-74.10483333,41.50411111]}},{"type":"Feature","properties":{"id":"us-airport-LCK","name":"RICKENBACKER INTL","iata":"LCK","icao":"KLCK","enplanements_2024":143035,"facility_use":"PU"},"geometry":{"type":"Point","coordinates":[-82.92781372,39.813787]}},{"type":"Feature","properties":{"id":"us-airport-PSE","name":"MERCEDITA","iata":"PSE","icao":"TJPS","enplanements_2024":137553,"facility_use":"PU"},"geometry":{"type":"Point","coordinates":[-66.56452777,18.00877777]}},{"type":"Feature","properties":{"id":"us-airport-DLH","name":"DULUTH INTL","iata":"DLH","icao":"KDLH","enplanements_2024":135966,"facility_use":"PU"},"geometry":{"type":"Point","coordinates":[-92.19323722,46.84206975]}},{"type":"Feature","properties":{"id":"us-airport-UNV","name":"STATE COLLEGE RGNL","iata":"UNV","icao":"KUNV","enplanements_2024":134128,"facility_use":"PU"},"geometry":{"type":"Point","coordinates":[-77.84758333,40.85]}},{"type":"Feature","properties":{"id":"us-airport-ACV","name":"CALIFORNIA REDWOOD COAST-HUMBOLDT COUNTY","iata":"ACV","icao":"KACV","enplanements_2024":133682,"facility_use":"PU"},"geometry":{"type":"Point","coordinates":[-124.10846916,40.97782638]}},{"type":"Feature","properties":{"id":"us-airport-RFD","name":"CHICAGO/ROCKFORD INTL","iata":"RFD","icao":"KRFD","enplanements_2024":132154,"facility_use":"PU"},"geometry":{"type":"Point","coordinates":[-89.09722222,42.19536111]}},{"type":"Feature","properties":{"id":"us-airport-JQF","name":"CONCORD-PADGETT RGNL","iata":"JQF","icao":"KJQF","enplanements_2024":132000,"facility_use":"PU"},"geometry":{"type":"Point","coordinates":[-80.7091325,35.38777027]}},{"type":"Feature","properties":{"id":"us-airport-LNK","name":"LINCOLN","iata":"LNK","icao":"KLNK","enplanements_2024":129968,"facility_use":"PU"},"geometry":{"type":"Point","coordinates":[-96.75912111,40.85089138]}},{"type":"Feature","properties":{"id":"us-airport-ILG","name":"NEW CASTLE","iata":"ILG","icao":"KILG","enplanements_2024":125071,"facility_use":"PU"},"geometry":{"type":"Point","coordinates":[-75.606635,39.67870972]}},{"type":"Feature","properties":{"id":"us-airport-LAN","name":"CAPITAL REGION INTL","iata":"LAN","icao":"KLAN","enplanements_2024":123608,"facility_use":"PU"},"geometry":{"type":"Point","coordinates":[-84.58620555,42.7786475]}},{"type":"Feature","properties":{"id":"us-airport-SUN","name":"FRIEDMAN MEML","iata":"SUN","icao":"KSUN","enplanements_2024":121123,"facility_use":"PU"},"geometry":{"type":"Point","coordinates":[-114.29555833,43.50378138]}},{"type":"Feature","properties":{"id":"us-airport-GCN","name":"GRAND CANYON NTL PARK","iata":"GCN","icao":"KGCN","enplanements_2024":120222,"facility_use":"PU"},"geometry":{"type":"Point","coordinates":[-112.14697222,35.95236111]}},{"type":"Feature","properties":{"id":"us-airport-GRK","name":"ROBERT GRAY AAF","iata":"GRK","icao":"KGRK","enplanements_2024":117523,"facility_use":"PU"},"geometry":{"type":"Point","coordinates":[-97.82891666,31.06725]}},{"type":"Feature","properties":{"id":"us-airport-ORH","name":"WORCESTER RGNL","iata":"ORH","icao":"KORH","enplanements_2024":112872,"facility_use":"PU"},"geometry":{"type":"Point","coordinates":[-71.87561111,42.26713888]}},{"type":"Feature","properties":{"id":"us-airport-MBS","name":"MBS INTL","iata":"MBS","icao":"KMBS","enplanements_2024":110822,"facility_use":"PU"},"geometry":{"type":"Point","coordinates":[-84.07963583,43.53292694]}},{"type":"Feature","properties":{"id":"us-airport-HXD","name":"HILTON HEAD","iata":"HXD","icao":"KHXD","enplanements_2024":108775,"facility_use":"PU"},"geometry":{"type":"Point","coordinates":[-80.69740083,32.224495]}},{"type":"Feature","properties":{"id":"us-airport-MLU","name":"MONROE RGNL","iata":"MLU","icao":"KMLU","enplanements_2024":105274,"facility_use":"PU"},"geometry":{"type":"Point","coordinates":[-92.03613361,32.51055583]}},{"type":"Feature","properties":{"id":"us-airport-COU","name":"COLUMBIA RGNL","iata":"COU","icao":"KCOU","enplanements_2024":103081,"facility_use":"PU"},"geometry":{"type":"Point","coordinates":[-92.21779194,38.81773555]}},{"type":"Feature","properties":{"id":"us-airport-HLN","name":"HELENA RGNL","iata":"HLN","icao":"KHLN","enplanements_2024":101591,"facility_use":"PU"},"geometry":{"type":"Point","coordinates":[-111.98327777,46.60672222]}},{"type":"Feature","properties":{"id":"us-airport-PSM","name":"PORTSMOUTH INTL AT PEASE","iata":"PSM","icao":"KPSM","enplanements_2024":100298,"facility_use":"PU"},"geometry":{"type":"Point","coordinates":[-70.82327777,43.07794444]}},{"type":"Feature","properties":{"id":"us-airport-XWA","name":"WILLISTON BASIN INTL","iata":"XWA","icao":"KXWA","enplanements_2024":99735,"facility_use":"PU"},"geometry":{"type":"Point","coordinates":[-103.75055666,48.25978361]}},{"type":"Feature","properties":{"id":"us-airport-CPR","name":"CASPER/NATRONA COUNTY INTL","iata":"CPR","icao":"KCPR","enplanements_2024":99658,"facility_use":"PU"},"geometry":{"type":"Point","coordinates":[-106.46364861,42.90587472]}},{"type":"Feature","properties":{"id":"us-airport-RST","name":"ROCHESTER INTL","iata":"RST","icao":"KRST","enplanements_2024":98537,"facility_use":"PU"},"geometry":{"type":"Point","coordinates":[-92.50002777,43.90827777]}},{"type":"Feature","properties":{"id":"us-airport-SIT","name":"SITKA ROCKY GUTIERREZ","iata":"SIT","icao":"PASI","enplanements_2024":98066,"facility_use":"PU"},"geometry":{"type":"Point","coordinates":[-135.36106869,57.04683436]}},{"type":"Feature","properties":{"id":"us-airport-SCC","name":"DEADHORSE","iata":"SCC","icao":"PASC","enplanements_2024":96967,"facility_use":"PU"},"geometry":{"type":"Point","coordinates":[-148.46516486,70.19475411]}},{"type":"Feature","properties":{"id":"us-airport-ABI","name":"ABILENE RGNL","iata":"ABI","icao":"KABI","enplanements_2024":94579,"facility_use":"PU"},"geometry":{"type":"Point","coordinates":[-99.68188888,32.41133333]}},{"type":"Feature","properties":{"id":"us-airport-HTS","name":"TRI-STATE/MILTON J FERGUSON FLD","iata":"HTS","icao":"KHTS","enplanements_2024":93330,"facility_use":"PU"},"geometry":{"type":"Point","coordinates":[-82.56036022,38.3685078]}},{"type":"Feature","properties":{"id":"us-airport-PBG","name":"PLATTSBURGH INTL","iata":"PBG","icao":"KPBG","enplanements_2024":92960,"facility_use":"PU"},"geometry":{"type":"Point","coordinates":[-73.46813888,44.65094444]}},{"type":"Feature","properties":{"id":"us-airport-AZO","name":"KALAMAZOO/BATTLE CREEK INTL","iata":"AZO","icao":"KAZO","enplanements_2024":92510,"facility_use":"PU"},"geometry":{"type":"Point","coordinates":[-85.55155555,42.23438888]}},{"type":"Feature","properties":{"id":"us-airport-GFK","name":"GRAND FORKS INTL","iata":"GFK","icao":"KGFK","enplanements_2024":92482,"facility_use":"PU"},"geometry":{"type":"Point","coordinates":[-97.17569166,47.94786833]}},{"type":"Feature","properties":{"id":"us-airport-LCH","name":"LAKE CHARLES RGNL","iata":"LCH","icao":"KLCH","enplanements_2024":90791,"facility_use":"PU"},"geometry":{"type":"Point","coordinates":[-93.22341277,30.12609444]}},{"type":"Feature","properties":{"id":"us-airport-CWA","name":"CENTRAL WISCONSIN","iata":"CWA","icao":"KCWA","enplanements_2024":90087,"facility_use":"PU"},"geometry":{"type":"Point","coordinates":[-89.66591111,44.77778333]}},{"type":"Feature","properties":{"id":"us-airport-RDD","name":"REDDING RGNL","iata":"RDD","icao":"KRDD","enplanements_2024":88676,"facility_use":"PU"},"geometry":{"type":"Point","coordinates":[-122.29338527,40.50898527]}},{"type":"Feature","properties":{"id":"us-airport-VRB","name":"VERO BEACH RGNL","iata":"VRB","icao":"KVRB","enplanements_2024":88608,"facility_use":"PU"},"geometry":{"type":"Point","coordinates":[-80.41795416,27.655555]}},{"type":"Feature","properties":{"id":"us-airport-EWN","name":"COASTAL CAROLINA RGNL","iata":"EWN","icao":"KEWN","enplanements_2024":86653,"facility_use":"PU"},"geometry":{"type":"Point","coordinates":[-77.04301972,35.07285444]}},{"type":"Feature","properties":{"id":"us-airport-CMI","name":"UNIVERSITY OF ILLINOIS/WILLARD","iata":"CMI","icao":"KCMI","enplanements_2024":86626,"facility_use":"PU"},"geometry":{"type":"Point","coordinates":[-88.27653916,40.03856083]}},{"type":"Feature","properties":{"id":"us-airport-ADQ","name":"KODIAK","iata":"ADQ","icao":"PADQ","enplanements_2024":86579,"facility_use":"PU"},"geometry":{"type":"Point","coordinates":[-152.49394361,57.74979388]}},{"type":"Feature","properties":{"id":"us-airport-MHK","name":"MANHATTAN RGNL","iata":"MHK","icao":"KMHK","enplanements_2024":85901,"facility_use":"PU"},"geometry":{"type":"Point","coordinates":[-96.67155555,39.14141666]}},{"type":"Feature","properties":{"id":"us-airport-ELM","name":"ELMIRA/CORNING RGNL","iata":"ELM","icao":"KELM","enplanements_2024":85696,"facility_use":"PU"},"geometry":{"type":"Point","coordinates":[-76.89174777,42.15985472]}},{"type":"Feature","properties":{"id":"us-airport-NYL","name":"YUMA MCAS/YUMA INTL","iata":"NYL","icao":"KNYL","enplanements_2024":85227,"facility_use":"PU"},"geometry":{"type":"Point","coordinates":[-114.60598722,32.65657388]}},{"type":"Feature","properties":{"id":"us-airport-MKK","name":"MOLOKAI","iata":"MKK","icao":"PHMK","enplanements_2024":84029,"facility_use":"PU"},"geometry":{"type":"Point","coordinates":[-157.09625611,21.15288583]}},{"type":"Feature","properties":{"id":"us-airport-MVY","name":"MARTHA'S VINEYARD","iata":"MVY","icao":"KMVY","enplanements_2024":83419,"facility_use":"PU"},"geometry":{"type":"Point","coordinates":[-70.61387444,41.3934175]}}]}