{"type":"FeatureCollection","features":[{"type":"Feature","properties":{"id":"china-osm-road-100008300","name":"集阿高速"},"geometry":{"type":"Point","coordinates":[113.25599894946794,41.449459002485135]}},{"type":"Feature","properties":{"id":"china-osm-road-1000095573","name":"桂林绕城高速"},"geometry":{"type":"Point","coordinates":[110.3411428,25.2939647]}},{"type":"Feature","properties":{"id":"china-osm-road-100011587","name":"吉黑高速"},"geometry":{"type":"Point","coordinates":[127.26849085,49.4228859]}},{"type":"Feature","properties":{"id":"china-osm-road-1000263919","name":"京沪高速"},"geometry":{"type":"Point","coordinates":[120.0393886,32.22135445]}},{"type":"Feature","properties":{"id":"china-osm-road-1000299679","name":"滨台高速"},"geometry":{"type":"Point","coordinates":[117.74194944999999,35.57359145]}},{"type":"Feature","properties":{"id":"china-osm-road-1000413681","name":"大丽高速"},"geometry":{"type":"Point","coordinates":[99.96590975000001,26.653147]}},{"type":"Feature","properties":{"id":"china-osm-road-1000653083","name":"阜溧高速"},"geometry":{"type":"Point","coordinates":[119.95449185,32.618513699999994]}},{"type":"Feature","properties":{"id":"china-osm-road-1000669345","name":"连霍高速"},"geometry":{"type":"Point","coordinates":[85.76528229262827,44.28656076652316]}},{"type":"Feature","properties":{"id":"china-osm-road-1000670683","name":"京津高速"},"geometry":{"type":"Point","coordinates":[117.09380385,39.4251061]}},{"type":"Feature","properties":{"id":"china-osm-road-1000777868","name":"淮徐高速"},"geometry":{"type":"Point","coordinates":[117.78363341053478,34.01687548925701]}},{"type":"Feature","properties":{"id":"china-osm-road-1000790216","name":"南京机场高速"},"geometry":{"type":"Point","coordinates":[118.8489398,31.79280545]}},{"type":"Feature","properties":{"id":"china-osm-road-1000810579","name":"印习高速"},"geometry":{"type":"Point","coordinates":[107.46758925,28.678871700000002]}},{"type":"Feature","properties":{"id":"china-osm-road-1000811149","name":"银百高速"},"geometry":{"type":"Point","coordinates":[107.44090715,28.61431055]}},{"type":"Feature","properties":{"id":"china-osm-road-1000823362","name":"贵北高速"},"geometry":{"type":"Point","coordinates":[107.7874976,23.393322249999997]}},{"type":"Feature","properties":{"id":"china-osm-road-1000841604","name":"玉新高速"},"geometry":{"type":"Point","coordinates":[107.6389598,27.624134750000003]}},{"type":"Feature","properties":{"id":"china-osm-road-1000841649","name":"杭瑞高速"},"geometry":{"type":"Point","coordinates":[107.38965005,27.7214778]}},{"type":"Feature","properties":{"id":"china-osm-road-1000890757","name":"沿榕高速"},"geometry":{"type":"Point","coordinates":[108.22983880000001,27.624054]}},{"type":"Feature","properties":{"id":"china-osm-road-1000942770","name":"S75"},"geometry":{"type":"Point","coordinates":[111.19719545,35.37217095]}},{"type":"Feature","properties":{"id":"china-osm-road-1000965396","name":"北五环"},"geometry":{"type":"Point","coordinates":[116.2409015,40.000445299999996]}},{"type":"Feature","properties":{"id":"china-osm-road-1000970402","name":"张汶高速"},"geometry":{"type":"Point","coordinates":[101.7157042,36.91916875]}},{"type":"Feature","properties":{"id":"china-osm-road-1001026631","name":"厦蓉高速"},"geometry":{"type":"Point","coordinates":[114.36984570000001,25.738141249999998]}},{"type":"Feature","properties":{"id":"china-osm-road-1001067074","name":"苏台高速"},"geometry":{"type":"Point","coordinates":[120.68248555,31.494113650000003]}},{"type":"Feature","properties":{"id":"china-osm-road-100134048","name":"沪渝高速"},"geometry":{"type":"Point","coordinates":[114.00204439999999,30.4609796]}},{"type":"Feature","properties":{"id":"china-osm-road-1001374571","name":"巴蓉高速"},"geometry":{"type":"Point","coordinates":[106.62700244999999,31.806968400000002]}},{"type":"Feature","properties":{"id":"china-osm-road-1001375942","name":"六钦高速"},"geometry":{"type":"Point","coordinates":[108.7144806,21.828793500000003]}},{"type":"Feature","properties":{"id":"china-osm-road-1001388441","name":"京港澳高速 沈海高速"},"geometry":{"type":"Point","coordinates":[113.81725564999999,22.76956835]}},{"type":"Feature","properties":{"id":"china-osm-road-1001530443","name":"广楚高速"},"geometry":{"type":"Point","coordinates":[101.6803181,25.141432950000002]}},{"type":"Feature","properties":{"id":"china-osm-road-1001542772","name":"S19"},"geometry":{"type":"Point","coordinates":[113.6378923,28.09714095]}},{"type":"Feature","properties":{"id":"china-osm-road-1001542775","name":"S30"},"geometry":{"type":"Point","coordinates":[113.63696405,28.0981119]}},{"type":"Feature","properties":{"id":"china-osm-road-1001577537","name":"佛清从高速"},"geometry":{"type":"Point","coordinates":[113.03375325864332,23.241661210962906]}},{"type":"Feature","properties":{"id":"china-osm-road-1001581291","name":"汕湛高速"},"geometry":{"type":"Point","coordinates":[115.56500729999999,23.6097786]}},{"type":"Feature","properties":{"id":"china-osm-road-1001581299","name":"济广高速"},"geometry":{"type":"Point","coordinates":[115.60144475,23.647854350000003]}},{"type":"Feature","properties":{"id":"china-osm-road-1001616428","name":"广昆高速"},"geometry":{"type":"Point","coordinates":[106.5617917,23.881418099999998]}},{"type":"Feature","properties":{"id":"china-osm-road-1001701678","name":"广龙高速"},"geometry":{"type":"Point","coordinates":[114.6391723,23.1773289]}},{"type":"Feature","properties":{"id":"china-osm-road-1001731523","name":"抚吉高速"},"geometry":{"type":"Point","coordinates":[115.13346045,27.1721957]}},{"type":"Feature","properties":{"id":"china-osm-road-1001859840","name":"邯馆高速"},"geometry":{"type":"Point","coordinates":[114.79512965,36.61007265]}},{"type":"Feature","properties":{"id":"china-osm-road-1001923748","name":"泸南高速"},"geometry":{"type":"Point","coordinates":[100.60900005,26.23862535]}},{"type":"Feature","properties":{"id":"china-osm-road-1001923773","name":"大永高速"},"geometry":{"type":"Point","coordinates":[100.60793675,26.2292964]}},{"type":"Feature","properties":{"id":"china-osm-road-1001923795","name":"金鸡达旦河大桥"},"geometry":{"type":"Point","coordinates":[100.57946435,26.16654535]}},{"type":"Feature","properties":{"id":"china-osm-road-1001923803","name":"文笔山隧道"},"geometry":{"type":"Point","coordinates":[100.59243275,26.1942022]}},{"type":"Feature","properties":{"id":"china-osm-road-1001991394","name":"沪武高速"},"geometry":{"type":"Point","coordinates":[116.27485635,30.8503022]}},{"type":"Feature","properties":{"id":"china-osm-road-1002010682","name":"京新高速"},"geometry":{"type":"Point","coordinates":[116.29060075000001,40.066849000000005]}},{"type":"Feature","properties":{"id":"china-osm-road-1002040363","name":"盐洛高速"},"geometry":{"type":"Point","coordinates":[118.1329743,33.53374375]}},{"type":"Feature","properties":{"id":"china-osm-road-1002201076","name":"常台高速"},"geometry":{"type":"Point","coordinates":[120.67598459999999,31.398652]}},{"type":"Feature","properties":{"id":"china-osm-road-1002356501","name":"成都都市圈环线高速"},"geometry":{"type":"Point","coordinates":[104.7481065,30.8434189]}},{"type":"Feature","properties":{"id":"china-osm-road-1002406966","name":"沈海高速"},"geometry":{"type":"Point","coordinates":[119.94834309999999,36.305549549999995]}},{"type":"Feature","properties":{"id":"china-osm-road-1002635316","name":"成渝环线高速"},"geometry":{"type":"Point","coordinates":[103.09788710000001,30.00882335]}},{"type":"Feature","properties":{"id":"china-osm-road-1002635321","name":"雅叶高速"},"geometry":{"type":"Point","coordinates":[102.95180875,29.9775144]}},{"type":"Feature","properties":{"id":"china-osm-road-1002644607","name":"筑蓉高速"},"geometry":{"type":"Point","coordinates":[104.19070855,30.49463875]}},{"type":"Feature","properties":{"id":"china-osm-road-100283942","name":"motorway"},"geometry":{"type":"Point","coordinates":[130.28671194999998,46.76125785]}},{"type":"Feature","properties":{"id":"china-osm-road-100283945","name":"哈同高速"},"geometry":{"type":"Point","coordinates":[130.25039785,46.76061045]}},{"type":"Feature","properties":{"id":"china-osm-road-100283962","name":"鹤大高速"},"geometry":{"type":"Point","coordinates":[130.2510079,46.871609500000005]}},{"type":"Feature","properties":{"id":"china-osm-road-1002872616","name":"昆明绕城高速"},"geometry":{"type":"Point","coordinates":[102.5202534,24.9540144]}},{"type":"Feature","properties":{"id":"china-osm-road-1003075208","name":"宁淮高速"},"geometry":{"type":"Point","coordinates":[118.9497353,33.6589034]}},{"type":"Feature","properties":{"id":"china-osm-road-100311482","name":"沪昆高速"},"geometry":{"type":"Point","coordinates":[105.98252249239675,26.240848125417187]}},{"type":"Feature","properties":{"id":"china-osm-road-100311565","name":"贵阳绕城高速"},"geometry":{"type":"Point","coordinates":[106.6891351,26.462799699999998]}},{"type":"Feature","properties":{"id":"china-osm-road-1003262423","name":"沪蓉高速"},"geometry":{"type":"Point","coordinates":[119.21810744999999,32.04422515]}},{"type":"Feature","properties":{"id":"china-osm-road-100326621","name":"长深高速"},"geometry":{"type":"Point","coordinates":[119.7949764,31.32062585]}},{"type":"Feature","properties":{"id":"china-osm-road-1003296448","name":"京台高速"},"geometry":{"type":"Point","coordinates":[117.05820410000001,34.251637900000006]}},{"type":"Feature","properties":{"id":"china-osm-road-1003324587","name":"宁洛高速"},"geometry":{"type":"Point","coordinates":[114.0483312,33.5430692]}},{"type":"Feature","properties":{"id":"china-osm-road-1003337465","name":"西互高速"},"geometry":{"type":"Point","coordinates":[101.87367115,36.5877361]}},{"type":"Feature","properties":{"id":"china-osm-road-1003470664","name":"福州机场高速"},"geometry":{"type":"Point","coordinates":[119.64259179999999,25.9112126]}},{"type":"Feature","properties":{"id":"china-osm-road-1003561066","name":"南充绕城高速"},"geometry":{"type":"Point","coordinates":[106.1771608,30.76783925]}},{"type":"Feature","properties":{"id":"china-osm-road-1003741027","name":"高栏港支线"},"geometry":{"type":"Point","coordinates":[113.1408338,22.1050916]}},{"type":"Feature","properties":{"id":"china-osm-road-1003741865","name":"荣潍高速"},"geometry":{"type":"Point","coordinates":[119.78206485,36.7802913]}},{"type":"Feature","properties":{"id":"china-osm-road-1003829669","name":"盐靖高速"},"geometry":{"type":"Point","coordinates":[120.14541615,32.31715115]}},{"type":"Feature","properties":{"id":"china-osm-road-1003898339","name":"商南高速"},"geometry":{"type":"Point","coordinates":[113.53831579999999,33.224366599999996]}},{"type":"Feature","properties":{"id":"china-osm-road-1003968303","name":"董梁高速"},"geometry":{"type":"Point","coordinates":[117.45683405,35.8218414]}},{"type":"Feature","properties":{"id":"china-osm-road-1004123230","name":"海三高速"},"geometry":{"type":"Point","coordinates":[109.43252425,18.9067644]}},{"type":"Feature","properties":{"id":"china-osm-road-100413400","name":"G12"},"geometry":{"type":"Point","coordinates":[122.7616084,45.672061]}},{"type":"Feature","properties":{"id":"china-osm-road-1004197760","name":"沪陕高速"},"geometry":{"type":"Point","coordinates":[120.20005965,32.135253250000005]}},{"type":"Feature","properties":{"id":"china-osm-road-100457515","name":"大广高速"},"geometry":{"type":"Point","coordinates":[115.04613246376081,30.257865037343187]}},{"type":"Feature","properties":{"id":"china-osm-road-1004581227","name":"黄浮高速"},"geometry":{"type":"Point","coordinates":[117.92731745,29.83591405]}},{"type":"Feature","properties":{"id":"china-osm-road-1004582491","name":"广台高速"},"geometry":{"type":"Point","coordinates":[112.49506855,22.39646125]}},{"type":"Feature","properties":{"id":"china-osm-road-1004773445","name":"外环高速"},"geometry":{"type":"Point","coordinates":[121.3491194,31.2116009]}},{"type":"Feature","properties":{"id":"china-osm-road-1004798201","name":"沙厦高速"},"geometry":{"type":"Point","coordinates":[118.0458012,24.89469185]}},{"type":"Feature","properties":{"id":"china-osm-road-1004851094","name":"西和高速"},"geometry":{"type":"Point","coordinates":[84.29183875433762,37.88798127539197]}},{"type":"Feature","properties":{"id":"china-osm-road-1004928017","name":"合肥绕城高速"},"geometry":{"type":"Point","coordinates":[117.1081795,31.93002435]}},{"type":"Feature","properties":{"id":"china-osm-road-1005004251","name":"兰海高速"},"geometry":{"type":"Point","coordinates":[105.91399555,31.6618441]}},{"type":"Feature","properties":{"id":"china-osm-road-1005286520","name":"滨德高速"},"geometry":{"type":"Point","coordinates":[117.24913295,37.67692175]}},{"type":"Feature","properties":{"id":"china-osm-road-1005339362","name":"麒师高速"},"geometry":{"type":"Point","coordinates":[103.95799794999999,25.2777344]}},{"type":"Feature","properties":{"id":"china-osm-road-1005339379","name":"曲陆高速"},"geometry":{"type":"Point","coordinates":[103.836915,25.2900215]}},{"type":"Feature","properties":{"id":"china-osm-road-1005497742","name":"银昆高速"},"geometry":{"type":"Point","coordinates":[104.5447781,28.72937885]}},{"type":"Feature","properties":{"id":"china-osm-road-1005513524","name":"西丽高速"},"geometry":{"type":"Point","coordinates":[98.9648158,35.1924803]}},{"type":"Feature","properties":{"id":"china-osm-road-1005513532","name":"德康高速"},"geometry":{"type":"Point","coordinates":[98.89356588759142,35.220072425378156]}},{"type":"Feature","properties":{"id":"china-osm-road-1005523548","name":"京昆高速"},"geometry":{"type":"Point","coordinates":[102.95534565,29.97780345]}},{"type":"Feature","properties":{"id":"china-osm-road-1005632485","name":"承围高速"},"geometry":{"type":"Point","coordinates":[117.74836815,41.94245645]}},{"type":"Feature","properties":{"id":"china-osm-road-1005676792","name":"郑民高速"},"geometry":{"type":"Point","coordinates":[114.7049052,34.60531245]}},{"type":"Feature","properties":{"id":"china-osm-road-1005700811","name":"双嫩高速"},"geometry":{"type":"Point","coordinates":[124.9862705,48.6443208]}},{"type":"Feature","properties":{"id":"china-osm-road-1006003759","name":"长韶娄高速"},"geometry":{"type":"Point","coordinates":[112.1524229,27.9030262]}},{"type":"Feature","properties":{"id":"china-osm-road-1006234340","name":"G1816"},"geometry":{"type":"Point","coordinates":[105.9560405,38.224209450000004]}},{"type":"Feature","properties":{"id":"china-osm-road-1006284645","name":"衡水南绕城高速"},"geometry":{"type":"Point","coordinates":[115.5337885,37.47610265]}},{"type":"Feature","properties":{"id":"china-osm-road-100628537","name":"鹤哈高速"},"geometry":{"type":"Point","coordinates":[126.89275046780783,46.33283455639926]}},{"type":"Feature","properties":{"id":"china-osm-road-1006362450","name":"汕昆高速"},"geometry":{"type":"Point","coordinates":[102.9496776,24.891679699999997]}},{"type":"Feature","properties":{"id":"china-osm-road-1006449512","name":"泉南高速"},"geometry":{"type":"Point","coordinates":[116.44527985,26.26426705]}},{"type":"Feature","properties":{"id":"china-osm-road-1006609461","name":"杭长高速"},"geometry":{"type":"Point","coordinates":[117.68420485,28.9227706]}},{"type":"Feature","properties":{"id":"china-osm-road-1006829445","name":"荣乌高速"},"geometry":{"type":"Point","coordinates":[118.87737634999999,37.02030980000001]}},{"type":"Feature","properties":{"id":"china-osm-road-1006890042","name":"四环路北段"},"geometry":{"type":"Point","coordinates":[104.0651448,30.78700465]}},{"type":"Feature","properties":{"id":"china-osm-road-1006938311","name":"京港澳高速"},"geometry":{"type":"Point","coordinates":[113.94929925,22.56429895]}},{"type":"Feature","properties":{"id":"china-osm-road-1006948514","name":"广安绕城高速"},"geometry":{"type":"Point","coordinates":[106.7241333,30.6191228]}},{"type":"Feature","properties":{"id":"china-osm-road-1006966531","name":"洛栾高速"},"geometry":{"type":"Point","coordinates":[111.7530912,33.9563098]}},{"type":"Feature","properties":{"id":"china-osm-road-1007025949","name":"通锡高速"},"geometry":{"type":"Point","coordinates":[120.72220945000001,32.1202189]}},{"type":"Feature","properties":{"id":"china-osm-road-1007096797","name":"东肖高速"},"geometry":{"type":"Point","coordinates":[116.95346336893724,25.087247633848214]}},{"type":"Feature","properties":{"id":"china-osm-road-1007350921","name":"青银高速(济青)"},"geometry":{"type":"Point","coordinates":[117.77794255,36.8677807]}},{"type":"Feature","properties":{"id":"china-osm-road-1007503455","name":"北富高速"},"geometry":{"type":"Point","coordinates":[125.81619929442796,48.069353917124566]}},{"type":"Feature","properties":{"id":"china-osm-road-1007537777","name":"武汉绕城高速"},"geometry":{"type":"Point","coordinates":[114.48608955,30.432225850000002]}},{"type":"Feature","properties":{"id":"china-osm-road-1007635409","name":"弥楚高速"},"geometry":{"type":"Point","coordinates":[103.2351825027052,24.173008528989048]}},{"type":"Feature","properties":{"id":"china-osm-road-1007663151","name":"迎宾高速"},"geometry":{"type":"Point","coordinates":[121.69220135,31.16973455]}},{"type":"Feature","properties":{"id":"china-osm-road-1007669498","name":"南宁绕城高速"},"geometry":{"type":"Point","coordinates":[108.48733935,22.6772138]}},{"type":"Feature","properties":{"id":"china-osm-road-1007681234","name":"泸弥高速"},"geometry":{"type":"Point","coordinates":[103.42601605,24.3249113]}},{"type":"Feature","properties":{"id":"china-osm-road-1007786030","name":"林拉公路"},"geometry":{"type":"Point","coordinates":[93.73431696908125,29.82477370634325]}},{"type":"Feature","properties":{"id":"china-osm-road-1008112609","name":"宁芜高速"},"geometry":{"type":"Point","coordinates":[118.53709545000001,31.59381175]}},{"type":"Feature","properties":{"id":"china-osm-road-1008274329","name":"沈吉高速"},"geometry":{"type":"Point","coordinates":[125.3753311098591,42.37017103385067]}},{"type":"Feature","properties":{"id":"china-osm-road-1008278491","name":"杭瑞高速;沪昆高速"},"geometry":{"type":"Point","coordinates":[102.7609837,25.102215700000002]}},{"type":"Feature","properties":{"id":"china-osm-road-1008298028","name":"重庆都市圈环线高速"},"geometry":{"type":"Point","coordinates":[106.60785745,29.854277099999997]}},{"type":"Feature","properties":{"id":"china-osm-road-1008298030","name":"三圣特大桥"},"geometry":{"type":"Point","coordinates":[106.5995253,29.8619174]}},{"type":"Feature","properties":{"id":"china-osm-road-1008438070","name":"京藏高速"},"geometry":{"type":"Point","coordinates":[106.14504095000001,37.8960682]}},{"type":"Feature","properties":{"id":"china-osm-road-1008495235","name":"包临高速"},"geometry":{"type":"Point","coordinates":[106.43071929999999,38.7749935]}},{"type":"Feature","properties":{"id":"china-osm-road-1008618979","name":"福银高速"},"geometry":{"type":"Point","coordinates":[105.8567768,37.517744300000004]}},{"type":"Feature","properties":{"id":"china-osm-road-1008645135","name":"珠三角环线高速"},"geometry":{"type":"Point","coordinates":[113.31509335000001,22.6055409]}},{"type":"Feature","properties":{"id":"china-osm-road-1008645139","name":"深岑高速"},"geometry":{"type":"Point","coordinates":[113.31520525,22.605712150000002]}},{"type":"Feature","properties":{"id":"china-osm-road-1008661797","name":"漳武高速"},"geometry":{"type":"Point","coordinates":[116.42042380000001,25.00922435]}},{"type":"Feature","properties":{"id":"china-osm-road-1008723909","name":"柳格高速"},"geometry":{"type":"Point","coordinates":[94.65378885000001,38.308746400000004]}},{"type":"Feature","properties":{"id":"china-osm-road-1008778275","name":"G6;G70"},"geometry":{"type":"Point","coordinates":[106.20880688917039,38.23186976118322]}},{"type":"Feature","properties":{"id":"china-osm-road-1008844424","name":"德都高速"},"geometry":{"type":"Point","coordinates":[103.9669059,31.15579215]}},{"type":"Feature","properties":{"id":"china-osm-road-1008881772","name":"桂河高速"},"geometry":{"type":"Point","coordinates":[109.38845335,24.9450917]}},{"type":"Feature","properties":{"id":"china-osm-road-1008919187","name":"龙青高速"},"geometry":{"type":"Point","coordinates":[120.493199,37.3224213]}},{"type":"Feature","properties":{"id":"china-osm-road-1009009841","name":"杭州支线"},"geometry":{"type":"Point","coordinates":[120.35494525,30.41438815]}},{"type":"Feature","properties":{"id":"china-osm-road-1009019797","name":"青兰高速"},"geometry":{"type":"Point","coordinates":[114.6051537,36.431953899999996]}},{"type":"Feature","properties":{"id":"china-osm-road-100904414","name":"申嘉湖高速"},"geometry":{"type":"Point","coordinates":[120.9765885,30.94170065]}},{"type":"Feature","properties":{"id":"china-osm-road-1009071727","name":"昆磨高速"},"geometry":{"type":"Point","coordinates":[100.95432265,22.8170705]}},{"type":"Feature","properties":{"id":"china-osm-road-1009191644","name":"塘承高速公路"},"geometry":{"type":"Point","coordinates":[117.64510245,39.3933988]}},{"type":"Feature","properties":{"id":"china-osm-road-1009206608","name":"沪常高速"},"geometry":{"type":"Point","coordinates":[120.86101185,31.24770315]}},{"type":"Feature","properties":{"id":"china-osm-road-1009206609","name":"常嘉高速"},"geometry":{"type":"Point","coordinates":[120.8437235,31.2480848]}},{"type":"Feature","properties":{"id":"china-osm-road-1009233243","name":"深圳外环高速"},"geometry":{"type":"Point","coordinates":[114.34374045,22.77647525]}},{"type":"Feature","properties":{"id":"china-osm-road-1009287837","name":"G2012"},"geometry":{"type":"Point","coordinates":[107.19057505,37.6582416]}},{"type":"Feature","properties":{"id":"china-osm-road-1009576410","name":"静庄高速"},"geometry":{"type":"Point","coordinates":[105.907714,35.3026736]}},{"type":"Feature","properties":{"id":"china-osm-road-1009623927","name":"日滕高速"},"geometry":{"type":"Point","coordinates":[118.30842795,35.2389579]}},{"type":"Feature","properties":{"id":"china-osm-road-1009777093","name":"吴上高速"},"geometry":{"type":"Point","coordinates":[108.07353635000001,22.18622465]}},{"type":"Feature","properties":{"id":"china-osm-road-1010117815","name":"南通绕城高速"},"geometry":{"type":"Point","coordinates":[121.0681889,32.134982]}},{"type":"Feature","properties":{"id":"china-osm-road-1010165134","name":"全容高速"},"geometry":{"type":"Point","coordinates":[110.7978367,24.863643]}},{"type":"Feature","properties":{"id":"china-osm-road-1010296065","name":"贺巴高速"},"geometry":{"type":"Point","coordinates":[110.19742675,24.340631549999998]}},{"type":"Feature","properties":{"id":"china-osm-road-1010328454","name":"松道高速"},"geometry":{"type":"Point","coordinates":[108.87923892645614,28.11204341927772]}},{"type":"Feature","properties":{"id":"china-osm-road-1010367771","name":"菏宝高速"},"geometry":{"type":"Point","coordinates":[114.8981768,35.3286766]}},{"type":"Feature","properties":{"id":"china-osm-road-1010472073","name":"新扬高速"},"geometry":{"type":"Point","coordinates":[119.30083164999999,32.4455512]}},{"type":"Feature","properties":{"id":"china-osm-road-1010489230","name":"德上高速"},"geometry":{"type":"Point","coordinates":[116.33267665,34.55641835]}},{"type":"Feature","properties":{"id":"china-osm-road-1010695051","name":"昆楚大高速"},"geometry":{"type":"Point","coordinates":[100.48624849999999,25.55011455]}},{"type":"Feature","properties":{"id":"china-osm-road-1010752204","name":"江黔高速"},"geometry":{"type":"Point","coordinates":[107.7201565,27.17884965]}},{"type":"Feature","properties":{"id":"china-osm-road-1010954524","name":"台辉高速"},"geometry":{"type":"Point","coordinates":[115.00844915,35.821397]}},{"type":"Feature","properties":{"id":"china-osm-road-1011019831","name":"成万渝高速"},"geometry":{"type":"Point","coordinates":[104.154246,31.1952958]}},{"type":"Feature","properties":{"id":"china-osm-road-1011033362","name":"瓮马高速"},"geometry":{"type":"Point","coordinates":[107.4652085,26.86485965]}},{"type":"Feature","properties":{"id":"china-osm-road-1011074871","name":"玉盘高速"},"geometry":{"type":"Point","coordinates":[107.69459185,26.85398185]}},{"type":"Feature","properties":{"id":"china-osm-road-1011182043","name":"岳宜高速"},"geometry":{"type":"Point","coordinates":[111.3741443,30.5339338]}},{"type":"Feature","properties":{"id":"china-osm-road-1011236597","name":"南友高速"},"geometry":{"type":"Point","coordinates":[106.73528875,22.04890795]}},{"type":"Feature","properties":{"id":"china-osm-road-1011378834","name":"辽中环线高速"},"geometry":{"type":"Point","coordinates":[123.02912685,41.272594749999996]}},{"type":"Feature","properties":{"id":"china-osm-road-1011406376","name":"锡溧漕河特大桥"},"geometry":{"type":"Point","coordinates":[119.97530280000001,31.5701836]}},{"type":"Feature","properties":{"id":"china-osm-road-1012160941","name":"铜玉高速"},"geometry":{"type":"Point","coordinates":[109.11012295,27.4940794]}},{"type":"Feature","properties":{"id":"china-osm-road-1012224148","name":"盐蚌高速"},"geometry":{"type":"Point","coordinates":[118.89551605,32.97047515]}},{"type":"Feature","properties":{"id":"china-osm-road-1012364682","name":"天天高速"},"geometry":{"type":"Point","coordinates":[118.86694375,32.6239026]}},{"type":"Feature","properties":{"id":"china-osm-road-1012397155","name":"长沙绕城高速"},"geometry":{"type":"Point","coordinates":[113.14424299999999,28.293613]}},{"type":"Feature","properties":{"id":"china-osm-road-1012478210","name":"广深沿江高速"},"geometry":{"type":"Point","coordinates":[113.4853319,23.096221200000002]}},{"type":"Feature","properties":{"id":"china-osm-road-1012779644","name":"韶新高速"},"geometry":{"type":"Point","coordinates":[114.04527049999999,24.0532622]}},{"type":"Feature","properties":{"id":"china-osm-road-1012809804","name":"济合高速"},"geometry":{"type":"Point","coordinates":[117.42706885,33.01899595]}},{"type":"Feature","properties":{"id":"china-osm-road-1012855342","name":"巢黄高速"},"geometry":{"type":"Point","coordinates":[118.3999419,30.2621381]}},{"type":"Feature","properties":{"id":"china-osm-road-1012925699","name":"岚菏高速"},"geometry":{"type":"Point","coordinates":[115.37038465,35.10324335]}},{"type":"Feature","properties":{"id":"china-osm-road-1012929814","name":"溧宁高速"},"geometry":{"type":"Point","coordinates":[119.18802305,30.950850600000003]}},{"type":"Feature","properties":{"id":"china-osm-road-1012949915","name":"香海高速"},"geometry":{"type":"Point","coordinates":[113.50802390000001,22.256718550000002]}},{"type":"Feature","properties":{"id":"china-osm-road-1013108481","name":"京礼高速公路"},"geometry":{"type":"Point","coordinates":[115.339827,41.04948905]}},{"type":"Feature","properties":{"id":"china-osm-road-1013162886","name":"衡德高速"},"geometry":{"type":"Point","coordinates":[115.97978325,37.63562355]}},{"type":"Feature","properties":{"id":"china-osm-road-101316381","name":"西部通道侧接线"},"geometry":{"type":"Point","coordinates":[113.90874255,22.5080876]}},{"type":"Feature","properties":{"id":"china-osm-road-1013169587","name":"包茂高速"},"geometry":{"type":"Point","coordinates":[108.76223350000001,29.37358895]}},{"type":"Feature","properties":{"id":"china-osm-road-101317322","name":"惠深沿海高速"},"geometry":{"type":"Point","coordinates":[114.53875321946848,22.764047591623378]}},{"type":"Feature","properties":{"id":"china-osm-road-1013282359","name":"南沙联络线"},"geometry":{"type":"Point","coordinates":[113.6257358072171,22.597601183754136]}},{"type":"Feature","properties":{"id":"china-osm-road-1013390823","name":"杭州绕城高速"},"geometry":{"type":"Point","coordinates":[120.35852165,30.32670315]}},{"type":"Feature","properties":{"id":"china-osm-road-1013421415","name":"杭金衢高速"},"geometry":{"type":"Point","coordinates":[120.20565884999999,29.9018332]}},{"type":"Feature","properties":{"id":"china-osm-road-1013536283","name":"平绵高速"},"geometry":{"type":"Point","coordinates":[104.66718315,31.7308873]}},{"type":"Feature","properties":{"id":"china-osm-road-1013539351","name":"义东高速"},"geometry":{"type":"Point","coordinates":[120.17996455,29.36659755]}},{"type":"Feature","properties":{"id":"china-osm-road-1013605657","name":"甬台温高速"},"geometry":{"type":"Point","coordinates":[120.34001445000001,27.468122]}},{"type":"Feature","properties":{"id":"china-osm-road-1013689319","name":"京礼高速公路砖楼特大桥"},"geometry":{"type":"Point","coordinates":[115.5440849,40.89150405]}},{"type":"Feature","properties":{"id":"china-osm-road-1013747080","name":"南韶高速"},"geometry":{"type":"Point","coordinates":[113.55985659999999,24.695673900000003]}},{"type":"Feature","properties":{"id":"china-osm-road-1013829566","name":"济南都市圈环线(西四环)"},"geometry":{"type":"Point","coordinates":[116.57464116825051,36.468673713837035]}},{"type":"Feature","properties":{"id":"china-osm-road-101384001","name":"广珠西线高速"},"geometry":{"type":"Point","coordinates":[113.22365393904744,23.01799542264606]}},{"type":"Feature","properties":{"id":"china-osm-road-1013875079","name":"宣东高速"},"geometry":{"type":"Point","coordinates":[118.35577695,30.62623135]}},{"type":"Feature","properties":{"id":"china-osm-road-1013896767","name":"海南环线高速"},"geometry":{"type":"Point","coordinates":[109.2928205,18.31735245]}},{"type":"Feature","properties":{"id":"china-osm-road-1013912805","name":"渝筑高速"},"geometry":{"type":"Point","coordinates":[106.88354735,28.389254049999998]}},{"type":"Feature","properties":{"id":"china-osm-road-1014047959","name":"沪金高速"},"geometry":{"type":"Point","coordinates":[121.42935565,31.02412595]}},{"type":"Feature","properties":{"id":"china-osm-road-1014127415","name":"温州绕城高速"},"geometry":{"type":"Point","coordinates":[120.80411995,28.03290605]}},{"type":"Feature","properties":{"id":"china-osm-road-1014375459","name":"沙金高速"},"geometry":{"type":"Point","coordinates":[118.32454675,24.66985435]}},{"type":"Feature","properties":{"id":"china-osm-road-1014512436","name":"如常高速"},"geometry":{"type":"Point","coordinates":[120.1024443,32.121531149999996]}},{"type":"Feature","properties":{"id":"china-osm-road-1014625255","name":"北仙高速"},"geometry":{"type":"Point","coordinates":[103.50946075,39.009117149999994]}},{"type":"Feature","properties":{"id":"china-osm-road-1014953252","name":"合璧津高速"},"geometry":{"type":"Point","coordinates":[106.2013885544662,29.167452455313203]}},{"type":"Feature","properties":{"id":"china-osm-road-1014969580","name":"内江绕城高速"},"geometry":{"type":"Point","coordinates":[105.13336925,29.53593645]}},{"type":"Feature","properties":{"id":"china-osm-road-1015095864","name":"合安高速"},"geometry":{"type":"Point","coordinates":[105.73780439999999,30.23069495]}},{"type":"Feature","properties":{"id":"china-osm-road-1015235170","name":"肇阳高速"},"geometry":{"type":"Point","coordinates":[111.88613985,21.6449912]}},{"type":"Feature","properties":{"id":"china-osm-road-1015244694","name":"大内高速"},"geometry":{"type":"Point","coordinates":[105.5460942,29.63124685]}},{"type":"Feature","properties":{"id":"china-osm-road-1015268013","name":"旬凤高速"},"geometry":{"type":"Point","coordinates":[108.2771033,35.09137395]}},{"type":"Feature","properties":{"id":"china-osm-road-1015272913","name":"绥满高速"},"geometry":{"type":"Point","coordinates":[128.99937405,44.8963912]}},{"type":"Feature","properties":{"id":"china-osm-road-1015401937","name":"潍日高速"},"geometry":{"type":"Point","coordinates":[119.25094114999999,35.95116865]}},{"type":"Feature","properties":{"id":"china-osm-road-1015630515","name":"唐曹高速"},"geometry":{"type":"Point","coordinates":[118.3260065,39.2522606]}},{"type":"Feature","properties":{"id":"china-osm-road-1015683479","name":"蓬栖高速"},"geometry":{"type":"Point","coordinates":[120.89281155,37.580983849999996]}},{"type":"Feature","properties":{"id":"china-osm-road-1015837059","name":"江宜高速"},"geometry":{"type":"Point","coordinates":[119.75708335,32.15176715]}},{"type":"Feature","properties":{"id":"china-osm-road-101606901","name":"东新高速"},"geometry":{"type":"Point","coordinates":[113.29688915,22.9085493]}},{"type":"Feature","properties":{"id":"china-osm-road-1016154493","name":"依若高速"},"geometry":{"type":"Point","coordinates":[88.15809114999999,39.093342699999994]}},{"type":"Feature","properties":{"id":"china-osm-road-1016175302","name":"绥北高速"},"geometry":{"type":"Point","coordinates":[126.75704314999999,48.099616600000004]}},{"type":"Feature","properties":{"id":"china-osm-road-1016290862","name":"秀永高速"},"geometry":{"type":"Point","coordinates":[118.86658438963069,25.378325667009364]}},{"type":"Feature","properties":{"id":"china-osm-road-1016463132","name":"哈肇高速"},"geometry":{"type":"Point","coordinates":[125.1916842,45.61645745]}},{"type":"Feature","properties":{"id":"china-osm-road-1016650133","name":"繁河高速"},"geometry":{"type":"Point","coordinates":[111.4617597,39.361315000000005]}},{"type":"Feature","properties":{"id":"china-osm-road-1016676845","name":"呼北高速"},"geometry":{"type":"Point","coordinates":[112.28543388294001,39.20097228224568]}},{"type":"Feature","properties":{"id":"china-osm-road-1016694430","name":"张南高速"},"geometry":{"type":"Point","coordinates":[110.5363453,29.14260645]}},{"type":"Feature","properties":{"id":"china-osm-road-1016694432","name":"长张高速"},"geometry":{"type":"Point","coordinates":[110.8833606563215,29.342374731710958]}},{"type":"Feature","properties":{"id":"china-osm-road-1016973878","name":"蓉丽高速"},"geometry":{"type":"Point","coordinates":[101.01448235000001,26.5157254]}},{"type":"Feature","properties":{"id":"china-osm-road-1017113649","name":"乌若高速"},"geometry":{"type":"Point","coordinates":[88.05098755955902,40.396053575652644]}}]}