{"type":"FeatureCollection","features":[{"type":"Feature","properties":{"id":"china-osm-rail-station-1675935526","name":"歙县","station_type":"railway_station","source_region":"anhui","source_osm_id":"1675935526"},"geometry":{"type":"Point","coordinates":[118.406185,29.869103]}},{"type":"Feature","properties":{"id":"china-osm-rail-station-9242148048","name":"歙县北","station_type":"railway_station","source_region":"anhui","source_osm_id":"9242148048"},"geometry":{"type":"Point","coordinates":[118.4051782,29.9243518]}},{"type":"Feature","properties":{"id":"china-osm-rail-station-7272083210","name":"三昆","station_type":"railway_station","source_region":"anhui","source_osm_id":"7272083210"},"geometry":{"type":"Point","coordinates":[118.4735718,29.9355094]}},{"type":"Feature","properties":{"id":"china-osm-rail-station-7272083209","name":"临溪","station_type":"railway_station","source_region":"anhui","source_osm_id":"7272083209"},"geometry":{"type":"Point","coordinates":[118.53055,29.9906978]}},{"type":"Feature","properties":{"id":"china-osm-rail-station-5728132767","name":"三阳","station_type":"railway_station","source_region":"anhui","source_osm_id":"5728132767"},"geometry":{"type":"Point","coordinates":[118.8018823,30.0294857]}},{"type":"Feature","properties":{"id":"china-osm-rail-station-7272083204","name":"绩溪县","station_type":"railway_station","source_region":"anhui","source_osm_id":"7272083204"},"geometry":{"type":"Point","coordinates":[118.5790202,30.0583437]}},{"type":"Feature","properties":{"id":"china-osm-rail-station-9242148049","name":"绩溪北","station_type":"railway_station","source_region":"anhui","source_osm_id":"9242148049"},"geometry":{"type":"Point","coordinates":[118.5666847,30.0737828]}},{"type":"Feature","properties":{"id":"china-osm-rail-station-7272083203","name":"郎家溪","station_type":"railway_station","source_region":"anhui","source_osm_id":"7272083203"},"geometry":{"type":"Point","coordinates":[118.6017895,30.0946963]}},{"type":"Feature","properties":{"id":"china-osm-rail-station-7272083202","name":"际坑口","station_type":"railway_station","source_region":"anhui","source_osm_id":"7272083202"},"geometry":{"type":"Point","coordinates":[118.6311811,30.1421258]}},{"type":"Feature","properties":{"id":"china-osm-rail-station-7272083201","name":"黄土坑","station_type":"railway_station","source_region":"anhui","source_osm_id":"7272083201"},"geometry":{"type":"Point","coordinates":[118.70278,30.236527]}},{"type":"Feature","properties":{"id":"china-osm-rail-station-7042327418","name":"倒湖","station_type":"railway_station","source_region":"anhui","source_osm_id":"7042327418"},"geometry":{"type":"Point","coordinates":[117.4541116,29.6870816]}},{"type":"Feature","properties":{"id":"china-osm-rail-station-7272083221","name":"溶口","station_type":"railway_station","source_region":"anhui","source_osm_id":"7272083221"},"geometry":{"type":"Point","coordinates":[117.5395596,29.734393]}},{"type":"Feature","properties":{"id":"china-osm-rail-station-7272083220","name":"新红光","station_type":"railway_station","source_region":"anhui","source_osm_id":"7272083220"},"geometry":{"type":"Point","coordinates":[117.5868309,29.7834634]}},{"type":"Feature","properties":{"id":"china-osm-rail-station-7272083219","name":"侯潭","station_type":"railway_station","source_region":"anhui","source_osm_id":"7272083219"},"geometry":{"type":"Point","coordinates":[117.6714331,29.809187]}},{"type":"Feature","properties":{"id":"china-osm-rail-station-7272083216","name":"黟县","station_type":"railway_station","source_region":"anhui","source_osm_id":"7272083216"},"geometry":{"type":"Point","coordinates":[117.9776072,29.8333242]}},{"type":"Feature","properties":{"id":"china-osm-rail-station-11237678497","name":"祁门南","station_type":"railway_station","source_region":"anhui","source_osm_id":"11237678497"},"geometry":{"type":"Point","coordinates":[117.6942173,29.834343]}},{"type":"Feature","properties":{"id":"china-osm-rail-station-7272083217","name":"北坑","station_type":"railway_station","source_region":"anhui","source_osm_id":"7272083217"},"geometry":{"type":"Point","coordinates":[117.9022157,29.8427006]}},{"type":"Feature","properties":{"id":"china-osm-rail-station-7272083218","name":"金字牌","station_type":"railway_station","source_region":"anhui","source_osm_id":"7272083218"},"geometry":{"type":"Point","coordinates":[117.8110206,29.8470185]}},{"type":"Feature","properties":{"id":"china-osm-rail-station-1675935522","name":"祁门","station_type":"railway_station","source_region":"anhui","source_osm_id":"1675935522"},"geometry":{"type":"Point","coordinates":[117.7246028,29.848956]}},{"type":"Feature","properties":{"id":"china-osm-rail-station-8509723167","name":"涓桥","station_type":"railway_station","source_region":"anhui","source_osm_id":"8509723167"},"geometry":{"type":"Point","coordinates":[117.3999754,30.5189642]}},{"type":"Feature","properties":{"id":"china-osm-rail-station-778220947","name":"黄山","station_type":"railway_station","source_region":"anhui","source_osm_id":"778220947"},"geometry":{"type":"Point","coordinates":[118.3170111,29.7248544]}},{"type":"Feature","properties":{"id":"china-osm-rail-station-7272083213","name":"金村","station_type":"railway_station","source_region":"anhui","source_osm_id":"7272083213"},"geometry":{"type":"Point","coordinates":[118.2414561,29.7795222]}},{"type":"Feature","properties":{"id":"china-osm-rail-station-7272083212","name":"篁墩","station_type":"railway_station","source_region":"anhui","source_osm_id":"7272083212"},"geometry":{"type":"Point","coordinates":[118.3574027,29.7798225]}},{"type":"Feature","properties":{"id":"china-osm-rail-station-7272083214","name":"休宁","station_type":"railway_station","source_region":"anhui","source_osm_id":"7272083214"},"geometry":{"type":"Point","coordinates":[118.1752539,29.7962126]}},{"type":"Feature","properties":{"id":"china-osm-rail-station-7272083215","name":"岩前","station_type":"railway_station","source_region":"anhui","source_osm_id":"7272083215"},"geometry":{"type":"Point","coordinates":[118.0743518,29.8160559]}},{"type":"Feature","properties":{"id":"china-osm-rail-station-3656291049","name":"黄山北","station_type":"railway_station","source_region":"anhui","source_osm_id":"3656291049"},"geometry":{"type":"Point","coordinates":[118.2673395,29.8183365]}},{"type":"Feature","properties":{"id":"china-osm-rail-station-7272083211","name":"岩寺","station_type":"railway_station","source_region":"anhui","source_osm_id":"7272083211"},"geometry":{"type":"Point","coordinates":[118.3600875,29.8392549]}},{"type":"Feature","properties":{"id":"china-osm-rail-station-10666136336","name":"黟县东","station_type":"railway_station","source_region":"anhui","source_osm_id":"10666136336"},"geometry":{"type":"Point","coordinates":[118.0429002,29.8873331]}},{"type":"Feature","properties":{"id":"china-osm-rail-station-10667605781","name":"黄山西","station_type":"railway_station","source_region":"anhui","source_osm_id":"10667605781"},"geometry":{"type":"Point","coordinates":[118.0846561,30.2797295]}},{"type":"Feature","properties":{"id":"china-osm-rail-station-9524548104","name":"泾县","station_type":"railway_station","source_region":"anhui","source_osm_id":"9524548104"},"geometry":{"type":"Point","coordinates":[118.3834924,30.6607147]}},{"type":"Feature","properties":{"id":"china-osm-rail-station-7272083200","name":"金沙","station_type":"railway_station","source_region":"anhui","source_osm_id":"7272083200"},"geometry":{"type":"Point","coordinates":[118.7402183,30.2731985]}},{"type":"Feature","properties":{"id":"china-osm-rail-station-13048463742","name":"旌德","station_type":"railway_station","source_region":"anhui","source_osm_id":"13048463742"},"geometry":{"type":"Point","coordinates":[118.5240859,30.2946754]}},{"type":"Feature","properties":{"id":"china-osm-rail-station-7272083199","name":"胡乐","station_type":"railway_station","source_region":"anhui","source_osm_id":"7272083199"},"geometry":{"type":"Point","coordinates":[118.7755108,30.3472271]}},{"type":"Feature","properties":{"id":"china-osm-rail-station-7272083198","name":"甲路","station_type":"railway_station","source_region":"anhui","source_osm_id":"7272083198"},"geometry":{"type":"Point","coordinates":[118.8447869,30.4200156]}},{"type":"Feature","properties":{"id":"china-osm-rail-station-7272083197","name":"府祝","station_type":"railway_station","source_region":"anhui","source_osm_id":"7272083197"},"geometry":{"type":"Point","coordinates":[118.9232683,30.4524981]}},{"type":"Feature","properties":{"id":"china-osm-rail-station-7272083196","name":"霞西","station_type":"railway_station","source_region":"anhui","source_osm_id":"7272083196"},"geometry":{"type":"Point","coordinates":[118.9417541,30.518281]}},{"type":"Feature","properties":{"id":"china-osm-rail-station-11222071214","name":"宁国南","station_type":"railway_station","source_region":"anhui","source_osm_id":"11222071214"},"geometry":{"type":"Point","coordinates":[118.9348965,30.6139328]}},{"type":"Feature","properties":{"id":"china-osm-rail-station-11694228215","name":"罗溪村","station_type":"railway_station","source_region":"anhui","source_osm_id":"11694228215"},"geometry":{"type":"Point","coordinates":[118.9605541,30.6813291]}},{"type":"Feature","properties":{"id":"china-osm-rail-station-1954781034","name":"港口镇","station_type":"railway_station","source_region":"anhui","source_osm_id":"1954781034"},"geometry":{"type":"Point","coordinates":[118.9285687,30.7299748]}},{"type":"Feature","properties":{"id":"china-osm-rail-station-1954809123","name":"水东","station_type":"railway_station","source_region":"anhui","source_osm_id":"1954809123"},"geometry":{"type":"Point","coordinates":[118.9335306,30.7784012]}},{"type":"Feature","properties":{"id":"china-osm-rail-station-8509719085","name":"秋浦","station_type":"railway_station","source_region":"anhui","source_osm_id":"8509719085"},"geometry":{"type":"Point","coordinates":[117.4470935,30.5747339]}},{"type":"Feature","properties":{"id":"china-osm-rail-station-10667605849","name":"九华山","station_type":"railway_station","source_region":"anhui","source_osm_id":"10667605849"},"geometry":{"type":"Point","coordinates":[117.8513647,30.5981738]}},{"type":"Feature","properties":{"id":"china-osm-rail-station-9242148039","name":"池州","station_type":"railway_station","source_region":"anhui","source_osm_id":"9242148039"},"geometry":{"type":"Point","coordinates":[117.5170183,30.6218762]}},{"type":"Feature","properties":{"id":"china-osm-rail-station-2987541002","name":"马衙","station_type":"railway_station","source_region":"anhui","source_osm_id":"2987541002"},"geometry":{"type":"Point","coordinates":[117.6543829,30.6542274]}},{"type":"Feature","properties":{"id":"china-osm-rail-station-8509674558","name":"茅坦","station_type":"railway_station","source_region":"anhui","source_osm_id":"8509674558"},"geometry":{"type":"Point","coordinates":[117.7425128,30.6745846]}},{"type":"Feature","properties":{"id":"china-osm-rail-station-12714986004","name":"池州东","station_type":"railway_station","source_region":"anhui","source_osm_id":"12714986004"},"geometry":{"type":"Point","coordinates":[117.5946687,30.7206165]}},{"type":"Feature","properties":{"id":"china-osm-rail-station-8509671056","name":"新河镇","station_type":"railway_station","source_region":"anhui","source_osm_id":"8509671056"},"geometry":{"type":"Point","coordinates":[117.8074085,30.7243489]}},{"type":"Feature","properties":{"id":"china-osm-rail-station-8509639373","name":"缸窑湖","station_type":"railway_station","source_region":"anhui","source_osm_id":"8509639373"},"geometry":{"type":"Point","coordinates":[117.7880021,30.7843847]}},{"type":"Feature","properties":{"id":"china-osm-rail-station-8509650925","name":"铜陵南","station_type":"railway_station","source_region":"anhui","source_osm_id":"8509650925"},"geometry":{"type":"Point","coordinates":[117.8178094,30.8607654]}},{"type":"Feature","properties":{"id":"china-osm-rail-station-9521958023","name":"铜陵","station_type":"railway_station","source_region":"anhui","source_osm_id":"9521958023"},"geometry":{"type":"Point","coordinates":[117.8564514,30.921197]}},{"type":"Feature","properties":{"id":"china-osm-rail-station-9242148033","name":"广德南","station_type":"railway_station","source_region":"anhui","source_osm_id":"9242148033"},"geometry":{"type":"Point","coordinates":[119.4125998,30.856995]}},{"type":"Feature","properties":{"id":"china-osm-rail-station-7272083193","name":"孙家埠","station_type":"railway_station","source_region":"anhui","source_osm_id":"7272083193"},"geometry":{"type":"Point","coordinates":[118.8698816,30.8948414]}},{"type":"Feature","properties":{"id":"china-osm-rail-station-9215831993","name":"广德","station_type":"railway_station","source_region":"anhui","source_osm_id":"9215831993"},"geometry":{"type":"Point","coordinates":[119.4038773,30.9140581]}},{"type":"Feature","properties":{"id":"china-osm-rail-station-8512766985","name":"誓节渡","station_type":"railway_station","source_region":"anhui","source_osm_id":"8512766985"},"geometry":{"type":"Point","coordinates":[119.211229,30.9399637]}},{"type":"Feature","properties":{"id":"china-osm-rail-station-7659427163","name":"郎溪南","station_type":"railway_station","source_region":"anhui","source_osm_id":"7659427163"},"geometry":{"type":"Point","coordinates":[119.1514328,30.9402581]}},{"type":"Feature","properties":{"id":"china-osm-rail-station-8512795829","name":"建国","station_type":"railway_station","source_region":"anhui","source_osm_id":"8512795829"},"geometry":{"type":"Point","coordinates":[118.8783505,30.9477261]}},{"type":"Feature","properties":{"id":"china-osm-rail-station-6240058953","name":"宣城","station_type":"railway_station","source_region":"anhui","source_osm_id":"6240058953"},"geometry":{"type":"Point","coordinates":[118.7693067,30.9496986]}},{"type":"Feature","properties":{"id":"china-osm-rail-station-2483457193","name":"十字铺","station_type":"railway_station","source_region":"anhui","source_osm_id":"2483457193"},"geometry":{"type":"Point","coordinates":[119.127681,30.9502332]}},{"type":"Feature","properties":{"id":"china-osm-rail-station-1768168820","name":"巷口桥","station_type":"railway_station","source_region":"anhui","source_osm_id":"1768168820"},"geometry":{"type":"Point","coordinates":[118.7218354,31.0062819]}},{"type":"Feature","properties":{"id":"china-osm-rail-station-9242148034","name":"湾沚南","station_type":"railway_station","source_region":"anhui","source_osm_id":"9242148034"},"geometry":{"type":"Point","coordinates":[118.5799885,31.0949198]}},{"type":"Feature","properties":{"id":"china-osm-rail-station-9521935585","name":"南陵","station_type":"railway_station","source_region":"anhui","source_osm_id":"9521935585"},"geometry":{"type":"Point","coordinates":[118.2927402,30.8381731]}},{"type":"Feature","properties":{"id":"china-osm-rail-station-8509562691","name":"钟鸣","station_type":"railway_station","source_region":"anhui","source_osm_id":"8509562691"},"geometry":{"type":"Point","coordinates":[118.0491712,30.9863324]}},{"type":"Feature","properties":{"id":"china-osm-rail-station-6239494589","name":"铜陵北","station_type":"railway_station","source_region":"anhui","source_osm_id":"6239494589"},"geometry":{"type":"Point","coordinates":[118.0160809,31.0157065]}},{"type":"Feature","properties":{"id":"china-osm-rail-station-8509189921","name":"上周村","station_type":"railway_station","source_region":"anhui","source_osm_id":"8509189921"},"geometry":{"type":"Point","coordinates":[118.0365659,31.0172435]}},{"type":"Feature","properties":{"id":"china-osm-rail-station-4718362793","name":"枫香墩","station_type":"railway_station","source_region":"anhui","source_osm_id":"4718362793"},"geometry":{"type":"Point","coordinates":[118.1399867,31.0566848]}},{"type":"Feature","properties":{"id":"china-osm-rail-station-9242148044","name":"繁昌西","station_type":"railway_station","source_region":"anhui","source_osm_id":"9242148044"},"geometry":{"type":"Point","coordinates":[118.1530398,31.0733641]}},{"type":"Feature","properties":{"id":"china-osm-rail-station-2987531141","name":"繁昌","station_type":"railway_station","source_region":"anhui","source_osm_id":"2987531141"},"geometry":{"type":"Point","coordinates":[118.2030242,31.106183]}},{"type":"Feature","properties":{"id":"china-osm-rail-station-8509525977","name":"峨桥","station_type":"railway_station","source_region":"anhui","source_osm_id":"8509525977"},"geometry":{"type":"Point","coordinates":[118.2668478,31.1733924]}},{"type":"Feature","properties":{"id":"china-osm-rail-station-3316389462","name":"八里湾","station_type":"railway_station","source_region":"anhui","source_osm_id":"3316389462"},"geometry":{"type":"Point","coordinates":[118.3942117,31.2314255]}},{"type":"Feature","properties":{"id":"china-osm-rail-station-9234794111","name":"白马山","station_type":"railway_station","source_region":"anhui","source_osm_id":"9234794111"},"geometry":{"type":"Point","coordinates":[118.3669624,31.2471604]}},{"type":"Feature","properties":{"id":"china-osm-rail-station-1768168819","name":"三元","station_type":"railway_station","source_region":"anhui","source_osm_id":"1768168819"},"geometry":{"type":"Point","coordinates":[118.6375992,31.0969438]}},{"type":"Feature","properties":{"id":"china-osm-rail-station-7272112515","name":"湾沚","station_type":"railway_station","source_region":"anhui","source_osm_id":"7272112515"},"geometry":{"type":"Point","coordinates":[118.5691363,31.1414831]}},{"type":"Feature","properties":{"id":"china-osm-rail-station-1408752971","name":"陶辛","station_type":"railway_station","source_region":"anhui","source_osm_id":"1408752971"},"geometry":{"type":"Point","coordinates":[118.4728898,31.1725634]}},{"type":"Feature","properties":{"id":"china-osm-rail-station-2987531157","name":"火龙岗","station_type":"railway_station","source_region":"anhui","source_osm_id":"2987531157"},"geometry":{"type":"Point","coordinates":[118.3962454,31.2564846]}},{"type":"Feature","properties":{"id":"china-osm-rail-station-9370052145","name":"梦溪路","station_type":"railway_station","source_region":"anhui","source_osm_id":"9370052145"},"geometry":{"type":"Point","coordinates":[118.4758489,31.3534986]}},{"type":"Feature","properties":{"id":"china-osm-rail-station-9370052143","name":"海晏路","station_type":"railway_station","source_region":"anhui","source_osm_id":"9370052143"},"geometry":{"type":"Point","coordinates":[118.4351453,31.3567968]}},{"type":"Feature","properties":{"id":"china-osm-rail-station-9370052144","name":"徽州路","station_type":"railway_station","source_region":"anhui","source_osm_id":"9370052144"},"geometry":{"type":"Point","coordinates":[118.4543563,31.3580083]}},{"type":"Feature","properties":{"id":"china-osm-rail-station-9370052139","name":"神山公园","station_type":"railway_station","source_region":"anhui","source_osm_id":"9370052139"},"geometry":{"type":"Point","coordinates":[118.4046096,31.3591257]}},{"type":"Feature","properties":{"id":"china-osm-rail-station-9370052142","name":"政务中心","station_type":"railway_station","source_region":"anhui","source_osm_id":"9370052142"},"geometry":{"type":"Point","coordinates":[118.4253406,31.3591704]}},{"type":"Feature","properties":{"id":"china-osm-rail-station-9370052141","name":"云从路","station_type":"railway_station","source_region":"anhui","source_osm_id":"9370052141"},"geometry":{"type":"Point","coordinates":[118.4167151,31.3591895]}},{"type":"Feature","properties":{"id":"china-osm-rail-station-2987471310","name":"狮子山","station_type":"railway_station","source_region":"anhui","source_osm_id":"2987471310"},"geometry":{"type":"Point","coordinates":[117.8835135,30.9373397]}},{"type":"Feature","properties":{"id":"china-osm-rail-station-8509576943","name":"顺安","station_type":"railway_station","source_region":"anhui","source_osm_id":"8509576943"},"geometry":{"type":"Point","coordinates":[117.9476367,30.9462634]}},{"type":"Feature","properties":{"id":"china-osm-rail-station-10120264000","name":"铜陵西","station_type":"railway_station","source_region":"anhui","source_osm_id":"10120264000"},"geometry":{"type":"Point","coordinates":[117.8138691,30.9469546]}},{"type":"Feature","properties":{"id":"china-osm-rail-station-4724795895","name":"龙桥","station_type":"railway_station","source_region":"anhui","source_osm_id":"4724795895"},"geometry":{"type":"Point","coordinates":[117.4379223,31.1367607]}},{"type":"Feature","properties":{"id":"china-osm-rail-station-8509141541","name":"洪巷","station_type":"railway_station","source_region":"anhui","source_osm_id":"8509141541"},"geometry":{"type":"Point","coordinates":[117.6350012,31.1470644]}},{"type":"Feature","properties":{"id":"china-osm-rail-station-8509167177","name":"无为南","station_type":"railway_station","source_region":"anhui","source_osm_id":"8509167177"},"geometry":{"type":"Point","coordinates":[117.9246834,31.1573405]}},{"type":"Feature","properties":{"id":"china-osm-rail-station-8509146381","name":"襄安","station_type":"railway_station","source_region":"anhui","source_osm_id":"8509146381"},"geometry":{"type":"Point","coordinates":[117.7773439,31.2089002]}},{"type":"Feature","properties":{"id":"china-osm-rail-station-7243088379","name":"无为","station_type":"railway_station","source_region":"anhui","source_osm_id":"7243088379"},"geometry":{"type":"Point","coordinates":[117.9639065,31.3063668]}},{"type":"Feature","properties":{"id":"china-osm-rail-station-9229648673","name":"东关","station_type":"railway_station","source_region":"anhui","source_osm_id":"9229648673"},"geometry":{"type":"Point","coordinates":[118.0101424,31.4924413]}},{"type":"Feature","properties":{"id":"china-osm-rail-station-9229648674","name":"双刘","station_type":"railway_station","source_region":"anhui","source_osm_id":"9229648674"},"geometry":{"type":"Point","coordinates":[117.9716527,31.5253018]}},{"type":"Feature","properties":{"id":"china-osm-rail-station-7791053789","name":"芜湖南","station_type":"railway_station","source_region":"anhui","source_osm_id":"7791053789"},"geometry":{"type":"Point","coordinates":[118.3742206,31.2506335]}},{"type":"Feature","properties":{"id":"china-osm-rail-station-9234794110","name":"芜湖南站","station_type":"railway_station","source_region":"anhui","source_osm_id":"9234794110"},"geometry":{"type":"Point","coordinates":[118.373286,31.2526541]}},{"type":"Feature","properties":{"id":"china-osm-rail-station-9234794109","name":"珩琅山路","station_type":"railway_station","source_region":"anhui","source_osm_id":"9234794109"},"geometry":{"type":"Point","coordinates":[118.3836214,31.2670803]}},{"type":"Feature","properties":{"id":"china-osm-rail-station-9234794108","name":"文津东路","station_type":"railway_station","source_region":"anhui","source_osm_id":"9234794108"},"geometry":{"type":"Point","coordinates":[118.3786465,31.2851241]}},{"type":"Feature","properties":{"id":"china-osm-rail-station-9235112973","name":"博览中心","station_type":"railway_station","source_region":"anhui","source_osm_id":"9235112973"},"geometry":{"type":"Point","coordinates":[118.3755126,31.2959855]}},{"type":"Feature","properties":{"id":"china-osm-rail-station-9235112974","name":"红花山路","station_type":"railway_station","source_region":"anhui","source_osm_id":"9235112974"},"geometry":{"type":"Point","coordinates":[118.3744501,31.3035782]}},{"type":"Feature","properties":{"id":"china-osm-rail-station-9235112975","name":"奥体中心","station_type":"railway_station","source_region":"anhui","source_osm_id":"9235112975"},"geometry":{"type":"Point","coordinates":[118.3734866,31.3133379]}},{"type":"Feature","properties":{"id":"china-osm-rail-station-9235112980","name":"环城北路","station_type":"railway_station","source_region":"anhui","source_osm_id":"9235112980"},"geometry":{"type":"Point","coordinates":[118.3752269,31.3268437]}},{"type":"Feature","properties":{"id":"china-osm-rail-station-9235112985","name":"鸠兹广场","station_type":"railway_station","source_region":"anhui","source_osm_id":"9235112985"},"geometry":{"type":"Point","coordinates":[118.3668131,31.3343532]}},{"type":"Feature","properties":{"id":"china-osm-rail-station-9370010905","name":"文化路","station_type":"railway_station","source_region":"anhui","source_osm_id":"9370010905"},"geometry":{"type":"Point","coordinates":[118.3787651,31.3373642]}},{"type":"Feature","properties":{"id":"china-osm-rail-station-8509731685","name":"唐田","station_type":"railway_station","source_region":"anhui","source_osm_id":"8509731685"},"geometry":{"type":"Point","coordinates":[117.1979145,30.343176]}},{"type":"Feature","properties":{"id":"china-osm-rail-station-8509133271","name":"张旗杆","station_type":"railway_station","source_region":"anhui","source_osm_id":"8509133271"},"geometry":{"type":"Point","coordinates":[117.1940705,31.1747918]}},{"type":"Feature","properties":{"id":"china-osm-rail-station-7647440638","name":"庐江西","station_type":"railway_station","source_region":"anhui","source_osm_id":"7647440638"},"geometry":{"type":"Point","coordinates":[117.212452,31.2698065]}},{"type":"Feature","properties":{"id":"china-osm-rail-station-10725048269","name":"八里村","station_type":"railway_station","source_region":"anhui","source_osm_id":"10725048269"},"geometry":{"type":"Point","coordinates":[117.2421079,31.2776581]}},{"type":"Feature","properties":{"id":"china-osm-rail-station-9242148053","name":"庐江","station_type":"railway_station","source_region":"anhui","source_osm_id":"9242148053"},"geometry":{"type":"Point","coordinates":[117.1716034,31.3431182]}},{"type":"Feature","properties":{"id":"china-osm-rail-station-8846905722","name":"金牛","station_type":"railway_station","source_region":"anhui","source_osm_id":"8846905722"},"geometry":{"type":"Point","coordinates":[117.1576383,31.4157555]}},{"type":"Feature","properties":{"id":"china-osm-rail-station-1642883470","name":"舒城","station_type":"railway_station","source_region":"anhui","source_osm_id":"1642883470"},"geometry":{"type":"Point","coordinates":[117.1543985,31.511333]}},{"type":"Feature","properties":{"id":"china-osm-rail-station-9694125150","name":"三河古镇","station_type":"railway_station","source_region":"anhui","source_osm_id":"9694125150"},"geometry":{"type":"Point","coordinates":[117.2291084,31.5242093]}},{"type":"Feature","properties":{"id":"china-osm-rail-station-9655402414","name":"三河工业园","station_type":"railway_station","source_region":"anhui","source_osm_id":"9655402414"},"geometry":{"type":"Point","coordinates":[117.2322858,31.5572194]}},{"type":"Feature","properties":{"id":"china-osm-rail-station-9655402415","name":"严店","station_type":"railway_station","source_region":"anhui","source_osm_id":"9655402415"},"geometry":{"type":"Point","coordinates":[117.2088498,31.617954]}},{"type":"Feature","properties":{"id":"china-osm-rail-station-8509731557","name":"殷汇","station_type":"railway_station","source_region":"anhui","source_osm_id":"8509731557"},"geometry":{"type":"Point","coordinates":[117.2986858,30.4165422]}},{"type":"Feature","properties":{"id":"china-osm-rail-station-12714975489","name":"枞阳","station_type":"railway_station","source_region":"anhui","source_osm_id":"12714975489"},"geometry":{"type":"Point","coordinates":[117.3550289,30.7654529]}},{"type":"Feature","properties":{"id":"china-osm-rail-station-10725048272","name":"庐江大剧院","station_type":"railway_station","source_region":"anhui","source_osm_id":"10725048272"},"geometry":{"type":"Point","coordinates":[117.3130562,31.2525565]}},{"type":"Feature","properties":{"id":"china-osm-rail-station-9694125156","name":"冶父山","station_type":"railway_station","source_region":"anhui","source_osm_id":"9694125156"},"geometry":{"type":"Point","coordinates":[117.3175983,31.3102551]}},{"type":"Feature","properties":{"id":"china-osm-rail-station-8478652637","name":"渡江纪念馆","station_type":"railway_station","source_region":"anhui","source_osm_id":"8478652637"},"geometry":{"type":"Point","coordinates":[117.3245712,31.715086]}},{"type":"Feature","properties":{"id":"china-osm-rail-station-8478652639","name":"沈湾","station_type":"railway_station","source_region":"anhui","source_osm_id":"8478652639"},"geometry":{"type":"Point","coordinates":[117.3139416,31.7151066]}},{"type":"Feature","properties":{"id":"china-osm-rail-station-8478652638","name":"华山路","station_type":"railway_station","source_region":"anhui","source_osm_id":"8478652638"},"geometry":{"type":"Point","coordinates":[117.3055141,31.7151283]}},{"type":"Feature","properties":{"id":"china-osm-rail-station-9489931778","name":"滨湖","station_type":"railway_station","source_region":"anhui","source_osm_id":"9489931778"},"geometry":{"type":"Point","coordinates":[117.3911311,31.716431]}},{"type":"Feature","properties":{"id":"china-osm-rail-station-8478652636","name":"方兴湖","station_type":"railway_station","source_region":"anhui","source_osm_id":"8478652636"},"geometry":{"type":"Point","coordinates":[117.3330188,31.7201512]}},{"type":"Feature","properties":{"id":"china-osm-rail-station-3634890866","name":"金斗公园","station_type":"railway_station","source_region":"anhui","source_osm_id":"3634890866"},"geometry":{"type":"Point","coordinates":[117.297091,31.7248551]}},{"type":"Feature","properties":{"id":"china-osm-rail-station-5058306764","name":"庐江南","station_type":"railway_station","source_region":"anhui","source_osm_id":"5058306764"},"geometry":{"type":"Point","coordinates":[117.2915298,31.1253899]}},{"type":"Feature","properties":{"id":"china-osm-rail-station-10770067697","name":"文化广场","station_type":"railway_station","source_region":"anhui","source_osm_id":"10770067697"},"geometry":{"type":"Point","coordinates":[117.2876734,31.2512247]}},{"type":"Feature","properties":{"id":"china-osm-rail-station-10725048271","name":"庐江县政务中心","station_type":"railway_station","source_region":"anhui","source_osm_id":"10725048271"},"geometry":{"type":"Point","coordinates":[117.2780738,31.2540036]}},{"type":"Feature","properties":{"id":"china-osm-rail-station-10725048270","name":"湖岗路","station_type":"railway_station","source_region":"anhui","source_osm_id":"10725048270"},"geometry":{"type":"Point","coordinates":[117.2546264,31.2706824]}},{"type":"Feature","properties":{"id":"china-osm-rail-station-9694125155","name":"罗埠","station_type":"railway_station","source_region":"anhui","source_osm_id":"9694125155"},"geometry":{"type":"Point","coordinates":[117.2795715,31.3567688]}},{"type":"Feature","properties":{"id":"china-osm-rail-station-9694125153","name":"石头","station_type":"railway_station","source_region":"anhui","source_osm_id":"9694125153"},"geometry":{"type":"Point","coordinates":[117.2730504,31.4228108]}},{"type":"Feature","properties":{"id":"china-osm-rail-station-9694125152","name":"台创园","station_type":"railway_station","source_region":"anhui","source_osm_id":"9694125152"},"geometry":{"type":"Point","coordinates":[117.2696943,31.4717181]}},{"type":"Feature","properties":{"id":"china-osm-rail-station-9864824705","name":"同大工业园","station_type":"railway_station","source_region":"anhui","source_osm_id":"9864824705"},"geometry":{"type":"Point","coordinates":[117.2681201,31.4954515]}},{"type":"Feature","properties":{"id":"china-osm-rail-station-9870356393","name":"拉萨路","station_type":"railway_station","source_region":"anhui","source_osm_id":"9870356393"},"geometry":{"type":"Point","coordinates":[117.2651517,31.6814934]}},{"type":"Feature","properties":{"id":"china-osm-rail-station-2987302557","name":"九联圩","station_type":"railway_station","source_region":"anhui","source_osm_id":"2987302557"},"geometry":{"type":"Point","coordinates":[117.2807372,31.6933471]}},{"type":"Feature","properties":{"id":"china-osm-rail-station-9655404717","name":"馆驿","station_type":"railway_station","source_region":"anhui","source_osm_id":"9655404717"},"geometry":{"type":"Point","coordinates":[117.1532759,31.6808671]}},{"type":"Feature","properties":{"id":"china-osm-rail-station-9870356392","name":"牛角大圩","station_type":"railway_station","source_region":"anhui","source_osm_id":"9870356392"},"geometry":{"type":"Point","coordinates":[117.246955,31.6859686]}},{"type":"Feature","properties":{"id":"china-osm-rail-station-8001180727","name":"省儿童医院新区","station_type":"railway_station","source_region":"anhui","source_osm_id":"8001180727"},"geometry":{"type":"Point","coordinates":[117.1702878,31.6891968]}},{"type":"Feature","properties":{"id":"china-osm-rail-station-8001180726","name":"乐平","station_type":"railway_station","source_region":"anhui","source_osm_id":"8001180726"},"geometry":{"type":"Point","coordinates":[117.170328,31.6964908]}},{"type":"Feature","properties":{"id":"china-osm-rail-station-8001180725","name":"芮祠","station_type":"railway_station","source_region":"anhui","source_osm_id":"8001180725"},"geometry":{"type":"Point","coordinates":[117.1609256,31.7025987]}},{"type":"Feature","properties":{"id":"china-osm-rail-station-10210657433","name":"合肥派河港铁路物流基地","station_type":"railway_station","source_region":"anhui","source_osm_id":"10210657433"},"geometry":{"type":"Point","coordinates":[117.2220784,31.7089162]}},{"type":"Feature","properties":{"id":"china-osm-rail-station-8001180723","name":"四十埠","station_type":"railway_station","source_region":"anhui","source_osm_id":"8001180723"},"geometry":{"type":"Point","coordinates":[117.1518102,31.7112065]}},{"type":"Feature","properties":{"id":"china-osm-rail-station-8001180693","name":"李湾","station_type":"railway_station","source_region":"anhui","source_osm_id":"8001180693"},"geometry":{"type":"Point","coordinates":[117.1507443,31.7204676]}},{"type":"Feature","properties":{"id":"china-osm-rail-station-8001180722","name":"凉亭","station_type":"railway_station","source_region":"anhui","source_osm_id":"8001180722"},"geometry":{"type":"Point","coordinates":[117.1568727,31.7257854]}},{"type":"Feature","properties":{"id":"china-osm-rail-station-8001180721","name":"安医一附院南区","station_type":"railway_station","source_region":"anhui","source_osm_id":"8001180721"},"geometry":{"type":"Point","coordinates":[117.1631947,31.7440064]}},{"type":"Feature","properties":{"id":"china-osm-rail-station-2987302556","name":"丙子铺","station_type":"railway_station","source_region":"anhui","source_osm_id":"2987302556"},"geometry":{"type":"Point","coordinates":[117.2919403,31.6933795]}},{"type":"Feature","properties":{"id":"china-osm-rail-station-3634890855","name":"万年埠","station_type":"railway_station","source_region":"anhui","source_osm_id":"3634890855"},"geometry":{"type":"Point","coordinates":[117.2965006,31.7005586]}},{"type":"Feature","properties":{"id":"china-osm-rail-station-8478652644","name":"贵阳路","station_type":"railway_station","source_region":"anhui","source_osm_id":"8478652644"},"geometry":{"type":"Point","coordinates":[117.258566,31.7012466]}},{"type":"Feature","properties":{"id":"china-osm-rail-station-3634890856","name":"万达城","station_type":"railway_station","source_region":"anhui","source_osm_id":"3634890856"},"geometry":{"type":"Point","coordinates":[117.2965323,31.7077415]}},{"type":"Feature","properties":{"id":"china-osm-rail-station-8478652643","name":"滨湖竹园","station_type":"railway_station","source_region":"anhui","source_osm_id":"8478652643"},"geometry":{"type":"Point","coordinates":[117.2586089,31.7114136]}},{"type":"Feature","properties":{"id":"china-osm-rail-station-8478652640","name":"云谷路","station_type":"railway_station","source_region":"anhui","source_osm_id":"8478652640"},"geometry":{"type":"Point","coordinates":[117.2965428,31.715131]}},{"type":"Feature","properties":{"id":"china-osm-rail-station-8478652641","name":"清水冲","station_type":"railway_station","source_region":"anhui","source_osm_id":"8478652641"},"geometry":{"type":"Point","coordinates":[117.2806685,31.7151421]}},{"type":"Feature","properties":{"id":"china-osm-rail-station-8478652642","name":"云川公园","station_type":"railway_station","source_region":"anhui","source_osm_id":"8478652642"},"geometry":{"type":"Point","coordinates":[117.2699735,31.7151579]}},{"type":"Feature","properties":{"id":"china-osm-rail-station-11164390530","name":"广西路","station_type":"railway_station","source_region":"anhui","source_osm_id":"11164390530"},"geometry":{"type":"Point","coordinates":[117.2858506,31.7426345]}},{"type":"Feature","properties":{"id":"china-osm-rail-station-11164390529","name":"要素大市场","station_type":"railway_station","source_region":"anhui","source_osm_id":"11164390529"},"geometry":{"type":"Point","coordinates":[117.2805106,31.7520769]}},{"type":"Feature","properties":{"id":"china-osm-rail-station-9489931062","name":"儿童生态乐园","station_type":"railway_station","source_region":"anhui","source_osm_id":"9489931062"},"geometry":{"type":"Point","coordinates":[117.382633,31.7322067]}},{"type":"Feature","properties":{"id":"china-osm-rail-station-8478652635","name":"省政务中心东","station_type":"railway_station","source_region":"anhui","source_osm_id":"8478652635"},"geometry":{"type":"Point","coordinates":[117.333051,31.7332704]}},{"type":"Feature","properties":{"id":"china-osm-rail-station-3634890869","name":"塘西河公园","station_type":"railway_station","source_region":"anhui","source_osm_id":"3634890869"},"geometry":{"type":"Point","coordinates":[117.2970614,31.7333322]}},{"type":"Feature","properties":{"id":"china-osm-rail-station-11164390532","name":"徽富路","station_type":"railway_station","source_region":"anhui","source_osm_id":"11164390532"},"geometry":{"type":"Point","coordinates":[117.3187228,31.7427059]}},{"type":"Feature","properties":{"id":"china-osm-rail-station-8478652634","name":"义城","station_type":"railway_station","source_region":"anhui","source_osm_id":"8478652634"},"geometry":{"type":"Point","coordinates":[117.3330925,31.7427199]}},{"type":"Feature","properties":{"id":"china-osm-rail-station-11164390535","name":"天津路","station_type":"railway_station","source_region":"anhui","source_osm_id":"11164390535"},"geometry":{"type":"Point","coordinates":[117.3433235,31.7427719]}},{"type":"Feature","properties":{"id":"china-osm-rail-station-11166738536","name":"紫庐","station_type":"railway_station","source_region":"anhui","source_osm_id":"11166738536"},"geometry":{"type":"Point","coordinates":[117.2971001,31.7427941]}},{"type":"Feature","properties":{"id":"china-osm-rail-station-11164390531","name":"嵩山路","station_type":"railway_station","source_region":"anhui","source_osm_id":"11164390531"},"geometry":{"type":"Point","coordinates":[117.3095102,31.7428612]}},{"type":"Feature","properties":{"id":"china-osm-rail-station-8478652633","name":"扬子江路","station_type":"railway_station","source_region":"anhui","source_osm_id":"8478652633"},"geometry":{"type":"Point","coordinates":[117.3331381,31.754764]}},{"type":"Feature","properties":{"id":"china-osm-rail-station-3634890871","name":"滨湖会展中心","station_type":"railway_station","source_region":"anhui","source_osm_id":"3634890871"},"geometry":{"type":"Point","coordinates":[117.2971205,31.7565705]}},{"type":"Feature","properties":{"id":"china-osm-rail-station-3473112196","name":"幸福坝","station_type":"railway_station","source_region":"anhui","source_osm_id":"3473112196"},"geometry":{"type":"Point","coordinates":[117.1755126,31.7531885]}},{"type":"Feature","properties":{"id":"china-osm-rail-station-3473112197","name":"安大磬苑校区","station_type":"railway_station","source_region":"anhui","source_osm_id":"3473112197"},"geometry":{"type":"Point","coordinates":[117.1866826,31.7612566]}},{"type":"Feature","properties":{"id":"china-osm-rail-station-11164390526","name":"耕耘路","station_type":"railway_station","source_region":"anhui","source_osm_id":"11164390526"},"geometry":{"type":"Point","coordinates":[117.2446615,31.7618224]}},{"type":"Feature","properties":{"id":"china-osm-rail-station-3473112198","name":"工大翡翠湖校区","station_type":"railway_station","source_region":"anhui","source_osm_id":"3473112198"},"geometry":{"type":"Point","coordinates":[117.1996609,31.7673985]}},{"type":"Feature","properties":{"id":"china-osm-rail-station-11164390525","name":"石门路","station_type":"railway_station","source_region":"anhui","source_osm_id":"11164390525"},"geometry":{"type":"Point","coordinates":[117.2446921,31.7728164]}},{"type":"Feature","properties":{"id":"china-osm-rail-station-3473112199","name":"大学城北","station_type":"railway_station","source_region":"anhui","source_osm_id":"3473112199"},"geometry":{"type":"Point","coordinates":[117.2042861,31.7770118]}},{"type":"Feature","properties":{"id":"china-osm-rail-station-11164390524","name":"天都路","station_type":"railway_station","source_region":"anhui","source_osm_id":"11164390524"},"geometry":{"type":"Point","coordinates":[117.2336335,31.7783]}},{"type":"Feature","properties":{"id":"china-osm-rail-station-11164390523","name":"莲花路","station_type":"railway_station","source_region":"anhui","source_osm_id":"11164390523"},"geometry":{"type":"Point","coordinates":[117.2258393,31.7783633]}},{"type":"Feature","properties":{"id":"china-osm-rail-station-11164390522","name":"徽园","station_type":"railway_station","source_region":"anhui","source_osm_id":"11164390522"},"geometry":{"type":"Point","coordinates":[117.2157493,31.7828758]}},{"type":"Feature","properties":{"id":"china-osm-rail-station-9242148054","name":"竹溪","station_type":"railway_station","source_region":"anhui","source_osm_id":"9242148054"},"geometry":{"type":"Point","coordinates":[117.1805942,31.7835534]}},{"type":"Feature","properties":{"id":"china-osm-rail-station-11164390527","name":"清潭路","station_type":"railway_station","source_region":"anhui","source_osm_id":"11164390527"},"geometry":{"type":"Point","coordinates":[117.2542327,31.7553479]}},{"type":"Feature","properties":{"id":"china-osm-rail-station-11164390528","name":"习友路","station_type":"railway_station","source_region":"anhui","source_osm_id":"11164390528"},"geometry":{"type":"Point","coordinates":[117.2647773,31.7580461]}},{"type":"Feature","properties":{"id":"china-osm-rail-station-2987302580","name":"高王","station_type":"railway_station","source_region":"anhui","source_osm_id":"2987302580"},"geometry":{"type":"Point","coordinates":[117.2858507,31.7749324]}},{"type":"Feature","properties":{"id":"china-osm-rail-station-2987302581","name":"骆岗","station_type":"railway_station","source_region":"anhui","source_osm_id":"2987302581"},"geometry":{"type":"Point","coordinates":[117.2860048,31.7850886]}},{"type":"Feature","properties":{"id":"china-osm-rail-station-2987302583","name":"南站南广场","station_type":"railway_station","source_region":"anhui","source_osm_id":"2987302583"},"geometry":{"type":"Point","coordinates":[117.2859514,31.7945458]}},{"type":"Feature","properties":{"id":"china-osm-rail-station-8478652627","name":"盛大","station_type":"railway_station","source_region":"anhui","source_osm_id":"8478652627"},"geometry":{"type":"Point","coordinates":[117.296416,31.7945902]}},{"type":"Feature","properties":{"id":"china-osm-rail-station-7197518162","name":"合肥南","station_type":"railway_station","source_region":"anhui","source_osm_id":"7197518162"},"geometry":{"type":"Point","coordinates":[117.2848751,31.8002988]}},{"type":"Feature","properties":{"id":"china-osm-rail-station-3637176411","name":"淝南","station_type":"railway_station","source_region":"anhui","source_osm_id":"3637176411"},"geometry":{"type":"Point","coordinates":[117.2756057,31.8017155]}},{"type":"Feature","properties":{"id":"china-osm-rail-station-7284562662","name":"合肥南站","station_type":"railway_station","source_region":"anhui","source_osm_id":"7284562662"},"geometry":{"type":"Point","coordinates":[117.2846034,31.8021792]}},{"type":"Feature","properties":{"id":"china-osm-rail-station-3637176248","name":"竹西","station_type":"railway_station","source_region":"anhui","source_osm_id":"3637176248"},"geometry":{"type":"Point","coordinates":[117.2709978,31.8052222]}},{"type":"Feature","properties":{"id":"china-osm-rail-station-8478652632","name":"黄河路","station_type":"railway_station","source_region":"anhui","source_osm_id":"8478652632"},"geometry":{"type":"Point","coordinates":[117.3286052,31.7677027]}},{"type":"Feature","properties":{"id":"china-osm-rail-station-8478652631","name":"花园大道","station_type":"railway_station","source_region":"anhui","source_osm_id":"8478652631"},"geometry":{"type":"Point","coordinates":[117.3285945,31.7753052]}},{"type":"Feature","properties":{"id":"china-osm-rail-station-8478652630","name":"大连路","station_type":"railway_station","source_region":"anhui","source_osm_id":"8478652630"},"geometry":{"type":"Point","coordinates":[117.326611,31.7875513]}},{"type":"Feature","properties":{"id":"china-osm-rail-station-8478652628","name":"包河苑","station_type":"railway_station","source_region":"anhui","source_osm_id":"8478652628"},"geometry":{"type":"Point","coordinates":[117.3117033,31.7957084]}},{"type":"Feature","properties":{"id":"china-osm-rail-station-8478652629","name":"义兴","station_type":"railway_station","source_region":"anhui","source_osm_id":"8478652629"},"geometry":{"type":"Point","coordinates":[117.3191491,31.7965325]}},{"type":"Feature","properties":{"id":"china-osm-rail-station-5523927130","name":"葛大店南","station_type":"railway_station","source_region":"anhui","source_osm_id":"5523927130"},"geometry":{"type":"Point","coordinates":[117.3076854,31.8108518]}},{"type":"Feature","properties":{"id":"china-osm-rail-station-2987302597","name":"葛大店","station_type":"railway_station","source_region":"anhui","source_osm_id":"2987302597"},"geometry":{"type":"Point","coordinates":[117.2980393,31.816469]}},{"type":"Feature","properties":{"id":"china-osm-rail-station-5523927132","name":"工经学院","station_type":"railway_station","source_region":"anhui","source_osm_id":"5523927132"},"geometry":{"type":"Point","coordinates":[117.3202253,31.8169047]}},{"type":"Feature","properties":{"id":"china-osm-rail-station-8570567818","name":"尧渡河路","station_type":"railway_station","source_region":"anhui","source_osm_id":"8570567818"},"geometry":{"type":"Point","coordinates":[117.318623,31.8271612]}},{"type":"Feature","properties":{"id":"china-osm-rail-station-9938215086","name":"钢红","station_type":"railway_station","source_region":"anhui","source_osm_id":"9938215086"},"geometry":{"type":"Point","coordinates":[117.3724327,31.8299052]}},{"type":"Feature","properties":{"id":"china-osm-rail-station-11166738535","name":"繁华大道","station_type":"railway_station","source_region":"anhui","source_osm_id":"11166738535"},"geometry":{"type":"Point","coordinates":[117.2043665,31.7842339]}},{"type":"Feature","properties":{"id":"china-osm-rail-station-11164390521","name":"翡翠公园","station_type":"railway_station","source_region":"anhui","source_osm_id":"11164390521"},"geometry":{"type":"Point","coordinates":[117.1908483,31.7844265]}},{"type":"Feature","properties":{"id":"china-osm-rail-station-3473112200","name":"安医大二附院","station_type":"railway_station","source_region":"anhui","source_osm_id":"3473112200"},"geometry":{"type":"Point","coordinates":[117.2044083,31.7918037]}},{"type":"Feature","properties":{"id":"china-osm-rail-station-3473112202","name":"省博物馆","station_type":"railway_station","source_region":"anhui","source_osm_id":"3473112202"},"geometry":{"type":"Point","coordinates":[117.2098212,31.8029762]}},{"type":"Feature","properties":{"id":"china-osm-rail-station-3637176203","name":"天鹅湖","station_type":"railway_station","source_region":"anhui","source_osm_id":"3637176203"},"geometry":{"type":"Point","coordinates":[117.2221298,31.810273]}},{"type":"Feature","properties":{"id":"china-osm-rail-station-3637176227","name":"姚公庙","station_type":"railway_station","source_region":"anhui","source_osm_id":"3637176227"},"geometry":{"type":"Point","coordinates":[117.2437677,31.8106724]}},{"type":"Feature","properties":{"id":"china-osm-rail-station-3637176412","name":"天鹅湖东","station_type":"railway_station","source_region":"anhui","source_osm_id":"3637176412"},"geometry":{"type":"Point","coordinates":[117.2331209,31.810681]}},{"type":"Feature","properties":{"id":"china-osm-rail-station-7093187766","name":"图书馆","station_type":"railway_station","source_region":"anhui","source_osm_id":"7093187766"},"geometry":{"type":"Point","coordinates":[117.2100116,31.8110688]}},{"type":"Feature","properties":{"id":"china-osm-rail-station-3637175285","name":"柳树塘","station_type":"railway_station","source_region":"anhui","source_osm_id":"3637175285"},"geometry":{"type":"Point","coordinates":[117.1928435,31.8136472]}},{"type":"Feature","properties":{"id":"china-osm-rail-station-3473112204","name":"合肥大剧院","station_type":"railway_station","source_region":"anhui","source_osm_id":"3473112204"},"geometry":{"type":"Point","coordinates":[117.2184959,31.8163005]}},{"type":"Feature","properties":{"id":"china-osm-rail-station-8510278042","name":"建新","station_type":"railway_station","source_region":"anhui","source_osm_id":"8510278042"},"geometry":{"type":"Point","coordinates":[116.9412875,30.1083141]}},{"type":"Feature","properties":{"id":"china-osm-rail-station-2381264575","name":"东至","station_type":"railway_station","source_region":"anhui","source_osm_id":"2381264575"},"geometry":{"type":"Point","coordinates":[117.0230412,30.175007]}},{"type":"Feature","properties":{"id":"china-osm-rail-station-8510217934","name":"张溪","station_type":"railway_station","source_region":"anhui","source_osm_id":"8510217934"},"geometry":{"type":"Point","coordinates":[117.0984016,30.2570041]}},{"type":"Feature","properties":{"id":"china-osm-rail-station-7882515905","name":"安庆","station_type":"railway_station","source_region":"anhui","source_osm_id":"7882515905"},"geometry":{"type":"Point","coordinates":[117.0600515,30.5515037]}},{"type":"Feature","properties":{"id":"china-osm-rail-station-5211777601","name":"安庆北","station_type":"railway_station","source_region":"anhui","source_osm_id":"5211777601"},"geometry":{"type":"Point","coordinates":[117.0033941,30.5669285]}},{"type":"Feature","properties":{"id":"china-osm-rail-station-8407883947","name":"桐城南","station_type":"railway_station","source_region":"anhui","source_osm_id":"8407883947"},"geometry":{"type":"Point","coordinates":[116.9593385,30.8752543]}},{"type":"Feature","properties":{"id":"china-osm-rail-station-4724796104","name":"桐城东","station_type":"railway_station","source_region":"anhui","source_osm_id":"4724796104"},"geometry":{"type":"Point","coordinates":[117.0344029,31.0276658]}},{"type":"Feature","properties":{"id":"china-osm-rail-station-1642883477","name":"桐城","station_type":"railway_station","source_region":"anhui","source_osm_id":"1642883477"},"geometry":{"type":"Point","coordinates":[116.972938,31.052529]}},{"type":"Feature","properties":{"id":"china-osm-rail-station-9242148052","name":"黄荆苯","station_type":"railway_station","source_region":"anhui","source_osm_id":"9242148052"},"geometry":{"type":"Point","coordinates":[117.0413688,31.1457162]}},{"type":"Feature","properties":{"id":"china-osm-rail-station-9229648666","name":"柯坦","station_type":"railway_station","source_region":"anhui","source_osm_id":"9229648666"},"geometry":{"type":"Point","coordinates":[117.1359515,31.2441088]}},{"type":"Feature","properties":{"id":"china-osm-rail-station-9979758367","name":"香隅","station_type":"railway_station","source_region":"anhui","source_osm_id":"9979758367"},"geometry":{"type":"Point","coordinates":[116.8349004,30.0454516]}},{"type":"Feature","properties":{"id":"china-osm-rail-station-8498519355","name":"潜山","station_type":"railway_station","source_region":"anhui","source_osm_id":"8498519355"},"geometry":{"type":"Point","coordinates":[116.6120547,30.5763052]}},{"type":"Feature","properties":{"id":"china-osm-rail-station-5211777602","name":"石镜","station_type":"railway_station","source_region":"anhui","source_osm_id":"5211777602"},"geometry":{"type":"Point","coordinates":[116.863305,30.6307115]}},{"type":"Feature","properties":{"id":"china-osm-rail-station-9242148051","name":"天柱山","station_type":"railway_station","source_region":"anhui","source_osm_id":"9242148051"},"geometry":{"type":"Point","coordinates":[116.5553257,30.6580684]}},{"type":"Feature","properties":{"id":"china-osm-rail-station-5968244721","name":"安庆西","station_type":"railway_station","source_region":"anhui","source_osm_id":"5968244721"},"geometry":{"type":"Point","coordinates":[116.8592916,30.6751256]}},{"type":"Feature","properties":{"id":"china-osm-rail-station-8508781149","name":"瓜形","station_type":"railway_station","source_region":"anhui","source_osm_id":"8508781149"},"geometry":{"type":"Point","coordinates":[116.6842694,30.7010005]}},{"type":"Feature","properties":{"id":"china-osm-rail-station-1642883459","name":"怀宁","station_type":"railway_station","source_region":"anhui","source_osm_id":"1642883459"},"geometry":{"type":"Point","coordinates":[116.8148268,30.7644409]}},{"type":"Feature","properties":{"id":"china-osm-rail-station-8508800519","name":"杨树店","station_type":"railway_station","source_region":"anhui","source_osm_id":"8508800519"},"geometry":{"type":"Point","coordinates":[116.8453691,30.8545969]}},{"type":"Feature","properties":{"id":"china-osm-rail-station-8508786859","name":"范岗","station_type":"railway_station","source_region":"anhui","source_osm_id":"8508786859"},"geometry":{"type":"Point","coordinates":[116.8780076,30.9843898]}},{"type":"Feature","properties":{"id":"china-osm-rail-station-5157242006","name":"六安","station_type":"railway_station","source_region":"anhui","source_osm_id":"5157242006"},"geometry":{"type":"Point","coordinates":[116.4944637,31.7169969]}},{"type":"Feature","properties":{"id":"china-osm-rail-station-8498528070","name":"宿松东","station_type":"railway_station","source_region":"anhui","source_osm_id":"8498528070"},"geometry":{"type":"Point","coordinates":[116.1702976,30.1533371]}},{"type":"Feature","properties":{"id":"china-osm-rail-station-1642883476","name":"宿松","station_type":"railway_station","source_region":"anhui","source_osm_id":"1642883476"},"geometry":{"type":"Point","coordinates":[116.0983896,30.2317842]}},{"type":"Feature","properties":{"id":"china-osm-rail-station-9242148050","name":"凉亭河","station_type":"railway_station","source_region":"anhui","source_osm_id":"9242148050"},"geometry":{"type":"Point","coordinates":[116.1652815,30.3200165]}},{"type":"Feature","properties":{"id":"china-osm-rail-station-8498511451","name":"太湖南","station_type":"railway_station","source_region":"anhui","source_osm_id":"8498511451"},"geometry":{"type":"Point","coordinates":[116.3579323,30.4107789]}},{"type":"Feature","properties":{"id":"china-osm-rail-station-1642992168","name":"太湖","station_type":"railway_station","source_region":"anhui","source_osm_id":"1642992168"},"geometry":{"type":"Point","coordinates":[116.2947768,30.462122]}},{"type":"Feature","properties":{"id":"china-osm-rail-station-8509054227","name":"小池","station_type":"railway_station","source_region":"anhui","source_osm_id":"8509054227"},"geometry":{"type":"Point","coordinates":[116.4115611,30.5205399]}},{"type":"Feature","properties":{"id":"china-osm-rail-station-7199441365","name":"墩义堂","station_type":"railway_station","source_region":"anhui","source_osm_id":"7199441365"},"geometry":{"type":"Point","coordinates":[115.4998013,31.3312924]}},{"type":"Feature","properties":{"id":"china-osm-rail-station-7199441366","name":"天堂寨","station_type":"railway_station","source_region":"anhui","source_osm_id":"7199441366"},"geometry":{"type":"Point","coordinates":[115.7225937,31.4570982]}},{"type":"Feature","properties":{"id":"china-osm-rail-station-11710655089","name":"南溪","station_type":"railway_station","source_region":"anhui","source_osm_id":"11710655089"},"geometry":{"type":"Point","coordinates":[115.5943485,31.5432878]}},{"type":"Feature","properties":{"id":"china-osm-rail-station-4664182640","name":"金寨","station_type":"railway_station","source_region":"anhui","source_osm_id":"4664182640"},"geometry":{"type":"Point","coordinates":[115.9702216,31.6280374]}},{"type":"Feature","properties":{"id":"china-osm-rail-station-11901257634","name":"喵山谷站","station_type":"railway_station","source_region":"anhui","source_osm_id":"11901257634"},"geometry":{"type":"Point","coordinates":[117.1303398,31.2959017]}},{"type":"Feature","properties":{"id":"china-osm-rail-station-11901257629","name":"星火站","station_type":"railway_station","source_region":"anhui","source_osm_id":"11901257629"},"geometry":{"type":"Point","coordinates":[117.0947608,31.3119925]}},{"type":"Feature","properties":{"id":"china-osm-rail-station-11901257633","name":"长冲站","station_type":"railway_station","source_region":"anhui","source_osm_id":"11901257633"},"geometry":{"type":"Point","coordinates":[117.140807,31.3189145]}},{"type":"Feature","properties":{"id":"china-osm-rail-station-11901257630","name":"萌芽站","station_type":"railway_station","source_region":"anhui","source_osm_id":"11901257630"},"geometry":{"type":"Point","coordinates":[117.1032336,31.3195301]}},{"type":"Feature","properties":{"id":"china-osm-rail-station-11901257632","name":"醴飨站","station_type":"railway_station","source_region":"anhui","source_osm_id":"11901257632"},"geometry":{"type":"Point","coordinates":[117.1391292,31.3237987]}},{"type":"Feature","properties":{"id":"china-osm-rail-station-11901257578","name":"两山站","station_type":"railway_station","source_region":"anhui","source_osm_id":"11901257578"},"geometry":{"type":"Point","coordinates":[117.1222576,31.3247815]}},{"type":"Feature","properties":{"id":"china-osm-rail-station-11901257631","name":"勇士站","station_type":"railway_station","source_region":"anhui","source_osm_id":"11901257631"},"geometry":{"type":"Point","coordinates":[117.1086174,31.3255819]}},{"type":"Feature","properties":{"id":"china-osm-rail-station-9987644050","name":"舒城东","station_type":"railway_station","source_region":"anhui","source_osm_id":"9987644050"},"geometry":{"type":"Point","coordinates":[117.042042,31.4869977]}},{"type":"Feature","properties":{"id":"china-osm-rail-station-8508742580","name":"丰乐","station_type":"railway_station","source_region":"anhui","source_osm_id":"8508742580"},"geometry":{"type":"Point","coordinates":[117.1407008,31.6179879]}},{"type":"Feature","properties":{"id":"china-osm-rail-station-8846820770","name":"大官塘","station_type":"railway_station","source_region":"anhui","source_osm_id":"8846820770"},"geometry":{"type":"Point","coordinates":[117.0824202,31.6398193]}},{"type":"Feature","properties":{"id":"china-osm-rail-station-6818020471","name":"大兴机场","station_type":"railway_station","source_region":"beijing","source_osm_id":"6818020471"},"geometry":{"type":"Point","coordinates":[116.4106758,39.5124863]}},{"type":"Feature","properties":{"id":"china-osm-rail-station-6817368517","name":"大兴机场","station_type":"railway_station","source_region":"beijing","source_osm_id":"6817368517"},"geometry":{"type":"Point","coordinates":[116.4105556,39.5133607]}},{"type":"Feature","properties":{"id":"china-osm-rail-station-8445004257","name":"魏善庄","station_type":"railway_station","source_region":"beijing","source_osm_id":"8445004257"},"geometry":{"type":"Point","coordinates":[116.402515,39.6648677]}},{"type":"Feature","properties":{"id":"china-osm-rail-station-6172173705","name":"东高地","station_type":"railway_station","source_region":"beijing","source_osm_id":"6172173705"},"geometry":{"type":"Point","coordinates":[116.4030681,39.8037787]}},{"type":"Feature","properties":{"id":"china-osm-rail-station-4708377149","name":"南苑","station_type":"railway_station","source_region":"beijing","source_osm_id":"4708377149"},"geometry":{"type":"Point","coordinates":[116.3840304,39.8046983]}},{"type":"Feature","properties":{"id":"china-osm-rail-station-6172173704","name":"和义","station_type":"railway_station","source_region":"beijing","source_osm_id":"6172173704"},"geometry":{"type":"Point","coordinates":[116.3958329,39.8135634]}},{"type":"Feature","properties":{"id":"china-osm-rail-station-6817579579","name":"大红门","station_type":"railway_station","source_region":"beijing","source_osm_id":"6817579579"},"geometry":{"type":"Point","coordinates":[116.3728362,39.826921]}},{"type":"Feature","properties":{"id":"china-osm-rail-station-6172173703","name":"大红门南","station_type":"railway_station","source_region":"beijing","source_osm_id":"6172173703"},"geometry":{"type":"Point","coordinates":[116.3948539,39.8355481]}},{"type":"Feature","properties":{"id":"china-osm-rail-station-13288528515","name":"大红门","station_type":"railway_station","source_region":"beijing","source_osm_id":"13288528515"},"geometry":{"type":"Point","coordinates":[116.3944459,39.8429511]}},{"type":"Feature","properties":{"id":"china-osm-rail-station-5430391236","name":"角门东","station_type":"railway_station","source_region":"beijing","source_osm_id":"5430391236"},"geometry":{"type":"Point","coordinates":[116.3788076,39.8438402]}},{"type":"Feature","properties":{"id":"china-osm-rail-station-8419766773","name":"西枣林","station_type":"railway_station","source_region":"beijing","source_osm_id":"8419766773"},"geometry":{"type":"Point","coordinates":[116.3500844,39.649792]}},{"type":"Feature","properties":{"id":"china-osm-rail-station-2351141827","name":"黄村","station_type":"railway_station","source_region":"beijing","source_osm_id":"2351141827"},"geometry":{"type":"Point","coordinates":[116.3248517,39.7193124]}},{"type":"Feature","properties":{"id":"china-osm-rail-station-7860703075","name":"黄村火车站","station_type":"railway_station","source_region":"beijing","source_osm_id":"7860703075"},"geometry":{"type":"Point","coordinates":[116.3266541,39.7215049]}},{"type":"Feature","properties":{"id":"china-osm-rail-station-7860703074","name":"黄村西大街","station_type":"railway_station","source_region":"beijing","source_osm_id":"7860703074"},"geometry":{"type":"Point","coordinates":[116.3265186,39.730422]}},{"type":"Feature","properties":{"id":"china-osm-rail-station-6818020472","name":"大兴新城","station_type":"railway_station","source_region":"beijing","source_osm_id":"6818020472"},"geometry":{"type":"Point","coordinates":[116.3594824,39.7340741]}},{"type":"Feature","properties":{"id":"china-osm-rail-station-7860703073","name":"清源路","station_type":"railway_station","source_region":"beijing","source_osm_id":"7860703073"},"geometry":{"type":"Point","coordinates":[116.3263162,39.7417561]}},{"type":"Feature","properties":{"id":"china-osm-rail-station-5444440441","name":"枣园","station_type":"railway_station","source_region":"beijing","source_osm_id":"5444440441"},"geometry":{"type":"Point","coordinates":[116.3260337,39.7518055]}},{"type":"Feature","properties":{"id":"china-osm-rail-station-5441536634","name":"高米店南","station_type":"railway_station","source_region":"beijing","source_osm_id":"5441536634"},"geometry":{"type":"Point","coordinates":[116.325694,39.7622885]}},{"type":"Feature","properties":{"id":"china-osm-rail-station-7860703072","name":"高米店北","station_type":"railway_station","source_region":"beijing","source_osm_id":"7860703072"},"geometry":{"type":"Point","coordinates":[116.3244805,39.7730301]}},{"type":"Feature","properties":{"id":"china-osm-rail-station-9706596471","name":"新宫","station_type":"railway_station","source_region":"beijing","source_osm_id":"9706596471"},"geometry":{"type":"Point","coordinates":[116.359749,39.8110444]}},{"type":"Feature","properties":{"id":"china-osm-rail-station-5428310397","name":"天宫院","station_type":"railway_station","source_region":"beijing","source_osm_id":"5428310397"},"geometry":{"type":"Point","coordinates":[116.3139055,39.6689886]}},{"type":"Feature","properties":{"id":"china-osm-rail-station-5441516142","name":"生物医药基地","station_type":"railway_station","source_region":"beijing","source_osm_id":"5441516142"},"geometry":{"type":"Point","coordinates":[116.3156802,39.6851077]}},{"type":"Feature","properties":{"id":"china-osm-rail-station-7860703076","name":"义和庄","station_type":"railway_station","source_region":"beijing","source_osm_id":"7860703076"},"geometry":{"type":"Point","coordinates":[116.3130186,39.7111046]}},{"type":"Feature","properties":{"id":"china-osm-rail-station-6817368518","name":"北京大兴","station_type":"railway_station","source_region":"beijing","source_osm_id":"6817368518"},"geometry":{"type":"Point","coordinates":[116.3222953,39.7191662]}},{"type":"Feature","properties":{"id":"china-osm-rail-station-7860703071","name":"西红门","station_type":"railway_station","source_region":"beijing","source_osm_id":"7860703071"},"geometry":{"type":"Point","coordinates":[116.322677,39.7883939]}},{"type":"Feature","properties":{"id":"china-osm-rail-station-8073272027","name":"大葆台","station_type":"railway_station","source_region":"beijing","source_osm_id":"8073272027"},"geometry":{"type":"Point","coordinates":[116.2854666,39.8064524]}},{"type":"Feature","properties":{"id":"china-osm-rail-station-5430450045","name":"郭公庄","station_type":"railway_station","source_region":"beijing","source_osm_id":"5430450045"},"geometry":{"type":"Point","coordinates":[116.2960281,39.8133778]}},{"type":"Feature","properties":{"id":"china-osm-rail-station-7631365912","name":"白盆窑","station_type":"railway_station","source_region":"beijing","source_osm_id":"7631365912"},"geometry":{"type":"Point","coordinates":[116.3067798,39.818274]}},{"type":"Feature","properties":{"id":"china-osm-rail-station-7860304588","name":"丰台科技园","station_type":"railway_station","source_region":"beijing","source_osm_id":"7860304588"},"geometry":{"type":"Point","coordinates":[116.2912488,39.8239138]}},{"type":"Feature","properties":{"id":"china-osm-rail-station-7631365924","name":"花乡东桥","station_type":"railway_station","source_region":"beijing","source_osm_id":"7631365924"},"geometry":{"type":"Point","coordinates":[116.3139452,39.8278468]}},{"type":"Feature","properties":{"id":"china-osm-rail-station-9379477293","name":"新发地","station_type":"railway_station","source_region":"beijing","source_osm_id":"9379477293"},"geometry":{"type":"Point","coordinates":[116.3402526,39.8225567]}},{"type":"Feature","properties":{"id":"china-osm-rail-station-5430444271","name":"公益西桥","station_type":"railway_station","source_region":"beijing","source_osm_id":"5430444271"},"geometry":{"type":"Point","coordinates":[116.3646715,39.8352632]}},{"type":"Feature","properties":{"id":"china-osm-rail-station-7896877679","name":"纪家庙","station_type":"railway_station","source_region":"beijing","source_osm_id":"7896877679"},"geometry":{"type":"Point","coordinates":[116.3273554,39.8431736]}},{"type":"Feature","properties":{"id":"china-osm-rail-station-5430507192","name":"角门西","station_type":"railway_station","source_region":"beijing","source_osm_id":"5430507192"},"geometry":{"type":"Point","coordinates":[116.3647807,39.8444824]}},{"type":"Feature","properties":{"id":"china-osm-rail-station-9122347219","name":"草桥","station_type":"railway_station","source_region":"beijing","source_osm_id":"9122347219"},"geometry":{"type":"Point","coordinates":[116.3454124,39.8445995]}},{"type":"Feature","properties":{"id":"china-osm-rail-station-9385116432","name":"草桥","station_type":"railway_station","source_region":"beijing","source_osm_id":"9385116432"},"geometry":{"type":"Point","coordinates":[116.3428438,39.8460959]}},{"type":"Feature","properties":{"id":"china-osm-rail-station-9385116433","name":"草桥","station_type":"railway_station","source_region":"beijing","source_osm_id":"9385116433"},"geometry":{"type":"Point","coordinates":[116.3424361,39.8461391]}},{"type":"Feature","properties":{"id":"china-osm-rail-station-9365006124","name":"西铁营","station_type":"railway_station","source_region":"beijing","source_osm_id":"9365006124"},"geometry":{"type":"Point","coordinates":[116.3497096,39.859977]}},{"type":"Feature","properties":{"id":"china-osm-rail-station-3367069256","name":"景风门","station_type":"railway_station","source_region":"beijing","source_osm_id":"3367069256"},"geometry":{"type":"Point","coordinates":[116.3600963,39.8614067]}},{"type":"Feature","properties":{"id":"china-osm-rail-station-9385116436","name":"景风门","station_type":"railway_station","source_region":"beijing","source_osm_id":"9385116436"},"geometry":{"type":"Point","coordinates":[116.3580843,39.8626316]}},{"type":"Feature","properties":{"id":"china-osm-rail-station-6496364883","name":"大红门","station_type":"railway_station","source_region":"beijing","source_osm_id":"6496364883"},"geometry":{"type":"Point","coordinates":[116.3927722,39.8440139]}},{"type":"Feature","properties":{"id":"china-osm-rail-station-7896877682","name":"石榴庄","station_type":"railway_station","source_region":"beijing","source_osm_id":"7896877682"},"geometry":{"type":"Point","coordinates":[116.4074126,39.8444927]}},{"type":"Feature","properties":{"id":"china-osm-rail-station-6172173702","name":"海户屯","station_type":"railway_station","source_region":"beijing","source_osm_id":"6172173702"},"geometry":{"type":"Point","coordinates":[116.3940324,39.8506537]}},{"type":"Feature","properties":{"id":"china-osm-rail-station-7861046856","name":"马家堡","station_type":"railway_station","source_region":"beijing","source_osm_id":"7861046856"},"geometry":{"type":"Point","coordinates":[116.365207,39.8516352]}},{"type":"Feature","properties":{"id":"china-osm-rail-station-6172173701","name":"木樨园","station_type":"railway_station","source_region":"beijing","source_osm_id":"6172173701"},"geometry":{"type":"Point","coordinates":[116.3932245,39.858181]}},{"type":"Feature","properties":{"id":"china-osm-rail-station-539260172","name":"北京南","station_type":"railway_station","source_region":"beijing","source_osm_id":"539260172"},"geometry":{"type":"Point","coordinates":[116.3723994,39.8634831]}},{"type":"Feature","properties":{"id":"china-osm-rail-station-5158580594","name":"北京南站","station_type":"railway_station","source_region":"beijing","source_osm_id":"5158580594"},"geometry":{"type":"Point","coordinates":[116.3727527,39.8635548]}},{"type":"Feature","properties":{"id":"china-osm-rail-station-3367857703","name":"景泰","station_type":"railway_station","source_region":"beijing","source_osm_id":"3367857703"},"geometry":{"type":"Point","coordinates":[116.4049409,39.8636494]}},{"type":"Feature","properties":{"id":"china-osm-rail-station-8658952312","name":"北京南站","station_type":"railway_station","source_region":"beijing","source_osm_id":"8658952312"},"geometry":{"type":"Point","coordinates":[116.3733186,39.8641006]}},{"type":"Feature","properties":{"id":"china-osm-rail-station-6172173700","name":"永定门外","station_type":"railway_station","source_region":"beijing","source_osm_id":"6172173700"},"geometry":{"type":"Point","coordinates":[116.3930393,39.8647562]}},{"type":"Feature","properties":{"id":"china-osm-rail-station-3367857706","name":"陶然桥(在建)","station_type":"railway_station","source_region":"beijing","source_osm_id":"3367857706"},"geometry":{"type":"Point","coordinates":[116.3816795,39.8675967]}},{"type":"Feature","properties":{"id":"china-osm-rail-station-7861046855","name":"陶然亭","station_type":"railway_station","source_region":"beijing","source_osm_id":"7861046855"},"geometry":{"type":"Point","coordinates":[116.3682029,39.8774369]}},{"type":"Feature","properties":{"id":"china-osm-rail-station-6488102425","name":"天桥","station_type":"railway_station","source_region":"beijing","source_osm_id":"6488102425"},"geometry":{"type":"Point","coordinates":[116.3925037,39.8806517]}},{"type":"Feature","properties":{"id":"china-osm-rail-station-3369459847","name":"菜市口","station_type":"railway_station","source_region":"beijing","source_osm_id":"3369459847"},"geometry":{"type":"Point","coordinates":[116.3682164,39.887991]}},{"type":"Feature","properties":{"id":"china-osm-rail-station-3369459848","name":"虎坊桥","station_type":"railway_station","source_region":"beijing","source_osm_id":"3369459848"},"geometry":{"type":"Point","coordinates":[116.3774806,39.8883975]}},{"type":"Feature","properties":{"id":"china-osm-rail-station-6172173698","name":"珠市口","station_type":"railway_station","source_region":"beijing","source_osm_id":"6172173698"},"geometry":{"type":"Point","coordinates":[116.3921937,39.8893117]}},{"type":"Feature","properties":{"id":"china-osm-rail-station-3369459839","name":"桥湾","station_type":"railway_station","source_region":"beijing","source_osm_id":"3369459839"},"geometry":{"type":"Point","coordinates":[116.4022485,39.8912849]}},{"type":"Feature","properties":{"id":"china-osm-rail-station-6724644886","name":"前门","station_type":"railway_station","source_region":"beijing","source_osm_id":"6724644886"},"geometry":{"type":"Point","coordinates":[116.3929416,39.8982814]}},{"type":"Feature","properties":{"id":"china-osm-rail-station-5430419547","name":"宣武门","station_type":"railway_station","source_region":"beijing","source_osm_id":"5430419547"},"geometry":{"type":"Point","coordinates":[116.3680141,39.8983866]}},{"type":"Feature","properties":{"id":"china-osm-rail-station-5428312892","name":"和平门","station_type":"railway_station","source_region":"beijing","source_osm_id":"5428312892"},"geometry":{"type":"Point","coordinates":[116.3777751,39.8986925]}},{"type":"Feature","properties":{"id":"china-osm-rail-station-3367044891","name":"西局","station_type":"railway_station","source_region":"beijing","source_osm_id":"3367044891"},"geometry":{"type":"Point","coordinates":[116.2978076,39.8652242]}},{"type":"Feature","properties":{"id":"china-osm-rail-station-3367038996","name":"七里庄","station_type":"railway_station","source_region":"beijing","source_osm_id":"3367038996"},"geometry":{"type":"Point","coordinates":[116.2881665,39.8652402]}},{"type":"Feature","properties":{"id":"china-osm-rail-station-3367069254","name":"东管头","station_type":"railway_station","source_region":"beijing","source_osm_id":"3367069254"},"geometry":{"type":"Point","coordinates":[116.3144367,39.8661164]}},{"type":"Feature","properties":{"id":"china-osm-rail-station-5430454140","name":"六里桥","station_type":"railway_station","source_region":"beijing","source_osm_id":"5430454140"},"geometry":{"type":"Point","coordinates":[116.2968997,39.8786861]}},{"type":"Feature","properties":{"id":"china-osm-rail-station-7860304590","name":"六里桥东","station_type":"railway_station","source_region":"beijing","source_osm_id":"7860304590"},"geometry":{"type":"Point","coordinates":[116.308808,39.8857143]}},{"type":"Feature","properties":{"id":"china-osm-rail-station-6496364884","name":"湾子","station_type":"railway_station","source_region":"beijing","source_osm_id":"6496364884"},"geometry":{"type":"Point","coordinates":[116.3213598,39.8889326]}},{"type":"Feature","properties":{"id":"china-osm-rail-station-5463450278","name":"北京西站","station_type":"railway_station","source_region":"beijing","source_osm_id":"5463450278"},"geometry":{"type":"Point","coordinates":[116.3151056,39.8935411]}},{"type":"Feature","properties":{"id":"china-osm-rail-station-7780210950","name":"北京西","station_type":"railway_station","source_region":"beijing","source_osm_id":"7780210950"},"geometry":{"type":"Point","coordinates":[116.3151027,39.8936695]}},{"type":"Feature","properties":{"id":"china-osm-rail-station-5453394777","name":"莲花桥","station_type":"railway_station","source_region":"beijing","source_osm_id":"5453394777"},"geometry":{"type":"Point","coordinates":[116.3043065,39.8961589]}},{"type":"Feature","properties":{"id":"china-osm-rail-station-5430417411","name":"军事博物馆","station_type":"railway_station","source_region":"beijing","source_osm_id":"5430417411"},"geometry":{"type":"Point","coordinates":[116.3178241,39.9061218]}},{"type":"Feature","properties":{"id":"china-osm-rail-station-3367069257","name":"菜户营","station_type":"railway_station","source_region":"beijing","source_osm_id":"3367069257"},"geometry":{"type":"Point","coordinates":[116.3366819,39.8662594]}},{"type":"Feature","properties":{"id":"china-osm-rail-station-3367069255","name":"丽泽商务区","station_type":"railway_station","source_region":"beijing","source_osm_id":"3367069255"},"geometry":{"type":"Point","coordinates":[116.3256029,39.8662759]}},{"type":"Feature","properties":{"id":"china-osm-rail-station-4564112795","name":"红莲南路","station_type":"railway_station","source_region":"beijing","source_osm_id":"4564112795"},"geometry":{"type":"Point","coordinates":[116.3307982,39.8762703]}},{"type":"Feature","properties":{"id":"china-osm-rail-station-6817425178","name":"广安门","station_type":"railway_station","source_region":"beijing","source_osm_id":"6817425178"},"geometry":{"type":"Point","coordinates":[116.3382518,39.8802452]}},{"type":"Feature","properties":{"id":"china-osm-rail-station-3369459837","name":"广安门内","station_type":"railway_station","source_region":"beijing","source_osm_id":"3369459837"},"geometry":{"type":"Point","coordinates":[116.351727,39.8885681]}},{"type":"Feature","properties":{"id":"china-osm-rail-station-3369459849","name":"达官营","station_type":"railway_station","source_region":"beijing","source_osm_id":"3369459849"},"geometry":{"type":"Point","coordinates":[116.3293717,39.888892]}},{"type":"Feature","properties":{"id":"china-osm-rail-station-6724644888","name":"长椿街","station_type":"railway_station","source_region":"beijing","source_osm_id":"6724644888"},"geometry":{"type":"Point","coordinates":[116.3572147,39.8980394]}},{"type":"Feature","properties":{"id":"china-osm-rail-station-6617849502","name":"南礼士路","station_type":"railway_station","source_region":"beijing","source_osm_id":"6617849502"},"geometry":{"type":"Point","coordinates":[116.3465697,39.9058662]}},{"type":"Feature","properties":{"id":"china-osm-rail-station-5430395013","name":"复兴门","station_type":"railway_station","source_region":"beijing","source_osm_id":"5430395013"},"geometry":{"type":"Point","coordinates":[116.3505107,39.905948]}},{"type":"Feature","properties":{"id":"china-osm-rail-station-6617849501","name":"木樨地","station_type":"railway_station","source_region":"beijing","source_osm_id":"6617849501"},"geometry":{"type":"Point","coordinates":[116.3315051,39.9061161]}},{"type":"Feature","properties":{"id":"china-osm-rail-station-5430540736","name":"西单","station_type":"railway_station","source_region":"beijing","source_osm_id":"5430540736"},"geometry":{"type":"Point","coordinates":[116.3682035,39.9057386]}},{"type":"Feature","properties":{"id":"china-osm-rail-station-6447754030","name":"天安门西","station_type":"railway_station","source_region":"beijing","source_osm_id":"6447754030"},"geometry":{"type":"Point","coordinates":[116.3851622,39.9059702]}},{"type":"Feature","properties":{"id":"china-osm-rail-station-5441520625","name":"天安门东","station_type":"railway_station","source_region":"beijing","source_osm_id":"5441520625"},"geometry":{"type":"Point","coordinates":[116.3949169,39.9063337]}},{"type":"Feature","properties":{"id":"china-osm-rail-station-6617849503","name":"王府井","station_type":"railway_station","source_region":"beijing","source_osm_id":"6617849503"},"geometry":{"type":"Point","coordinates":[116.4052789,39.9069496]}},{"type":"Feature","properties":{"id":"china-osm-rail-station-9379477284","name":"金鱼胡同","station_type":"railway_station","source_region":"beijing","source_osm_id":"9379477284"},"geometry":{"type":"Point","coordinates":[116.4049246,39.9147047]}},{"type":"Feature","properties":{"id":"china-osm-rail-station-5444439979","name":"灵境胡同","station_type":"railway_station","source_region":"beijing","source_osm_id":"5444439979"},"geometry":{"type":"Point","coordinates":[116.3672738,39.9147796]}},{"type":"Feature","properties":{"id":"china-osm-rail-station-7861046854","name":"西四","station_type":"railway_station","source_region":"beijing","source_osm_id":"7861046854"},"geometry":{"type":"Point","coordinates":[116.3668145,39.9225455]}},{"type":"Feature","properties":{"id":"china-osm-rail-station-5305505990","name":"东四","station_type":"railway_station","source_region":"beijing","source_osm_id":"5305505990"},"geometry":{"type":"Point","coordinates":[116.4102477,39.9229744]}},{"type":"Feature","properties":{"id":"china-osm-rail-station-6172173744","name":"中国美术馆","station_type":"railway_station","source_region":"beijing","source_osm_id":"6172173744"},"geometry":{"type":"Point","coordinates":[116.4045447,39.9236287]}},{"type":"Feature","properties":{"id":"china-osm-rail-station-6497767616","name":"南锣鼓巷","station_type":"railway_station","source_region":"beijing","source_osm_id":"6497767616"},"geometry":{"type":"Point","coordinates":[116.3966927,39.9316439]}},{"type":"Feature","properties":{"id":"china-osm-rail-station-4564112811","name":"木樨地","station_type":"railway_station","source_region":"beijing","source_osm_id":"4564112811"},"geometry":{"type":"Point","coordinates":[116.3277725,39.9077017]}},{"type":"Feature","properties":{"id":"china-osm-rail-station-9920410920","name":"太平桥","station_type":"railway_station","source_region":"beijing","source_osm_id":"9920410920"},"geometry":{"type":"Point","coordinates":[116.3571516,39.9087765]}},{"type":"Feature","properties":{"id":"china-osm-rail-station-4564112816","name":"玉渊潭东门","station_type":"railway_station","source_region":"beijing","source_osm_id":"4564112816"},"geometry":{"type":"Point","coordinates":[116.328872,39.9139393]}},{"type":"Feature","properties":{"id":"china-osm-rail-station-6724644887","name":"阜成门","station_type":"railway_station","source_region":"beijing","source_osm_id":"6724644887"},"geometry":{"type":"Point","coordinates":[116.3500666,39.922313]}},{"type":"Feature","properties":{"id":"china-osm-rail-station-4564112817","name":"甘家口","station_type":"railway_station","source_region":"beijing","source_osm_id":"4564112817"},"geometry":{"type":"Point","coordinates":[116.3285052,39.922439]}},{"type":"Feature","properties":{"id":"china-osm-rail-station-7896877678","name":"车公庄西","station_type":"railway_station","source_region":"beijing","source_osm_id":"7896877678"},"geometry":{"type":"Point","coordinates":[116.3379903,39.931061]}},{"type":"Feature","properties":{"id":"china-osm-rail-station-9380308680","name":"二里沟","station_type":"railway_station","source_region":"beijing","source_osm_id":"9380308680"},"geometry":{"type":"Point","coordinates":[116.3275776,39.9310721]}},{"type":"Feature","properties":{"id":"china-osm-rail-station-5430505472","name":"车公庄","station_type":"railway_station","source_region":"beijing","source_osm_id":"5430505472"},"geometry":{"type":"Point","coordinates":[116.3493426,39.9311554]}},{"type":"Feature","properties":{"id":"china-osm-rail-station-9385088769","name":"平安里","station_type":"railway_station","source_region":"beijing","source_osm_id":"9385088769"},"geometry":{"type":"Point","coordinates":[116.3651624,39.9313232]}},{"type":"Feature","properties":{"id":"china-osm-rail-station-9385088768","name":"平安里","station_type":"railway_station","source_region":"beijing","source_osm_id":"9385088768"},"geometry":{"type":"Point","coordinates":[116.3617483,39.9320831]}},{"type":"Feature","properties":{"id":"china-osm-rail-station-11410594720","name":"礼贤","station_type":"railway_station","source_region":"beijing","source_osm_id":"11410594720"},"geometry":{"type":"Point","coordinates":[116.4316117,39.555011]}},{"type":"Feature","properties":{"id":"china-osm-rail-station-6488102424","name":"瀛海","station_type":"railway_station","source_region":"beijing","source_osm_id":"6488102424"},"geometry":{"type":"Point","coordinates":[116.4428265,39.7593594]}},{"type":"Feature","properties":{"id":"china-osm-rail-station-6488102423","name":"德茂","station_type":"railway_station","source_region":"beijing","source_osm_id":"6488102423"},"geometry":{"type":"Point","coordinates":[116.4355574,39.7712874]}},{"type":"Feature","properties":{"id":"china-osm-rail-station-6172173707","name":"五福堂","station_type":"railway_station","source_region":"beijing","source_osm_id":"6172173707"},"geometry":{"type":"Point","coordinates":[116.4174105,39.7837675]}},{"type":"Feature","properties":{"id":"china-osm-rail-station-6172173706","name":"火箭万源","station_type":"railway_station","source_region":"beijing","source_osm_id":"6172173706"},"geometry":{"type":"Point","coordinates":[116.4124409,39.797982]}},{"type":"Feature","properties":{"id":"china-osm-rail-station-8073260825","name":"旧宫","station_type":"railway_station","source_region":"beijing","source_osm_id":"8073260825"},"geometry":{"type":"Point","coordinates":[116.4547308,39.8056107]}},{"type":"Feature","properties":{"id":"china-osm-rail-station-5444690814","name":"小红门","station_type":"railway_station","source_region":"beijing","source_osm_id":"5444690814"},"geometry":{"type":"Point","coordinates":[116.4532399,39.8267264]}},{"type":"Feature","properties":{"id":"china-osm-rail-station-7278207455","name":"肖村","station_type":"railway_station","source_region":"beijing","source_osm_id":"7278207455"},"geometry":{"type":"Point","coordinates":[116.4427211,39.8328015]}},{"type":"Feature","properties":{"id":"china-osm-rail-station-5441491000","name":"宋家庄","station_type":"railway_station","source_region":"beijing","source_osm_id":"5441491000"},"geometry":{"type":"Point","coordinates":[116.4219287,39.8443821]}},{"type":"Feature","properties":{"id":"china-osm-rail-station-5448554757","name":"成寿寺","station_type":"railway_station","source_region":"beijing","source_osm_id":"5448554757"},"geometry":{"type":"Point","coordinates":[116.4418815,39.8445478]}},{"type":"Feature","properties":{"id":"china-osm-rail-station-8455171488","name":"安定","station_type":"railway_station","source_region":"beijing","source_osm_id":"8455171488"},"geometry":{"type":"Point","coordinates":[116.4816523,39.617375]}},{"type":"Feature","properties":{"id":"china-osm-rail-station-5430391237","name":"同济南路","station_type":"railway_station","source_region":"beijing","source_osm_id":"5430391237"},"geometry":{"type":"Point","coordinates":[116.533948,39.7718151]}},{"type":"Feature","properties":{"id":"china-osm-rail-station-8073260828","name":"荣昌东街","station_type":"railway_station","source_region":"beijing","source_osm_id":"8073260828"},"geometry":{"type":"Point","coordinates":[116.515857,39.7816956]}},{"type":"Feature","properties":{"id":"china-osm-rail-station-5444695596","name":"经海路","station_type":"railway_station","source_region":"beijing","source_osm_id":"5444695596"},"geometry":{"type":"Point","coordinates":[116.5564358,39.7825504]}},{"type":"Feature","properties":{"id":"china-osm-rail-station-8073260827","name":"荣京东街","station_type":"railway_station","source_region":"beijing","source_osm_id":"8073260827"},"geometry":{"type":"Point","coordinates":[116.507463,39.7920207]}},{"type":"Feature","properties":{"id":"china-osm-rail-station-8073260826","name":"亦庄桥","station_type":"railway_station","source_region":"beijing","source_osm_id":"8073260826"},"geometry":{"type":"Point","coordinates":[116.4742673,39.801744]}},{"type":"Feature","properties":{"id":"china-osm-rail-station-5444694219","name":"万源街","station_type":"railway_station","source_region":"beijing","source_osm_id":"5444694219"},"geometry":{"type":"Point","coordinates":[116.4995335,39.8017615]}},{"type":"Feature","properties":{"id":"china-osm-rail-station-5444691512","name":"亦庄文化园","station_type":"railway_station","source_region":"beijing","source_osm_id":"5444691512"},"geometry":{"type":"Point","coordinates":[116.4846211,39.8056285]}},{"type":"Feature","properties":{"id":"china-osm-rail-station-9380291880","name":"北神树","station_type":"railway_station","source_region":"beijing","source_osm_id":"9380291880"},"geometry":{"type":"Point","coordinates":[116.547173,39.8175347]}},{"type":"Feature","properties":{"id":"china-osm-rail-station-9265808487","name":"小红门","station_type":"railway_station","source_region":"beijing","source_osm_id":"9265808487"},"geometry":{"type":"Point","coordinates":[116.46608,39.8312154]}},{"type":"Feature","properties":{"id":"china-osm-rail-station-9274358866","name":"永乐","station_type":"railway_station","source_region":"beijing","source_osm_id":"9274358866"},"geometry":{"type":"Point","coordinates":[116.7884874,39.6528815]}},{"type":"Feature","properties":{"id":"china-osm-rail-station-9380291881","name":"嘉会湖","station_type":"railway_station","source_region":"beijing","source_osm_id":"9380291881"},"geometry":{"type":"Point","coordinates":[116.6052556,39.7918725]}},{"type":"Feature","properties":{"id":"china-osm-rail-station-1094071212","name":"次渠南","station_type":"railway_station","source_region":"beijing","source_osm_id":"1094071212"},"geometry":{"type":"Point","coordinates":[116.5753324,39.7937219]}},{"type":"Feature","properties":{"id":"china-osm-rail-station-9385028990","name":"次渠","station_type":"railway_station","source_region":"beijing","source_osm_id":"9385028990"},"geometry":{"type":"Point","coordinates":[116.5859058,39.8025261]}},{"type":"Feature","properties":{"id":"china-osm-rail-station-8073260830","name":"次渠","station_type":"railway_station","source_region":"beijing","source_osm_id":"8073260830"},"geometry":{"type":"Point","coordinates":[116.5856212,39.8025523]}},{"type":"Feature","properties":{"id":"china-osm-rail-station-9385028991","name":"次渠北","station_type":"railway_station","source_region":"beijing","source_osm_id":"9385028991"},"geometry":{"type":"Point","coordinates":[116.5706243,39.8085973]}},{"type":"Feature","properties":{"id":"china-osm-rail-station-8073260829","name":"亦庄火车站","station_type":"railway_station","source_region":"beijing","source_osm_id":"8073260829"},"geometry":{"type":"Point","coordinates":[116.5960819,39.8115669]}},{"type":"Feature","properties":{"id":"china-osm-rail-station-9274358867","name":"亦庄","station_type":"railway_station","source_region":"beijing","source_osm_id":"9274358867"},"geometry":{"type":"Point","coordinates":[116.5962891,39.8117636]}},{"type":"Feature","properties":{"id":"china-osm-rail-station-6930098800","name":"环球度假区","station_type":"railway_station","source_region":"beijing","source_osm_id":"6930098800"},"geometry":{"type":"Point","coordinates":[116.673529,39.8481659]}},{"type":"Feature","properties":{"id":"china-osm-rail-station-6930098785","name":"花庄","station_type":"railway_station","source_region":"beijing","source_osm_id":"6930098785"},"geometry":{"type":"Point","coordinates":[116.6890142,39.8553801]}},{"type":"Feature","properties":{"id":"china-osm-rail-station-9380291879","name":"十八里店","station_type":"railway_station","source_region":"beijing","source_osm_id":"9380291879"},"geometry":{"type":"Point","coordinates":[116.4898314,39.8430584]}},{"type":"Feature","properties":{"id":"china-osm-rail-station-6930098566","name":"黄厂","station_type":"railway_station","source_region":"beijing","source_osm_id":"6930098566"},"geometry":{"type":"Point","coordinates":[116.5475285,39.8479616]}},{"type":"Feature","properties":{"id":"china-osm-rail-station-3369459843","name":"焦化厂","station_type":"railway_station","source_region":"beijing","source_osm_id":"3369459843"},"geometry":{"type":"Point","coordinates":[116.531614,39.8542896]}},{"type":"Feature","properties":{"id":"china-osm-rail-station-9384986215","name":"周家庄","station_type":"railway_station","source_region":"beijing","source_osm_id":"9384986215"},"geometry":{"type":"Point","coordinates":[116.4706068,39.855252]}},{"type":"Feature","properties":{"id":"china-osm-rail-station-6930098568","name":"郎辛庄","station_type":"railway_station","source_region":"beijing","source_osm_id":"6930098568"},"geometry":{"type":"Point","coordinates":[116.5641046,39.8555351]}},{"type":"Feature","properties":{"id":"china-osm-rail-station-3369459834","name":"双合","station_type":"railway_station","source_region":"beijing","source_osm_id":"3369459834"},"geometry":{"type":"Point","coordinates":[116.5223453,39.8581385]}},{"type":"Feature","properties":{"id":"china-osm-rail-station-3369459835","name":"垡头","station_type":"railway_station","source_region":"beijing","source_osm_id":"3369459835"},"geometry":{"type":"Point","coordinates":[116.5057156,39.859574]}},{"type":"Feature","properties":{"id":"china-osm-rail-station-3369459841","name":"欢乐谷景区","station_type":"railway_station","source_region":"beijing","source_osm_id":"3369459841"},"geometry":{"type":"Point","coordinates":[116.4930838,39.8656674]}},{"type":"Feature","properties":{"id":"china-osm-rail-station-3369459832","name":"南楼梓庄","station_type":"railway_station","source_region":"beijing","source_osm_id":"3369459832"},"geometry":{"type":"Point","coordinates":[116.4954124,39.8733935]}},{"type":"Feature","properties":{"id":"china-osm-rail-station-3369001433","name":"北工大西门","station_type":"railway_station","source_region":"beijing","source_osm_id":"3369001433"},"geometry":{"type":"Point","coordinates":[116.4713573,39.8736424]}},{"type":"Feature","properties":{"id":"china-osm-rail-station-5372350033","name":"分钟寺","station_type":"railway_station","source_region":"beijing","source_osm_id":"5372350033"},"geometry":{"type":"Point","coordinates":[116.447588,39.8506149]}},{"type":"Feature","properties":{"id":"china-osm-rail-station-5441507804","name":"刘家窑","station_type":"railway_station","source_region":"beijing","source_osm_id":"5441507804"},"geometry":{"type":"Point","coordinates":[116.4156074,39.8560744]}},{"type":"Feature","properties":{"id":"china-osm-rail-station-9147328748","name":"十里河","station_type":"railway_station","source_region":"beijing","source_osm_id":"9147328748"},"geometry":{"type":"Point","coordinates":[116.4544834,39.8635284]}},{"type":"Feature","properties":{"id":"china-osm-rail-station-3367857705","name":"蒲黄榆","station_type":"railway_station","source_region":"beijing","source_osm_id":"3367857705"},"geometry":{"type":"Point","coordinates":[116.4154612,39.8643287]}},{"type":"Feature","properties":{"id":"china-osm-rail-station-3367977138","name":"方庄","station_type":"railway_station","source_region":"beijing","source_osm_id":"3367977138"},"geometry":{"type":"Point","coordinates":[116.4339348,39.8646354]}},{"type":"Feature","properties":{"id":"china-osm-rail-station-3367977137","name":"十里河","station_type":"railway_station","source_region":"beijing","source_osm_id":"3367977137"},"geometry":{"type":"Point","coordinates":[116.4525595,39.8647129]}},{"type":"Feature","properties":{"id":"china-osm-rail-station-13417518491","name":"潘家园西","station_type":"railway_station","source_region":"beijing","source_osm_id":"13417518491"},"geometry":{"type":"Point","coordinates":[116.4446966,39.873824]}},{"type":"Feature","properties":{"id":"china-osm-rail-station-5372350032","name":"潘家园","station_type":"railway_station","source_region":"beijing","source_osm_id":"5372350032"},"geometry":{"type":"Point","coordinates":[116.4549705,39.8748619]}},{"type":"Feature","properties":{"id":"china-osm-rail-station-7896842490","name":"天坛东门","station_type":"railway_station","source_region":"beijing","source_osm_id":"7896842490"},"geometry":{"type":"Point","coordinates":[116.4145694,39.8822567]}},{"type":"Feature","properties":{"id":"china-osm-rail-station-5430390389","name":"劲松","station_type":"railway_station","source_region":"beijing","source_osm_id":"5430390389"},"geometry":{"type":"Point","coordinates":[116.4551162,39.8830661]}},{"type":"Feature","properties":{"id":"china-osm-rail-station-6930098569","name":"黑庄户","station_type":"railway_station","source_region":"beijing","source_osm_id":"6930098569"},"geometry":{"type":"Point","coordinates":[116.5927827,39.8577135]}},{"type":"Feature","properties":{"id":"china-osm-rail-station-7117305974","name":"高楼金","station_type":"railway_station","source_region":"beijing","source_osm_id":"7117305974"},"geometry":{"type":"Point","coordinates":[116.6795103,39.8618619]}},{"type":"Feature","properties":{"id":"china-osm-rail-station-6930098570","name":"万盛西","station_type":"railway_station","source_region":"beijing","source_osm_id":"6930098570"},"geometry":{"type":"Point","coordinates":[116.6267073,39.8624408]}},{"type":"Feature","properties":{"id":"china-osm-rail-station-6716238810","name":"土桥","station_type":"railway_station","source_region":"beijing","source_osm_id":"6716238810"},"geometry":{"type":"Point","coordinates":[116.6802742,39.8707455]}},{"type":"Feature","properties":{"id":"china-osm-rail-station-8073325260","name":"临河里","station_type":"railway_station","source_region":"beijing","source_osm_id":"8073325260"},"geometry":{"type":"Point","coordinates":[116.6728594,39.8742944]}},{"type":"Feature","properties":{"id":"china-osm-rail-station-13367702388","name":"潞阳","station_type":"railway_station","source_region":"beijing","source_osm_id":"13367702388"},"geometry":{"type":"Point","coordinates":[116.7510869,39.8888289]}},{"type":"Feature","properties":{"id":"china-osm-rail-station-8073325261","name":"九棵树","station_type":"railway_station","source_region":"beijing","source_osm_id":"8073325261"},"geometry":{"type":"Point","coordinates":[116.651623,39.889165]}},{"type":"Feature","properties":{"id":"china-osm-rail-station-8073325262","name":"果园","station_type":"railway_station","source_region":"beijing","source_osm_id":"8073325262"},"geometry":{"type":"Point","coordinates":[116.6407547,39.8922857]}},{"type":"Feature","properties":{"id":"china-osm-rail-station-9875307791","name":"乔庄东","station_type":"railway_station","source_region":"beijing","source_osm_id":"9875307791"},"geometry":{"type":"Point","coordinates":[116.6900837,39.8941094]}},{"type":"Feature","properties":{"id":"china-osm-rail-station-4883415766","name":"中仓","station_type":"railway_station","source_region":"beijing","source_osm_id":"4883415766"},"geometry":{"type":"Point","coordinates":[116.657085,39.8960646]}}]}