{"type":"FeatureCollection","features":[{"type":"Feature","properties":{"id":"in-airport-agatti","name":"Agatti","iata":"AGX","icao":"VOAT","traffic_report_rank":9999,"importance_rank":1,"importance":"local_connector","airport_type":"local","status_category":"active"},"geometry":{"type":"Point","coordinates":[72.1754801,10.8232714]}},{"type":"Feature","properties":{"id":"in-airport-agra","name":"Agra","iata":"AGR","icao":"VIAG","traffic_report_rank":9999,"importance_rank":1,"importance":"local_connector","airport_type":"local","status_category":"active"},"geometry":{"type":"Point","coordinates":[77.950862,27.1567012]}},{"type":"Feature","properties":{"id":"in-airport-akola","name":"Akola","iata":"AKD","icao":"VAAK","traffic_report_rank":9999,"importance_rank":1,"importance":"local_connector","airport_type":"local","status_category":"active"},"geometry":{"type":"Point","coordinates":[77.056504,20.697578]}},{"type":"Feature","properties":{"id":"in-airport-along","name":"Along","iata":"IXV","icao":"VEAN","traffic_report_rank":9999,"importance_rank":1,"importance":"local_connector","airport_type":"local","status_category":"active"},"geometry":{"type":"Point","coordinates":[94.8046423,28.1761541]}},{"type":"Feature","properties":{"id":"in-airport-bagdogra","name":"Bagdogra","iata":"IXB","icao":"VEBD","traffic_report_rank":27,"importance_rank":2,"importance":"regional_core","airport_type":"specific_local","status_category":"active"},"geometry":{"type":"Point","coordinates":[88.3318927,26.6818125]}},{"type":"Feature","properties":{"id":"in-airport-balurghat","name":"Balurghat","iata":"RGH","icao":"VEBG","traffic_report_rank":9999,"importance_rank":1,"importance":"local_connector","airport_type":"local","status_category":"active"},"geometry":{"type":"Point","coordinates":[88.7961942,25.2624303]}},{"type":"Feature","properties":{"id":"in-airport-behala","name":"Behala","iata":"","icao":"VEBA","traffic_report_rank":9999,"importance_rank":1,"importance":"local_connector","airport_type":"local","status_category":"active"},"geometry":{"type":"Point","coordinates":[88.2934109,22.5058429]}},{"type":"Feature","properties":{"id":"in-airport-belgaum","name":"Belgaum","iata":"IXG","icao":"VOBM","traffic_report_rank":9999,"importance_rank":1,"importance":"local_connector","airport_type":"local","status_category":"active"},"geometry":{"type":"Point","coordinates":[74.6154967,15.8597065]}},{"type":"Feature","properties":{"id":"in-airport-bellary","name":"Bellary","iata":"BEP","icao":"VOBI","traffic_report_rank":9999,"importance_rank":1,"importance":"local_connector","airport_type":"local","status_category":"active"},"geometry":{"type":"Point","coordinates":[76.8819855,15.1622001]}},{"type":"Feature","properties":{"id":"in-airport-bhavnagar","name":"Bhavnagar","iata":"BHU","icao":"VABV","traffic_report_rank":9999,"importance_rank":1,"importance":"local_connector","airport_type":"local","status_category":"active"},"geometry":{"type":"Point","coordinates":[72.1859168,21.7532206]}},{"type":"Feature","properties":{"id":"in-airport-calicut","name":"Calicut","iata":"CCJ","icao":"VOCL","traffic_report_rank":17,"importance_rank":3,"importance":"national_core","airport_type":"national","status_category":"active"},"geometry":{"type":"Point","coordinates":[75.9553327,11.1363712]}},{"type":"Feature","properties":{"id":"in-airport-chandigarh","name":"Chandigarh","iata":"IXC","icao":"VICG","traffic_report_rank":30,"importance_rank":2,"importance":"regional_core","airport_type":"specific_local","status_category":"active"},"geometry":{"type":"Point","coordinates":[76.7895017,30.6742097]}},{"type":"Feature","properties":{"id":"in-airport-chennai","name":"Chennai","iata":"MAA","icao":"VOMM","traffic_report_rank":5,"importance_rank":3,"importance":"national_core","airport_type":"national","status_category":"active"},"geometry":{"type":"Point","coordinates":[80.1672985,12.9933657]}},{"type":"Feature","properties":{"id":"in-airport-cochin","name":"Cochin","iata":"COK","icao":"VOCI","traffic_report_rank":8,"importance_rank":3,"importance":"national_core","airport_type":"national","status_category":"active"},"geometry":{"type":"Point","coordinates":[76.4026587,10.1544602]}},{"type":"Feature","properties":{"id":"in-airport-coimbatore","name":"Coimbatore","iata":"CJB","icao":"VOCB","traffic_report_rank":23,"importance_rank":2,"importance":"regional_core","airport_type":"specific_local","status_category":"active"},"geometry":{"type":"Point","coordinates":[77.0458672,11.0328859]}},{"type":"Feature","properties":{"id":"in-airport-coochbehar","name":"CoochBehar","iata":"COH","icao":"VECO","traffic_report_rank":9999,"importance_rank":1,"importance":"local_connector","airport_type":"local","status_category":"active"},"geometry":{"type":"Point","coordinates":[89.4692845,26.3325209]}},{"type":"Feature","properties":{"id":"in-airport-daman","name":"Daman","iata":"NMB","icao":"VADN","traffic_report_rank":9999,"importance_rank":1,"importance":"local_connector","airport_type":"local","status_category":"active"},"geometry":{"type":"Point","coordinates":[72.8410071,20.4311283]}},{"type":"Feature","properties":{"id":"in-airport-dehradun","name":"Dehradun","iata":"DED","icao":"VIDN","traffic_report_rank":32,"importance_rank":2,"importance":"regional_core","airport_type":"specific_local","status_category":"active"},"geometry":{"type":"Point","coordinates":[78.1815117,30.1921426]}},{"type":"Feature","properties":{"id":"in-airport-deoghar","name":"Deoghar","iata":"DGH","icao":"VEDO","traffic_report_rank":9999,"importance_rank":1,"importance":"local_connector","airport_type":"local","status_category":"active"},"geometry":{"type":"Point","coordinates":[86.7010327,24.4462278]}},{"type":"Feature","properties":{"id":"in-airport-dimapur","name":"Dimapur","iata":"DMU","icao":"VEMR","traffic_report_rank":47,"importance_rank":2,"importance":"regional_core","airport_type":"specific_local","status_category":"active"},"geometry":{"type":"Point","coordinates":[93.77126,25.8841406]}},{"type":"Feature","properties":{"id":"in-airport-diu","name":"Diu","iata":"DIU","icao":"VADU","traffic_report_rank":9999,"importance_rank":1,"importance":"local_connector","airport_type":"local","status_category":"active"},"geometry":{"type":"Point","coordinates":[70.9220415,20.7145672]}},{"type":"Feature","properties":{"id":"in-airport-gaya","name":"Gaya","iata":"GAY","icao":"VEGY","traffic_report_rank":43,"importance_rank":2,"importance":"regional_core","airport_type":"specific_local","status_category":"active"},"geometry":{"type":"Point","coordinates":[84.9497184,24.7433215]}},{"type":"Feature","properties":{"id":"in-airport-goa","name":"Goa","iata":"GOI","icao":"VOGO","traffic_report_rank":9,"importance_rank":3,"importance":"national_core","airport_type":"national","status_category":"active"},"geometry":{"type":"Point","coordinates":[73.8326572,15.3805865]}},{"type":"Feature","properties":{"id":"in-airport-gondia","name":"Gondia","iata":"","icao":"VAGD","traffic_report_rank":9999,"importance_rank":1,"importance":"local_connector","airport_type":"local","status_category":"active"},"geometry":{"type":"Point","coordinates":[80.2910329,21.5282633]}},{"type":"Feature","properties":{"id":"in-airport-gorakhpur","name":"Gorakhpur","iata":"GOP","icao":"VEGK","traffic_report_rank":9999,"importance_rank":1,"importance":"local_connector","airport_type":"local","status_category":"active"},"geometry":{"type":"Point","coordinates":[83.4530305,26.7337947]}},{"type":"Feature","properties":{"id":"in-airport-gwalior","name":"Gwalior","iata":"GWL","icao":"VIGR","traffic_report_rank":9999,"importance_rank":1,"importance":"local_connector","airport_type":"local","status_category":"active"},"geometry":{"type":"Point","coordinates":[78.2272478,26.2979165]}},{"type":"Feature","properties":{"id":"in-airport-hindon","name":"Hindon","iata":"HDO","icao":"VIDX","traffic_report_rank":9999,"importance_rank":1,"importance":"local_connector","airport_type":"local","status_category":"active"},"geometry":{"type":"Point","coordinates":[77.3616691,28.704336]}},{"type":"Feature","properties":{"id":"in-airport-jabalpur","name":"Jabalpur","iata":"JLR","icao":"VAJB","traffic_report_rank":9999,"importance_rank":1,"importance":"local_connector","airport_type":"local","status_category":"active"},"geometry":{"type":"Point","coordinates":[80.0567746,23.1803807]}},{"type":"Feature","properties":{"id":"in-airport-jaipur","name":"Jaipur","iata":"JAI","icao":"VIJP","traffic_report_rank":13,"importance_rank":3,"importance":"national_core","airport_type":"national","status_category":"active"},"geometry":{"type":"Point","coordinates":[75.819108,26.8280936]}},{"type":"Feature","properties":{"id":"in-airport-jaisalmer","name":"Jaisalmer","iata":"JSA","icao":"VIJR","traffic_report_rank":9999,"importance_rank":1,"importance":"local_connector","airport_type":"local","status_category":"active"},"geometry":{"type":"Point","coordinates":[70.8565022,26.870303]}},{"type":"Feature","properties":{"id":"in-airport-jalgaon","name":"Jalgaon","iata":"JLG","icao":"VAJL","traffic_report_rank":9999,"importance_rank":1,"importance":"local_connector","airport_type":"local","status_category":"active"},"geometry":{"type":"Point","coordinates":[75.6276291,20.9634839]}},{"type":"Feature","properties":{"id":"in-airport-jammu","name":"Jammu","iata":"IXJ","icao":"VIJU","traffic_report_rank":33,"importance_rank":2,"importance":"regional_core","airport_type":"specific_local","status_category":"active"},"geometry":{"type":"Point","coordinates":[74.8391423,32.6886321]}},{"type":"Feature","properties":{"id":"in-airport-jamnagar","name":"Jamnagar","iata":"JGA","icao":"VAJM","traffic_report_rank":9999,"importance_rank":1,"importance":"local_connector","airport_type":"local","status_category":"active"},"geometry":{"type":"Point","coordinates":[70.0081474,22.4665132]}},{"type":"Feature","properties":{"id":"in-airport-juhu","name":"Juhu","iata":"","icao":"VAJJ","traffic_report_rank":9999,"importance_rank":1,"importance":"local_connector","airport_type":"local","status_category":"active"},"geometry":{"type":"Point","coordinates":[72.8331322,19.0978086]}},{"type":"Feature","properties":{"id":"in-airport-kalaburagi","name":"Kalaburagi","iata":"GBI","icao":"VOGB","traffic_report_rank":9999,"importance_rank":1,"importance":"local_connector","airport_type":"local","status_category":"active"},"geometry":{"type":"Point","coordinates":[76.9649383,17.3064647]}},{"type":"Feature","properties":{"id":"in-airport-kandla","name":"Kandla","iata":"IXY","icao":"VAKE","traffic_report_rank":9999,"importance_rank":1,"importance":"local_connector","airport_type":"local","status_category":"active"},"geometry":{"type":"Point","coordinates":[70.1007273,23.1125777]}},{"type":"Feature","properties":{"id":"in-airport-kangragaggal","name":"Kangra-Gaggal","iata":"DHM","icao":"VIGG","traffic_report_rank":9999,"importance_rank":1,"importance":"local_connector","airport_type":"local","status_category":"active"},"geometry":{"type":"Point","coordinates":[76.2631458,32.1646062]}},{"type":"Feature","properties":{"id":"in-airport-kanpur","name":"Kanpur-Civil","iata":"KNU","icao":"VEKA","traffic_report_rank":9999,"importance_rank":1,"importance":"local_connector","airport_type":"local","status_category":"active"},"geometry":{"type":"Point","coordinates":[80.3636087,26.4405978]}},{"type":"Feature","properties":{"id":"in-airport-keshod","name":"Keshod","iata":"IXK","icao":"VAKS","traffic_report_rank":9999,"importance_rank":1,"importance":"local_connector","airport_type":"local","status_category":"active"},"geometry":{"type":"Point","coordinates":[70.2691786,21.3140039]}},{"type":"Feature","properties":{"id":"in-airport-khajuraho","name":"Khajuraho","iata":"HJR","icao":"VEKO","traffic_report_rank":9999,"importance_rank":1,"importance":"local_connector","airport_type":"local","status_category":"active"},"geometry":{"type":"Point","coordinates":[79.9141931,24.813005]}},{"type":"Feature","properties":{"id":"in-airport-kishangarh","name":"Kishangarh","iata":"KQH","icao":"VIKG","traffic_report_rank":9999,"importance_rank":1,"importance":"local_connector","airport_type":"local","status_category":"active"},"geometry":{"type":"Point","coordinates":[74.8082298,26.5870592]}},{"type":"Feature","properties":{"id":"in-airport-kolhapur","name":"Kolhapur","iata":"KLH","icao":"VAKP","traffic_report_rank":9999,"importance_rank":1,"importance":"local_connector","airport_type":"local","status_category":"active"},"geometry":{"type":"Point","coordinates":[74.291473,16.6657259]}},{"type":"Feature","properties":{"id":"in-airport-kota","name":"Kota","iata":"KTU","icao":"VIKO","traffic_report_rank":9999,"importance_rank":1,"importance":"local_connector","airport_type":"local","status_category":"active"},"geometry":{"type":"Point","coordinates":[75.8455091,25.1602993]}},{"type":"Feature","properties":{"id":"in-airport-kushinagar","name":"Kushinagar","iata":"KBK","icao":"VEKI","traffic_report_rank":9999,"importance_rank":1,"importance":"local_connector","airport_type":"local","status_category":"active"},"geometry":{"type":"Point","coordinates":[83.8904881,26.7762057]}},{"type":"Feature","properties":{"id":"in-airport-lilabari","name":"Lilabari","iata":"IXI","icao":"VELR","traffic_report_rank":9999,"importance_rank":1,"importance":"local_connector","airport_type":"local","status_category":"active"},"geometry":{"type":"Point","coordinates":[94.0978812,27.2962004]}},{"type":"Feature","properties":{"id":"in-airport-madurai","name":"Madurai","iata":"IXM","icao":"VOMD","traffic_report_rank":31,"importance_rank":2,"importance":"regional_core","airport_type":"specific_local","status_category":"active"},"geometry":{"type":"Point","coordinates":[78.089673,9.836307]}},{"type":"Feature","properties":{"id":"in-airport-malda","name":"Malda","iata":"LDA","icao":"VEMH","traffic_report_rank":9999,"importance_rank":1,"importance":"local_connector","airport_type":"local","status_category":"active"},"geometry":{"type":"Point","coordinates":[88.1266976,25.0103312]}},{"type":"Feature","properties":{"id":"in-airport-mangalore","name":"Mangalore","iata":"IXE","icao":"VOML","traffic_report_rank":24,"importance_rank":2,"importance":"regional_core","airport_type":"specific_local","status_category":"active"},"geometry":{"type":"Point","coordinates":[74.8838396,12.9548535]}},{"type":"Feature","properties":{"id":"in-airport-pakyong","name":"Pakyong","iata":"PYG","icao":"VEPY","traffic_report_rank":9999,"importance_rank":1,"importance":"local_connector","airport_type":"local","status_category":"active"},"geometry":{"type":"Point","coordinates":[88.5884979,27.2327182]}},{"type":"Feature","properties":{"id":"in-airport-pantnagar","name":"Pantnagar","iata":"PGH","icao":"VIPT","traffic_report_rank":9999,"importance_rank":1,"importance":"local_connector","airport_type":"local","status_category":"active"},"geometry":{"type":"Point","coordinates":[79.47193,29.0330328]}},{"type":"Feature","properties":{"id":"in-airport-puducherry","name":"Puducherry","iata":"PNY","icao":"VOPC","traffic_report_rank":9999,"importance_rank":1,"importance":"local_connector","airport_type":"local","status_category":"active"},"geometry":{"type":"Point","coordinates":[79.8121971,11.9687713]}},{"type":"Feature","properties":{"id":"in-airport-pune","name":"Pune","iata":"","icao":"","traffic_report_rank":10,"importance_rank":3,"importance":"national_core","airport_type":"national","status_category":"active"},"geometry":{"type":"Point","coordinates":[73.9196126,18.5848515]}},{"type":"Feature","properties":{"id":"in-airport-purnea","name":"Purnea","iata":"PXN","icao":"VEPU","traffic_report_rank":9999,"importance_rank":1,"importance":"local_connector","airport_type":"local","status_category":"active"},"geometry":{"type":"Point","coordinates":[87.4095497,25.7648197]}},{"type":"Feature","properties":{"id":"in-airport-rajahmundry","name":"Rajahmundry","iata":"RJA","icao":"VORY","traffic_report_rank":9999,"importance_rank":1,"importance":"local_connector","airport_type":"local","status_category":"active"},"geometry":{"type":"Point","coordinates":[81.8110245,17.1051407]}},{"type":"Feature","properties":{"id":"in-airport-rajkot","name":"Rajkot","iata":"RAJ","icao":"VARK","traffic_report_rank":40,"importance_rank":2,"importance":"regional_core","airport_type":"specific_local","status_category":"active"},"geometry":{"type":"Point","coordinates":[70.7795291,22.3092225]}},{"type":"Feature","properties":{"id":"in-airport-ratnagiri","name":"Ratnagiri","iata":"RTC","icao":"VARG","traffic_report_rank":9999,"importance_rank":1,"importance":"local_connector","airport_type":"local","status_category":"active"},"geometry":{"type":"Point","coordinates":[73.3292244,17.013948]}},{"type":"Feature","properties":{"id":"in-airport-raxaul","name":"Raxaul","iata":"","icao":"","traffic_report_rank":9999,"importance_rank":1,"importance":"local_connector","airport_type":"local","status_category":"active"},"geometry":{"type":"Point","coordinates":[84.8205054,26.995566]}},{"type":"Feature","properties":{"id":"in-airport-rupsi","name":"Rupsi","iata":"RUP","icao":"VERU","traffic_report_rank":9999,"importance_rank":1,"importance":"local_connector","airport_type":"local","status_category":"active"},"geometry":{"type":"Point","coordinates":[89.9073351,26.1412834]}},{"type":"Feature","properties":{"id":"in-airport-safdarjung","name":"Safdarjung","iata":"","icao":"VIDD","traffic_report_rank":9999,"importance_rank":1,"importance":"local_connector","airport_type":"local","status_category":"active"},"geometry":{"type":"Point","coordinates":[77.2059075,28.5849859]}},{"type":"Feature","properties":{"id":"in-airport-salem","name":"Salem","iata":"SXV","icao":"VOSM","traffic_report_rank":9999,"importance_rank":1,"importance":"local_connector","airport_type":"local","status_category":"active"},"geometry":{"type":"Point","coordinates":[78.0645289,11.782305]}},{"type":"Feature","properties":{"id":"in-airport-satna","name":"Satna","iata":"TNI","icao":"","traffic_report_rank":9999,"importance_rank":1,"importance":"local_connector","airport_type":"local","status_category":"active"},"geometry":{"type":"Point","coordinates":[80.8529645,24.5625466]}},{"type":"Feature","properties":{"id":"in-airport-shillong","name":"Shillong","iata":"SHL","icao":"VEBI","traffic_report_rank":9999,"importance_rank":1,"importance":"local_connector","airport_type":"local","status_category":"active"},"geometry":{"type":"Point","coordinates":[91.9777512,25.7035863]}},{"type":"Feature","properties":{"id":"in-airport-shimla","name":"Shimla","iata":"SLV","icao":"VISM","traffic_report_rank":9999,"importance_rank":1,"importance":"local_connector","airport_type":"local","status_category":"active"},"geometry":{"type":"Point","coordinates":[77.0672785,31.0831081]}},{"type":"Feature","properties":{"id":"in-airport-silchar","name":"Silchar","iata":"IXS","icao":"VEKU","traffic_report_rank":48,"importance_rank":2,"importance":"regional_core","airport_type":"specific_local","status_category":"active"},"geometry":{"type":"Point","coordinates":[92.9803835,24.9125163]}},{"type":"Feature","properties":{"id":"in-airport-solapur","name":"Solapur","iata":"SSE","icao":"VASL","traffic_report_rank":9999,"importance_rank":1,"importance":"local_connector","airport_type":"local","status_category":"active"},"geometry":{"type":"Point","coordinates":[75.9342384,17.62764]}},{"type":"Feature","properties":{"id":"in-airport-surat","name":"Surat","iata":"STV","icao":"VASU","traffic_report_rank":9999,"importance_rank":1,"importance":"local_connector","airport_type":"local","status_category":"active"},"geometry":{"type":"Point","coordinates":[72.7455266,21.1153956]}},{"type":"Feature","properties":{"id":"in-airport-tezu","name":"Tezu","iata":"TEI","icao":"VETJ","traffic_report_rank":9999,"importance_rank":1,"importance":"local_connector","airport_type":"local","status_category":"active"},"geometry":{"type":"Point","coordinates":[96.1348375,27.9420551]}},{"type":"Feature","properties":{"id":"in-airport-tiruchirapalli","name":"Tiruchirapalli","iata":"TRZ","icao":"VOTR","traffic_report_rank":9999,"importance_rank":1,"importance":"local_connector","airport_type":"local","status_category":"active"},"geometry":{"type":"Point","coordinates":[78.7209095,10.7634454]}},{"type":"Feature","properties":{"id":"in-airport-tirupati","name":"Tirupati","iata":"TIR","icao":"VOTP","traffic_report_rank":9999,"importance_rank":1,"importance":"local_connector","airport_type":"local","status_category":"active"},"geometry":{"type":"Point","coordinates":[79.5415119,13.6326216]}},{"type":"Feature","properties":{"id":"in-airport-tuticorin","name":"Tuticorin","iata":"TCR","icao":"VOTK","traffic_report_rank":9999,"importance_rank":1,"importance":"local_connector","airport_type":"local","status_category":"active"},"geometry":{"type":"Point","coordinates":[78.0276085,8.7264471]}},{"type":"Feature","properties":{"id":"in-airport-vellore","name":"Vellore","iata":"","icao":"VOVR","traffic_report_rank":9999,"importance_rank":1,"importance":"local_connector","airport_type":"local","status_category":"active"},"geometry":{"type":"Point","coordinates":[79.06596,12.9082524]}},{"type":"Feature","properties":{"id":"in-airport-vijayawada","name":"Vijayawada","iata":"VGA","icao":"VOBZ","traffic_report_rank":38,"importance_rank":2,"importance":"regional_core","airport_type":"specific_local","status_category":"active"},"geometry":{"type":"Point","coordinates":[80.8058649,16.5313626]}},{"type":"Feature","properties":{"id":"in-airport-visakhapatnam","name":"Visakhapatnam","iata":"VTZ","icao":"VOVZ","traffic_report_rank":25,"importance_rank":2,"importance":"regional_core","airport_type":"specific_local","status_category":"active"},"geometry":{"type":"Point","coordinates":[83.2353393,17.7216667]}}]}