{"type":"FeatureCollection","features":[{"type":"Feature","properties":{"id":"in-airport-chennai","name":"Chennai","iata":"MAA","icao":"VOMM","traffic_report_rank":5,"importance_rank":3,"importance":"national_core","airport_type":"national","status_category":"active"},"geometry":{"type":"Point","coordinates":[80.1672985,12.9933657]}},{"type":"Feature","properties":{"id":"in-airport-cochin","name":"Cochin","iata":"COK","icao":"VOCI","traffic_report_rank":8,"importance_rank":3,"importance":"national_core","airport_type":"national","status_category":"active"},"geometry":{"type":"Point","coordinates":[76.4026587,10.1544602]}},{"type":"Feature","properties":{"id":"in-airport-goa","name":"Goa","iata":"GOI","icao":"VOGO","traffic_report_rank":9,"importance_rank":3,"importance":"national_core","airport_type":"national","status_category":"active"},"geometry":{"type":"Point","coordinates":[73.8326572,15.3805865]}},{"type":"Feature","properties":{"id":"in-airport-pune","name":"Pune","iata":"","icao":"","traffic_report_rank":10,"importance_rank":3,"importance":"national_core","airport_type":"national","status_category":"active"},"geometry":{"type":"Point","coordinates":[73.9196126,18.5848515]}},{"type":"Feature","properties":{"id":"in-airport-jaipur","name":"Jaipur","iata":"JAI","icao":"VIJP","traffic_report_rank":13,"importance_rank":3,"importance":"national_core","airport_type":"national","status_category":"active"},"geometry":{"type":"Point","coordinates":[75.819108,26.8280936]}},{"type":"Feature","properties":{"id":"in-airport-calicut","name":"Calicut","iata":"CCJ","icao":"VOCL","traffic_report_rank":17,"importance_rank":3,"importance":"national_core","airport_type":"national","status_category":"active"},"geometry":{"type":"Point","coordinates":[75.9553327,11.1363712]}},{"type":"Feature","properties":{"id":"in-airport-coimbatore","name":"Coimbatore","iata":"CJB","icao":"VOCB","traffic_report_rank":23,"importance_rank":2,"importance":"regional_core","airport_type":"specific_local","status_category":"active"},"geometry":{"type":"Point","coordinates":[77.0458672,11.0328859]}},{"type":"Feature","properties":{"id":"in-airport-mangalore","name":"Mangalore","iata":"IXE","icao":"VOML","traffic_report_rank":24,"importance_rank":2,"importance":"regional_core","airport_type":"specific_local","status_category":"active"},"geometry":{"type":"Point","coordinates":[74.8838396,12.9548535]}},{"type":"Feature","properties":{"id":"in-airport-visakhapatnam","name":"Visakhapatnam","iata":"VTZ","icao":"VOVZ","traffic_report_rank":25,"importance_rank":2,"importance":"regional_core","airport_type":"specific_local","status_category":"active"},"geometry":{"type":"Point","coordinates":[83.2353393,17.7216667]}},{"type":"Feature","properties":{"id":"in-airport-bagdogra","name":"Bagdogra","iata":"IXB","icao":"VEBD","traffic_report_rank":27,"importance_rank":2,"importance":"regional_core","airport_type":"specific_local","status_category":"active"},"geometry":{"type":"Point","coordinates":[88.3318927,26.6818125]}},{"type":"Feature","properties":{"id":"in-airport-chandigarh","name":"Chandigarh","iata":"IXC","icao":"VICG","traffic_report_rank":30,"importance_rank":2,"importance":"regional_core","airport_type":"specific_local","status_category":"active"},"geometry":{"type":"Point","coordinates":[76.7895017,30.6742097]}},{"type":"Feature","properties":{"id":"in-airport-madurai","name":"Madurai","iata":"IXM","icao":"VOMD","traffic_report_rank":31,"importance_rank":2,"importance":"regional_core","airport_type":"specific_local","status_category":"active"},"geometry":{"type":"Point","coordinates":[78.089673,9.836307]}},{"type":"Feature","properties":{"id":"in-airport-dehradun","name":"Dehradun","iata":"DED","icao":"VIDN","traffic_report_rank":32,"importance_rank":2,"importance":"regional_core","airport_type":"specific_local","status_category":"active"},"geometry":{"type":"Point","coordinates":[78.1815117,30.1921426]}},{"type":"Feature","properties":{"id":"in-airport-jammu","name":"Jammu","iata":"IXJ","icao":"VIJU","traffic_report_rank":33,"importance_rank":2,"importance":"regional_core","airport_type":"specific_local","status_category":"active"},"geometry":{"type":"Point","coordinates":[74.8391423,32.6886321]}},{"type":"Feature","properties":{"id":"in-airport-vijayawada","name":"Vijayawada","iata":"VGA","icao":"VOBZ","traffic_report_rank":38,"importance_rank":2,"importance":"regional_core","airport_type":"specific_local","status_category":"active"},"geometry":{"type":"Point","coordinates":[80.8058649,16.5313626]}},{"type":"Feature","properties":{"id":"in-airport-rajkot","name":"Rajkot","iata":"RAJ","icao":"VARK","traffic_report_rank":40,"importance_rank":2,"importance":"regional_core","airport_type":"specific_local","status_category":"active"},"geometry":{"type":"Point","coordinates":[70.7795291,22.3092225]}},{"type":"Feature","properties":{"id":"in-airport-gaya","name":"Gaya","iata":"GAY","icao":"VEGY","traffic_report_rank":43,"importance_rank":2,"importance":"regional_core","airport_type":"specific_local","status_category":"active"},"geometry":{"type":"Point","coordinates":[84.9497184,24.7433215]}},{"type":"Feature","properties":{"id":"in-airport-dimapur","name":"Dimapur","iata":"DMU","icao":"VEMR","traffic_report_rank":47,"importance_rank":2,"importance":"regional_core","airport_type":"specific_local","status_category":"active"},"geometry":{"type":"Point","coordinates":[93.77126,25.8841406]}},{"type":"Feature","properties":{"id":"in-airport-silchar","name":"Silchar","iata":"IXS","icao":"VEKU","traffic_report_rank":48,"importance_rank":2,"importance":"regional_core","airport_type":"specific_local","status_category":"active"},"geometry":{"type":"Point","coordinates":[92.9803835,24.9125163]}}]}