{"type":"FeatureCollection","features":[{"type":"Feature","properties":{"id":"india-osm-road-100227043","name":"Vashi Flyover"},"geometry":{"type":"Point","coordinates":[72.99707240000001,19.0687194]}},{"type":"Feature","properties":{"id":"india-osm-road-1003350154","name":"Purvanchal Expressway"},"geometry":{"type":"Point","coordinates":[81.51728779999999,26.575178299999997]}},{"type":"Feature","properties":{"id":"india-osm-road-100774475","name":"Allahabad Bypass Expressway"},"geometry":{"type":"Point","coordinates":[81.53521334999999,25.57994815]}},{"type":"Feature","properties":{"id":"india-osm-road-1009679872","name":"Samruddhi Mahamarg"},"geometry":{"type":"Point","coordinates":[76.56523440000001,20.188404]}},{"type":"Feature","properties":{"id":"india-osm-road-1009720985","name":"motorway"},"geometry":{"type":"Point","coordinates":[74.05884499999999,19.793052850000002]}},{"type":"Feature","properties":{"id":"india-osm-road-1012897483","name":"Gorakhpur Link Expressway"},"geometry":{"type":"Point","coordinates":[83.0718997,26.407466499999998]}},{"type":"Feature","properties":{"id":"india-osm-road-1013473990","name":"AIIMS- Digha elevated road"},"geometry":{"type":"Point","coordinates":[85.08082354999999,25.649697699999997]}},{"type":"Feature","properties":{"id":"india-osm-road-101835456","name":"NICE Expressway"},"geometry":{"type":"Point","coordinates":[77.49437900000001,12.8783744]}},{"type":"Feature","properties":{"id":"india-osm-road-1024060077","name":"Delhi-Meerut Expressway"},"geometry":{"type":"Point","coordinates":[77.44880864999999,28.6347009]}},{"type":"Feature","properties":{"id":"india-osm-road-1027288885","name":"NH19"},"geometry":{"type":"Point","coordinates":[88.3091647,22.6582335]}},{"type":"Feature","properties":{"id":"india-osm-road-1027299164","name":"Belghoria Expressway"},"geometry":{"type":"Point","coordinates":[88.3703284,22.654249]}},{"type":"Feature","properties":{"id":"india-osm-road-1029944967","name":"NH12"},"geometry":{"type":"Point","coordinates":[88.3151757,22.657447599999998]}},{"type":"Feature","properties":{"id":"india-osm-road-1030300709","name":"Maa Flyover"},"geometry":{"type":"Point","coordinates":[88.4005048,22.54834605]}},{"type":"Feature","properties":{"id":"india-osm-road-1032557384","name":"Gachibowl Circle"},"geometry":{"type":"Point","coordinates":[78.36364800000001,17.43854315]}},{"type":"Feature","properties":{"id":"india-osm-road-103269863","name":"Electronic City Flyover"},"geometry":{"type":"Point","coordinates":[77.649115,12.87732635]}},{"type":"Feature","properties":{"id":"india-osm-road-1034368102","name":"Outer Ring Road"},"geometry":{"type":"Point","coordinates":[78.36365455,17.4383507]}},{"type":"Feature","properties":{"id":"india-osm-road-1049221148","name":"Bengaluru-Mysuru Expressway"},"geometry":{"type":"Point","coordinates":[77.0405749,12.587091950000001]}},{"type":"Feature","properties":{"id":"india-osm-road-1057236580","name":"Delhi-Gurugram Expressway"},"geometry":{"type":"Point","coordinates":[77.13401205,28.5669268]}},{"type":"Feature","properties":{"id":"india-osm-road-105870847","name":"Sion-Panvel Highway"},"geometry":{"type":"Point","coordinates":[73.10158595,19.02150725]}},{"type":"Feature","properties":{"id":"india-osm-road-1064506724","name":"Turbhe Railway Flyover"},"geometry":{"type":"Point","coordinates":[73.01871324999999,19.0654836]}},{"type":"Feature","properties":{"id":"india-osm-road-1066299587","name":"Delhi - Vadodara Expressway"},"geometry":{"type":"Point","coordinates":[77.1295923,28.206654]}},{"type":"Feature","properties":{"id":"india-osm-road-1066370183","name":"Delhi Eastern Peripheral Expressway"},"geometry":{"type":"Point","coordinates":[77.46624564999999,28.752985000000002]}},{"type":"Feature","properties":{"id":"india-osm-road-1068465742","name":"Delhi Western Peripheral Expressway"},"geometry":{"type":"Point","coordinates":[76.8926866,28.319625950000002]}},{"type":"Feature","properties":{"id":"india-osm-road-1073019759","name":"DND KMP Expressway"},"geometry":{"type":"Point","coordinates":[77.31094985,28.302047950000002]}},{"type":"Feature","properties":{"id":"india-osm-road-1074530899","name":"Mumbai - Pune Expressway"},"geometry":{"type":"Point","coordinates":[73.4090001,18.76703195]}},{"type":"Feature","properties":{"id":"india-osm-road-1075569410","name":"NICE Road"},"geometry":{"type":"Point","coordinates":[77.472883,12.992106249999999]}},{"type":"Feature","properties":{"id":"india-osm-road-1078682564","name":"Mumbai Coastal Road"},"geometry":{"type":"Point","coordinates":[72.81180646904978,18.954388729191933]}},{"type":"Feature","properties":{"id":"india-osm-road-1080441587","name":"Yamuna Expressway"},"geometry":{"type":"Point","coordinates":[77.99401235,27.3053134]}},{"type":"Feature","properties":{"id":"india-osm-road-1080455019","name":"Agra - Lucknow Expressway"},"geometry":{"type":"Point","coordinates":[78.16319204999999,27.126772]}},{"type":"Feature","properties":{"id":"india-osm-road-1080491542","name":"Nerul Flyover"},"geometry":{"type":"Point","coordinates":[73.0220128,19.050004549999997]}},{"type":"Feature","properties":{"id":"india-osm-road-1083797951","name":"Bundelkhand Expressway बुंदेलखंड एक्सप्रेसवे"},"geometry":{"type":"Point","coordinates":[79.2762954,26.098975799999998]}},{"type":"Feature","properties":{"id":"india-osm-road-1089338037","name":"Delhi - Amritsar - Katra Expressway"},"geometry":{"type":"Point","coordinates":[76.2825914,29.692008]}},{"type":"Feature","properties":{"id":"india-osm-road-1091996600","name":"Delhi-Dehradun Expressway"},"geometry":{"type":"Point","coordinates":[77.9609936,30.238867399999997]}},{"type":"Feature","properties":{"id":"india-osm-road-1095060671","name":"Trans Haryana Expressway"},"geometry":{"type":"Point","coordinates":[76.37670209999999,28.96558555]}},{"type":"Feature","properties":{"id":"india-osm-road-1096746331","name":"Grand Trunk Road"},"geometry":{"type":"Point","coordinates":[76.96980485,29.42932655]}},{"type":"Feature","properties":{"id":"india-osm-road-1097006099","name":"EC7 Bilaspur Ranchi"},"geometry":{"type":"Point","coordinates":[82.45031465,22.131546049999997]}},{"type":"Feature","properties":{"id":"india-osm-road-1108986783","name":"Bangalore - Nelamangala Expressway"},"geometry":{"type":"Point","coordinates":[77.47145805,13.05747715]}},{"type":"Feature","properties":{"id":"india-osm-road-1115640745","name":"Bengaluru - Chennai Expressway"},"geometry":{"type":"Point","coordinates":[78.1061736,13.0367321]}},{"type":"Feature","properties":{"id":"india-osm-road-1118815198","name":"Mumbai Agra Highway Elevated Corridor"},"geometry":{"type":"Point","coordinates":[73.82035295,20.0147332]}},{"type":"Feature","properties":{"id":"india-osm-road-1121507643","name":"Mumbai - Nagpur Expressway"},"geometry":{"type":"Point","coordinates":[78.94330305,20.9782653]}},{"type":"Feature","properties":{"id":"india-osm-road-1122603569","name":"Sahar Elevated Road"},"geometry":{"type":"Point","coordinates":[72.8723023,19.103114849999997]}},{"type":"Feature","properties":{"id":"india-osm-road-1147829450","name":"Acharya Jagadish Chandra Bose Road"},"geometry":{"type":"Point","coordinates":[88.3402986,22.54079005]}},{"type":"Feature","properties":{"id":"india-osm-road-1154058078","name":"Mumbai - Vadodara Expressway"},"geometry":{"type":"Point","coordinates":[73.11428305,22.2428641]}},{"type":"Feature","properties":{"id":"india-osm-road-1154266809","name":"NH275;EC34"},"geometry":{"type":"Point","coordinates":[77.373073,12.78601065]}},{"type":"Feature","properties":{"id":"india-osm-road-1161090962","name":"Goraguntepalya Flyover"},"geometry":{"type":"Point","coordinates":[77.53398445,13.0322084]}},{"type":"Feature","properties":{"id":"india-osm-road-1163884663","name":"Kumbalagodu Flyover"},"geometry":{"type":"Point","coordinates":[77.46368495,12.898743249999999]}},{"type":"Feature","properties":{"id":"india-osm-road-1163884667","name":"Bengaluru-Mysuru Flyover"},"geometry":{"type":"Point","coordinates":[77.45201660000001,12.88589005]}},{"type":"Feature","properties":{"id":"india-osm-road-118249579","name":"Belghoria Expressway Underpass"},"geometry":{"type":"Point","coordinates":[88.36691719999999,22.6541287]}},{"type":"Feature","properties":{"id":"india-osm-road-118249587","name":"Belghoria Expressway Flyover"},"geometry":{"type":"Point","coordinates":[88.36267385,22.65289765]}},{"type":"Feature","properties":{"id":"india-osm-road-118249603","name":"NH12;NH19"},"geometry":{"type":"Point","coordinates":[88.30925690000001,22.6580725]}},{"type":"Feature","properties":{"id":"india-osm-road-1183845907","name":"DND Flyway"},"geometry":{"type":"Point","coordinates":[77.30348190000001,28.5765773]}},{"type":"Feature","properties":{"id":"india-osm-road-1187534974","name":"Lucknow Outer Ring Road"},"geometry":{"type":"Point","coordinates":[80.9493185,26.725373400000002]}},{"type":"Feature","properties":{"id":"india-osm-road-1200159470","name":"Bangalore-Mysore Road"},"geometry":{"type":"Point","coordinates":[76.66109385,12.350643300000002]}},{"type":"Feature","properties":{"id":"india-osm-road-1201412916","name":"Mahipalpur Flyover"},"geometry":{"type":"Point","coordinates":[77.11722315,28.540772750000002]}},{"type":"Feature","properties":{"id":"india-osm-road-1201625672","name":"Kalina-Vakola Flyover"},"geometry":{"type":"Point","coordinates":[72.8465214,19.08200085]}},{"type":"Feature","properties":{"id":"india-osm-road-1203837181","name":"P.V. Narasimha Rao Flyover"},"geometry":{"type":"Point","coordinates":[78.41674599999999,17.34883875]}},{"type":"Feature","properties":{"id":"india-osm-road-1206596732","name":"JP Ganga Path"},"geometry":{"type":"Point","coordinates":[85.1407856,25.62379755]}},{"type":"Feature","properties":{"id":"india-osm-road-1206596795","name":"Marine Drive"},"geometry":{"type":"Point","coordinates":[85.10257605000001,25.6469652]}},{"type":"Feature","properties":{"id":"india-osm-road-1213171339","name":"PJR Flyover"},"geometry":{"type":"Point","coordinates":[78.3618806,17.435835750000003]}},{"type":"Feature","properties":{"id":"india-osm-road-1217778761","name":"Satellite Town Ring Road"},"geometry":{"type":"Point","coordinates":[77.8221428,13.0885618]}},{"type":"Feature","properties":{"id":"india-osm-road-1222455845","name":"Western Express Highway"},"geometry":{"type":"Point","coordinates":[72.85401105,19.1048574]}},{"type":"Feature","properties":{"id":"india-osm-road-122277837","name":"Eastern Freeway"},"geometry":{"type":"Point","coordinates":[72.91264995,19.0576122]}},{"type":"Feature","properties":{"id":"india-osm-road-122277858","name":"Mankhurd Flyover"},"geometry":{"type":"Point","coordinates":[72.9370534,19.05122935]}},{"type":"Feature","properties":{"id":"india-osm-road-1229609256","name":"Kalyani Expressway"},"geometry":{"type":"Point","coordinates":[88.39041055,22.753935900000002]}},{"type":"Feature","properties":{"id":"india-osm-road-1231873989","name":"Bengaluru - Chennai Expressway NE 7"},"geometry":{"type":"Point","coordinates":[79.16205547768679,13.093416229098361]}},{"type":"Feature","properties":{"id":"india-osm-road-1235442603","name":"Bandra Worli Sea Link Flyover"},"geometry":{"type":"Point","coordinates":[72.8403675,19.0506231]}},{"type":"Feature","properties":{"id":"india-osm-road-1235442605","name":"Kalanagar Flyover"},"geometry":{"type":"Point","coordinates":[72.8466645,19.0634409]}},{"type":"Feature","properties":{"id":"india-osm-road-1235442608","name":"Airport Flyover"},"geometry":{"type":"Point","coordinates":[72.8540333,19.099118949999998]}},{"type":"Feature","properties":{"id":"india-osm-road-1235442609","name":"Andheri Flyover"},"geometry":{"type":"Point","coordinates":[72.85368410000001,19.106220200000003]}},{"type":"Feature","properties":{"id":"india-osm-road-123613117","name":"Gramdaivat Shree Bapdev Maharaj Flyover Ramp"},"geometry":{"type":"Point","coordinates":[73.72975835,18.66118265]}},{"type":"Feature","properties":{"id":"india-osm-road-1243388118","name":"NH16"},"geometry":{"type":"Point","coordinates":[88.30890339999999,22.6536913]}},{"type":"Feature","properties":{"id":"india-osm-road-1245310795","name":"Amritsar–Jamnagar Expressway"},"geometry":{"type":"Point","coordinates":[71.94698532896207,25.061927515871247]}},{"type":"Feature","properties":{"id":"india-osm-road-1247791286","name":"Jaipur - Bandikui Expressway"},"geometry":{"type":"Point","coordinates":[76.17447354999999,26.965285]}},{"type":"Feature","properties":{"id":"india-osm-road-1252913581","name":"Ashram Flyover"},"geometry":{"type":"Point","coordinates":[77.263465,28.575878250000002]}},{"type":"Feature","properties":{"id":"india-osm-road-1253124561","name":"Delhi-Noida Direct Flyway"},"geometry":{"type":"Point","coordinates":[77.26925285,28.58024605]}},{"type":"Feature","properties":{"id":"india-osm-road-1262140533","name":"Mumbai Coastal Road - Phase I"},"geometry":{"type":"Point","coordinates":[72.8230778,18.94377845]}},{"type":"Feature","properties":{"id":"india-osm-road-1282308420","name":"Ganga Expressway"},"geometry":{"type":"Point","coordinates":[77.77766584429506,28.842833367628465]}},{"type":"Feature","properties":{"id":"india-osm-road-1285932223","name":"Grand Trunk Road Flyover"},"geometry":{"type":"Point","coordinates":[76.9968308,29.671301749999998]}},{"type":"Feature","properties":{"id":"india-osm-road-1286236090","name":"Atal Setu"},"geometry":{"type":"Point","coordinates":[73.02967645,18.938926549999998]}},{"type":"Feature","properties":{"id":"india-osm-road-1287316709","name":"Kalyani-Barrackpur expressway"},"geometry":{"type":"Point","coordinates":[88.42788025,22.963212249999998]}},{"type":"Feature","properties":{"id":"india-osm-road-1287350142","name":"Agra Ring Road"},"geometry":{"type":"Point","coordinates":[78.12178804999999,27.218190200000002]}},{"type":"Feature","properties":{"id":"india-osm-road-1289413391","name":"Ahmadabad Vadodara Expressway"},"geometry":{"type":"Point","coordinates":[72.64526275,22.9786519]}},{"type":"Feature","properties":{"id":"india-osm-road-1290831749","name":"AIIMS - DIGHA Service road"},"geometry":{"type":"Point","coordinates":[85.076888,25.64097605]}},{"type":"Feature","properties":{"id":"india-osm-road-1293005797","name":"148NA"},"geometry":{"type":"Point","coordinates":[77.2130887,28.234243749999997]}}]}