{"type":"FeatureCollection","features":[{"type":"Feature","properties":{"id":"1108296402497","name":"S US Hwy 220"},"geometry":{"type":"Point","coordinates":[-77.11498950000001,41.231494]}},{"type":"Feature","properties":{"id":"1108296488608","name":"S US Hwy 287"},"geometry":{"type":"Point","coordinates":[-101.833731,35.291976500000004]}},{"type":"Feature","properties":{"id":"1106073066667","name":"W I- 20"},"geometry":{"type":"Point","coordinates":[-98.08489970989042,32.62357115685513]}},{"type":"Feature","properties":{"id":"1108296487691","name":"W US Hwy 290"},"geometry":{"type":"Point","coordinates":[-97.816456,30.233687]}},{"type":"Feature","properties":{"id":"11035780246401","name":"I- 840"},"geometry":{"type":"Point","coordinates":[-79.7362685,36.143749]}},{"type":"Feature","properties":{"id":"1108296487542","name":"N US Hwy 287"},"geometry":{"type":"Point","coordinates":[-101.83241799999999,35.3033245]}},{"type":"Feature","properties":{"id":"11033198812948","name":"I- 885"},"geometry":{"type":"Point","coordinates":[-78.86400965768972,35.9600160657232]}},{"type":"Feature","properties":{"id":"110451633229","name":"I- 785"},"geometry":{"type":"Point","coordinates":[-79.69736984633234,36.09887665808565]}},{"type":"Feature","properties":{"id":"11016954954486","name":"US Hwy 217 N"},"geometry":{"type":"Point","coordinates":[-95.5267245,33.802957]}},{"type":"Feature","properties":{"id":"1104472575672","name":"I- 480"},"geometry":{"type":"Point","coordinates":[-95.95328250896,41.25994621760806]}},{"type":"Feature","properties":{"id":"1104977792355","name":"I- 520"},"geometry":{"type":"Point","coordinates":[-81.93004475024674,33.51775807716668]}},{"type":"Feature","properties":{"id":"1104475543655","name":"I- 530"},"geometry":{"type":"Point","coordinates":[-92.2267205,34.516118]}},{"type":"Feature","properties":{"id":"110567830946","name":"I- 675"},"geometry":{"type":"Point","coordinates":[-84.073314448065,39.77224167655309]}},{"type":"Feature","properties":{"id":"11010935928384","name":"US Hwy 1"},"geometry":{"type":"Point","coordinates":[-75.17572991928328,40.01594607943309]}},{"type":"Feature","properties":{"id":"1108296489347","name":"US Hwy 31"},"geometry":{"type":"Point","coordinates":[-86.33878643733308,41.664430408968656]}},{"type":"Feature","properties":{"id":"1105598244443","name":"US Hwy 80"},"geometry":{"type":"Point","coordinates":[-106.05047028442888,31.4625672231545]}},{"type":"Feature","properties":{"id":"1104258276338","name":"US Rte 52"},"geometry":{"type":"Point","coordinates":[-82.532037063098,38.39375047187108]}},{"type":"Feature","properties":{"id":"1106087202124","name":"US Hwy 56"},"geometry":{"type":"Point","coordinates":[-94.77997330886753,38.90458096917423]}},{"type":"Feature","properties":{"id":"11014552901728","name":"US Hwy 63"},"geometry":{"type":"Point","coordinates":[-92.24917245938913,38.85647822475369]}},{"type":"Feature","properties":{"id":"1108296485280","name":"US Hwy 17 Byp"},"geometry":{"type":"Point","coordinates":[-76.30752670980253,36.31419380281295]}},{"type":"Feature","properties":{"id":"110208164257","name":"US Hwy 8"},"geometry":{"type":"Point","coordinates":[-93.09751524459438,45.18535532956876]}},{"type":"Feature","properties":{"id":"1109097023375","name":"I- 26"},"geometry":{"type":"Point","coordinates":[-81.33118975798682,34.18219210616823]}},{"type":"Feature","properties":{"id":"1104258316414","name":"I- 315"},"geometry":{"type":"Point","coordinates":[-111.33856,47.4870815]}},{"type":"Feature","properties":{"id":"1104474077126","name":"I- 41"},"geometry":{"type":"Point","coordinates":[-87.951288,42.582074500000004]}},{"type":"Feature","properties":{"id":"11015496564035","name":"I- 91"},"geometry":{"type":"Point","coordinates":[-72.66517534264067,41.82908454089108]}},{"type":"Feature","properties":{"id":"1105598218003","name":"I- 96"},"geometry":{"type":"Point","coordinates":[-85.06638728097178,42.878350247741885]}},{"type":"Feature","properties":{"id":"110192310230","name":"I- 335"},"geometry":{"type":"Point","coordinates":[-96.09656262368975,38.57419996571964]}},{"type":"Feature","properties":{"id":"1105063298841","name":"I- 385"},"geometry":{"type":"Point","coordinates":[-82.03933248306946,34.578864223203546]}},{"type":"Feature","properties":{"id":"110208165379","name":"I- 694"},"geometry":{"type":"Point","coordinates":[-93.2546655,45.067260000000005]}},{"type":"Feature","properties":{"id":"1101515463875","name":"I- 129"},"geometry":{"type":"Point","coordinates":[-96.37794500000001,42.4465115]}},{"type":"Feature","properties":{"id":"11012815190595","name":"I- 140"},"geometry":{"type":"Point","coordinates":[-77.94086570485838,34.31749989886639]}},{"type":"Feature","properties":{"id":"110739408793","name":"I- 165"},"geometry":{"type":"Point","coordinates":[-88.06970096556395,30.72531036582452]}},{"type":"Feature","properties":{"id":"11020304413","name":"I- 205"},"geometry":{"type":"Point","coordinates":[-121.44387749639749,37.76166591851825]}},{"type":"Feature","properties":{"id":"1109097860641","name":"I- 57"},"geometry":{"type":"Point","coordinates":[-88.58191979314535,39.065897666614966]}},{"type":"Feature","properties":{"id":"11013782356167","name":"US Hwy 287"},"geometry":{"type":"Point","coordinates":[-97.81815040455106,33.51659492681919]}},{"type":"Feature","properties":{"id":"1108296282590","name":"US Hwy 101"},"geometry":{"type":"Point","coordinates":[-124.16778550000001,41.7878685]}},{"type":"Feature","properties":{"id":"11013551283256","name":"US Hwy 218"},"geometry":{"type":"Point","coordinates":[-91.51674425410845,40.97362643173761]}},{"type":"Feature","properties":{"id":"1109097124165","name":"US Hwy 33"},"geometry":{"type":"Point","coordinates":[-83.6726472446641,40.32773316749011]}},{"type":"Feature","properties":{"id":"11013551091388","name":"US Hwy 97"},"geometry":{"type":"Point","coordinates":[-120.43532472381845,46.89180730319557]}},{"type":"Feature","properties":{"id":"11016954975075","name":"US Hwy 271 N"},"geometry":{"type":"Point","coordinates":[-95.5255855,33.8064995]}},{"type":"Feature","properties":{"id":"1108296489220","name":"US Hwy 54"},"geometry":{"type":"Point","coordinates":[-94.702259,37.848442000000006]}},{"type":"Feature","properties":{"id":"1106039038224","name":"US Hwy 85"},"geometry":{"type":"Point","coordinates":[-104.51668673325591,36.61432556730743]}},{"type":"Feature","properties":{"id":"11013782356193","name":"US Hwy 83"},"geometry":{"type":"Point","coordinates":[-99.78679147550613,32.43444710954231]}},{"type":"Feature","properties":{"id":"1104300678687","name":"US Hwy 18"},"geometry":{"type":"Point","coordinates":[-93.35502436696252,43.122243328884515]}},{"type":"Feature","properties":{"id":"1105056901162","name":"I- 70"},"geometry":{"type":"Point","coordinates":[-85.41072584288793,39.853183261447946]}},{"type":"Feature","properties":{"id":"1104257509782","name":"I- 37"},"geometry":{"type":"Point","coordinates":[-97.52436047489066,27.823176467042956]}},{"type":"Feature","properties":{"id":"110511834494","name":"I- 630"},"geometry":{"type":"Point","coordinates":[-92.32877830661408,34.7454251715925]}},{"type":"Feature","properties":{"id":"110686324138","name":"I- 30 W"},"geometry":{"type":"Point","coordinates":[-96.758943,32.7909625]}},{"type":"Feature","properties":{"id":"11062785967","name":"US Hwy 183 Byp"},"geometry":{"type":"Point","coordinates":[-99.336217,38.905525499999996]}},{"type":"Feature","properties":{"id":"1108296489933","name":"US Hwy 421 Byp"},"geometry":{"type":"Point","coordinates":[-79.15895048107336,35.50609827822623]}},{"type":"Feature","properties":{"id":"1108296491976","name":"US Hwy 53 Bus"},"geometry":{"type":"Point","coordinates":[-91.4530165,44.7882975]}},{"type":"Feature","properties":{"id":"1108296492329","name":"US Hwy 64 Alt"},"geometry":{"type":"Point","coordinates":[-77.5414415,35.886281]}},{"type":"Feature","properties":{"id":"1104469899959","name":"I- 279"},"geometry":{"type":"Point","coordinates":[-80.009117,40.443727]}},{"type":"Feature","properties":{"id":"1104485321187","name":"I- 391"},"geometry":{"type":"Point","coordinates":[-72.61021291218329,42.16420256902836]}},{"type":"Feature","properties":{"id":"1108296281730","name":"I- 440"},"geometry":{"type":"Point","coordinates":[-92.18931228963967,34.71658120236653]}},{"type":"Feature","properties":{"id":"1101226568220","name":"I- 464"},"geometry":{"type":"Point","coordinates":[-76.28378990738133,36.789527609626525]}},{"type":"Feature","properties":{"id":"1101476092168","name":"I- 481"},"geometry":{"type":"Point","coordinates":[-76.05118350303178,43.06793403692571]}},{"type":"Feature","properties":{"id":"1104258723071","name":"I- 595"},"geometry":{"type":"Point","coordinates":[-80.24725815646352,26.098330678375298]}},{"type":"Feature","properties":{"id":"11013782356060","name":"I- 79"},"geometry":{"type":"Point","coordinates":[-80.12307045628363,39.85861610631075]}},{"type":"Feature","properties":{"id":"11013782168092","name":"US Hwy 90 Alt"},"geometry":{"type":"Point","coordinates":[-81.63299738133945,30.327162325639698]}},{"type":"Feature","properties":{"id":"1108296485425","name":"I- 40 Bus"},"geometry":{"type":"Point","coordinates":[-80.0258525,36.101223]}},{"type":"Feature","properties":{"id":"11012877652111","name":"US Hwy 74"},"geometry":{"type":"Point","coordinates":[-82.18026450719243,35.260109024806674]}},{"type":"Feature","properties":{"id":"1104259379383","name":"US Hwy 160"},"geometry":{"type":"Point","coordinates":[-104.56936327910864,37.34229695257847]}},{"type":"Feature","properties":{"id":"1108296487656","name":"US Hwy 219"},"geometry":{"type":"Point","coordinates":[-78.76705233873537,42.654446875827084]}},{"type":"Feature","properties":{"id":"110538523952","name":"US Hwy 21"},"geometry":{"type":"Point","coordinates":[-80.88757829928858,35.187094288839596]}},{"type":"Feature","properties":{"id":"11017135611868","name":"I- -285"},"geometry":{"type":"Point","coordinates":[-80.306128,35.787269]}},{"type":"Feature","properties":{"id":"1102600675300","name":"S I- 75"},"geometry":{"type":"Point","coordinates":[-83.94873849999999,43.586212]}},{"type":"Feature","properties":{"id":"11035780422761","name":"I- 587"},"geometry":{"type":"Point","coordinates":[-78.00633300000001,35.722130500000006]}},{"type":"Feature","properties":{"id":"1108296486574","name":"W US Hwy 175"},"geometry":{"type":"Point","coordinates":[-96.390155,32.6097005]}},{"type":"Feature","properties":{"id":"1108296402377","name":"N US Hwy 220"},"geometry":{"type":"Point","coordinates":[-77.115686,41.2312995]}},{"type":"Feature","properties":{"id":"110467146892","name":"E I- 96"},"geometry":{"type":"Point","coordinates":[-84.8370865,42.827005]}},{"type":"Feature","properties":{"id":"1108296486747","name":"US Hwy 64 Byp"},"geometry":{"type":"Point","coordinates":[-79.18426214920696,35.7526899986265]}},{"type":"Feature","properties":{"id":"1104470395680","name":"I- 8"},"geometry":{"type":"Point","coordinates":[-116.1057945,32.666802000000004]}},{"type":"Feature","properties":{"id":"1104691861304","name":"US Hwy 90"},"geometry":{"type":"Point","coordinates":[-88.05791503902864,30.71523530361338]}},{"type":"Feature","properties":{"id":"1109097585702","name":"I- 290"},"geometry":{"type":"Point","coordinates":[-87.92053,41.890899000000005]}},{"type":"Feature","properties":{"id":"11081596544","name":"I- 49"},"geometry":{"type":"Point","coordinates":[-92.04822153737054,30.592127341165778]}},{"type":"Feature","properties":{"id":"11013782227207","name":"US Hwy 84"},"geometry":{"type":"Point","coordinates":[-101.66292499359217,33.43217379210084]}},{"type":"Feature","properties":{"id":"11012877704809","name":"I- 155"},"geometry":{"type":"Point","coordinates":[-89.4853243971326,36.07435977388622]}},{"type":"Feature","properties":{"id":"110516948195","name":"I- 190"},"geometry":{"type":"Point","coordinates":[-71.79231343592973,42.41654671815844]}},{"type":"Feature","properties":{"id":"11013782167815","name":"I- 16"},"geometry":{"type":"Point","coordinates":[-81.23766320117358,32.073594710225]}},{"type":"Feature","properties":{"id":"11012815135442","name":"I- 84"},"geometry":{"type":"Point","coordinates":[-111.87716800000001,41.1376465]}},{"type":"Feature","properties":{"id":"1108296485370","name":"US Rte 35"},"geometry":{"type":"Point","coordinates":[-83.48309625985144,39.54642114807433]}},{"type":"Feature","properties":{"id":"11052042414","name":"US Hwy 69"},"geometry":{"type":"Point","coordinates":[-94.6259405,39.167494]}},{"type":"Feature","properties":{"id":"1104762942800","name":"I- 370"},"geometry":{"type":"Point","coordinates":[-77.18834470293243,39.1219982924643]}},{"type":"Feature","properties":{"id":"1105632819685","name":"I- 39"},"geometry":{"type":"Point","coordinates":[-88.98362583661567,42.67693574718306]}},{"type":"Feature","properties":{"id":"110511834413","name":"I- 430"},"geometry":{"type":"Point","coordinates":[-92.39103995078571,34.752699427801225]}},{"type":"Feature","properties":{"id":"110686169834","name":"I- 5 Scn"},"geometry":{"type":"Point","coordinates":[-122.39504723119111,40.91729774711348]}},{"type":"Feature","properties":{"id":"11010886664511","name":"I- 564"},"geometry":{"type":"Point","coordinates":[-76.285813,36.9286035]}},{"type":"Feature","properties":{"id":"11090813564","name":"I- 565"},"geometry":{"type":"Point","coordinates":[-86.84311843932001,34.641228282402736]}},{"type":"Feature","properties":{"id":"1104701919027","name":"I- 579"},"geometry":{"type":"Point","coordinates":[-79.99213476406466,40.44940217010343]}},{"type":"Feature","properties":{"id":"1105281275674","name":"I- 787"},"geometry":{"type":"Point","coordinates":[-73.77743090549082,42.63395520528566]}},{"type":"Feature","properties":{"id":"1104490152267","name":"I- 794"},"geometry":{"type":"Point","coordinates":[-87.90074363763792,43.032412130987346]}},{"type":"Feature","properties":{"id":"1108296491514","name":"US Hwy 258"},"geometry":{"type":"Point","coordinates":[-77.54244449999999,35.8870425]}},{"type":"Feature","properties":{"id":"1108296492253","name":"US Hwy 29 Bus"},"geometry":{"type":"Point","coordinates":[-79.4635245,36.544033999999996]}},{"type":"Feature","properties":{"id":"1108296489869","name":"US Hwy 61 Byp"},"geometry":{"type":"Point","coordinates":[-90.54120031892255,34.17306003452314]}},{"type":"Feature","properties":{"id":"1105598235827","name":"US Hwy 62"},"geometry":{"type":"Point","coordinates":[-98.38488560483165,34.67684780954311]}},{"type":"Feature","properties":{"id":"1108296491183","name":"I- 85 Bus"},"geometry":{"type":"Point","coordinates":[-80.29101337620504,35.80359623758558]}},{"type":"Feature","properties":{"id":"110420177298","name":"I- 880"},"geometry":{"type":"Point","coordinates":[-95.74439319752855,41.49936629513606]}},{"type":"Feature","properties":{"id":"11013782355959","name":"I- 99"},"geometry":{"type":"Point","coordinates":[-78.3513263258192,40.53058331303377]}},{"type":"Feature","properties":{"id":"11013782356164","name":"US Hwy 51"},"geometry":{"type":"Point","coordinates":[-89.27171906855429,36.132634182948166]}},{"type":"Feature","properties":{"id":"1108296489552","name":"US Hwy 60 Byp"},"geometry":{"type":"Point","coordinates":[-84.53558846652632,38.066708408452556]}},{"type":"Feature","properties":{"id":"11020304556","name":"I- 580"},"geometry":{"type":"Point","coordinates":[-121.44642424088889,37.66588130466527]}},{"type":"Feature","properties":{"id":"1104474077206","name":"US Hwy 180"},"geometry":{"type":"Point","coordinates":[-111.13538840151892,35.11999458849937]}},{"type":"Feature","properties":{"id":"1105575780005","name":"I- 2"},"geometry":{"type":"Point","coordinates":[-97.79601120892279,26.176766889118177]}},{"type":"Feature","properties":{"id":"1105640135939","name":"I- 85"},"geometry":{"type":"Point","coordinates":[-80.27824038676546,35.77737551752416]}},{"type":"Feature","properties":{"id":"11084671241","name":"I- 359"},"geometry":{"type":"Point","coordinates":[-87.55980650000001,33.1853575]}},{"type":"Feature","properties":{"id":"1104486412982","name":"I- 376"},"geometry":{"type":"Point","coordinates":[-80.3929152935292,40.99910777185854]}},{"type":"Feature","properties":{"id":"1109094038651","name":"US Hwy 45"},"geometry":{"type":"Point","coordinates":[-88.69431809174615,34.252605983058984]}},{"type":"Feature","properties":{"id":"1108296491407","name":"US Rte 30"},"geometry":{"type":"Point","coordinates":[-81.86503904499929,40.80426263095902]}},{"type":"Feature","properties":{"id":"1109096669618","name":"US Hwy 301"},"geometry":{"type":"Point","coordinates":[-80.47067409915002,33.486558401986954]}},{"type":"Feature","properties":{"id":"1109096669927","name":"US Hwy 15"},"geometry":{"type":"Point","coordinates":[-80.46995698879873,33.48771678626701]}},{"type":"Feature","properties":{"id":"110467186859","name":"S US Hwy 131"},"geometry":{"type":"Point","coordinates":[-85.6778755,42.974751]}},{"type":"Feature","properties":{"id":"1102231697460","name":"US Hwy 158 Byp"},"geometry":{"type":"Point","coordinates":[-78.41283938679318,36.33961213965381]}},{"type":"Feature","properties":{"id":"1108296489195","name":"US Hwy 167"},"geometry":{"type":"Point","coordinates":[-92.41681827486785,31.333416722406668]}},{"type":"Feature","properties":{"id":"1106092759113","name":"S US Hwy 181"},"geometry":{"type":"Point","coordinates":[-98.406653,29.3160095]}},{"type":"Feature","properties":{"id":"1106073896646","name":"I- 355"},"geometry":{"type":"Point","coordinates":[-88.02917281615393,41.83894767106967]}},{"type":"Feature","properties":{"id":"110467186870","name":"I- 196"},"geometry":{"type":"Point","coordinates":[-85.7057508983583,42.953980887803276]}},{"type":"Feature","properties":{"id":"1105048057736","name":"I- 194"},"geometry":{"type":"Point","coordinates":[-100.8356355,46.815489]}},{"type":"Feature","properties":{"id":"1106087632127","name":"US Hwy 91"},"geometry":{"type":"Point","coordinates":[-112.07228639139332,43.5600149344362]}},{"type":"Feature","properties":{"id":"1104475329994","name":"I- 225"},"geometry":{"type":"Point","coordinates":[-104.82950470242885,39.67560490368543]}},{"type":"Feature","properties":{"id":"110223146130","name":"I- 229"},"geometry":{"type":"Point","coordinates":[-96.771914,43.4961165]}},{"type":"Feature","properties":{"id":"1101931390341","name":"I- 276"},"geometry":{"type":"Point","coordinates":[-74.97100651622624,40.13177071837686]}},{"type":"Feature","properties":{"id":"1109097447169","name":"I- 277"},"geometry":{"type":"Point","coordinates":[-80.83250005528154,35.219869218334615]}},{"type":"Feature","properties":{"id":"1105598226032","name":"I- 278"},"geometry":{"type":"Point","coordinates":[-74.1835825,40.628536]}},{"type":"Feature","properties":{"id":"1105047489346","name":"I- 283"},"geometry":{"type":"Point","coordinates":[-76.7992251328534,40.23598318390628]}},{"type":"Feature","properties":{"id":"11020306432","name":"I- 295"},"geometry":{"type":"Point","coordinates":[-78.7898856230722,35.138583396890326]}},{"type":"Feature","properties":{"id":"1108296200156","name":"I- 465"},"geometry":{"type":"Point","coordinates":[-86.1324230529594,39.69938558136533]}},{"type":"Feature","properties":{"id":"110984544221","name":"I- 474"},"geometry":{"type":"Point","coordinates":[-89.56739179179874,40.63210163328913]}},{"type":"Feature","properties":{"id":"1105048349700","name":"I- 516"},"geometry":{"type":"Point","coordinates":[-81.13983140085017,32.058679493699664]}},{"type":"Feature","properties":{"id":"1109097860701","name":"I- 575"},"geometry":{"type":"Point","coordinates":[-84.56268044525466,34.03960023405153]}},{"type":"Feature","properties":{"id":"1101476092238","name":"I- 690"},"geometry":{"type":"Point","coordinates":[-76.1794383816658,43.05741026591581]}},{"type":"Feature","properties":{"id":"1109097223747","name":"I- 27"},"geometry":{"type":"Point","coordinates":[-101.81440171105261,34.08640099940844]}},{"type":"Feature","properties":{"id":"1104259298321","name":"I- 795"},"geometry":{"type":"Point","coordinates":[-77.99378297079544,35.4903160339369]}},{"type":"Feature","properties":{"id":"11013782383989","name":"US Hwy 20"},"geometry":{"type":"Point","coordinates":[-82.11701741226314,41.31814318824497]}},{"type":"Feature","properties":{"id":"1108296491169","name":"US Hwy 181"},"geometry":{"type":"Point","coordinates":[-97.73244178166689,28.415110160025947]}},{"type":"Feature","properties":{"id":"1108297134841","name":"US Hwy 431"},"geometry":{"type":"Point","coordinates":[-86.60010394927724,34.74564906542165]}},{"type":"Feature","properties":{"id":"110325922355","name":"I- 89"},"geometry":{"type":"Point","coordinates":[-73.0768071492625,44.84314888787261]}},{"type":"Feature","properties":{"id":"1106073099178","name":"I- 894"},"geometry":{"type":"Point","coordinates":[-88.01441371944907,42.9630224145129]}},{"type":"Feature","properties":{"id":"1108296492501","name":"US Hwy 70 Byp"},"geometry":{"type":"Point","coordinates":[-95.5220805,33.994975499999995]}},{"type":"Feature","properties":{"id":"1108296492726","name":"US Hwy 77 Bus"},"geometry":{"type":"Point","coordinates":[-97.108465,31.5703755]}},{"type":"Feature","properties":{"id":"110196709077","name":"US Hwy 27 Bus"},"geometry":{"type":"Point","coordinates":[-84.565697,42.725709]}},{"type":"Feature","properties":{"id":"11090813232","name":"US Hwy 72 Alt"},"geometry":{"type":"Point","coordinates":[-86.84311843932001,34.641228282402736]}},{"type":"Feature","properties":{"id":"11010947364391","name":"I- 469"},"geometry":{"type":"Point","coordinates":[-85.04101206195958,41.00305044763395]}},{"type":"Feature","properties":{"id":"1105056840613","name":"I- 215"},"geometry":{"type":"Point","coordinates":[-117.350739,33.989752]}},{"type":"Feature","properties":{"id":"110169262927","name":"I- 86"},"geometry":{"type":"Point","coordinates":[-77.32453730663327,42.3326258469346]}},{"type":"Feature","properties":{"id":"1108296492039","name":"US Hwy 20 Byp"},"geometry":{"type":"Point","coordinates":[-106.375321,42.8637185]}},{"type":"Feature","properties":{"id":"110491144549","name":"I- 189"},"geometry":{"type":"Point","coordinates":[-73.193667,44.449569999999994]}},{"type":"Feature","properties":{"id":"1108296488347","name":"US Hwy 45E"},"geometry":{"type":"Point","coordinates":[-88.81306070361062,36.340527146203016]}},{"type":"Feature","properties":{"id":"1108296490406","name":"US Hwy 45W"},"geometry":{"type":"Point","coordinates":[-89.01242400000001,36.443678500000004]}},{"type":"Feature","properties":{"id":"1109097514347","name":"I- 22"},"geometry":{"type":"Point","coordinates":[-89.491336051595,34.794331453274275]}},{"type":"Feature","properties":{"id":"1105045838676","name":"I- 30"},"geometry":{"type":"Point","coordinates":[-96.93251209785545,32.76376459106473]}},{"type":"Feature","properties":{"id":"1105598257538","name":"I- 35 W"},"geometry":{"type":"Point","coordinates":[-97.12547941059093,32.15193702536623]}},{"type":"Feature","properties":{"id":"1104470397248","name":"I- 691"},"geometry":{"type":"Point","coordinates":[-72.85889900000001,41.5547905]}},{"type":"Feature","properties":{"id":"11051103636","name":"I- 35"},"geometry":{"type":"Point","coordinates":[-94.105724726648,39.95691121813215]}},{"type":"Feature","properties":{"id":"1104755487447","name":"I- 310"},"geometry":{"type":"Point","coordinates":[-90.36356846169707,29.95993694076207]}},{"type":"Feature","properties":{"id":"1109097585810","name":"I- 294"},"geometry":{"type":"Point","coordinates":[-87.90202002413744,41.76655215229404]}},{"type":"Feature","properties":{"id":"1106039472485","name":"US Hwy 29"},"geometry":{"type":"Point","coordinates":[-83.418992,33.9143375]}},{"type":"Feature","properties":{"id":"110408217101","name":"US Hwy 4"},"geometry":{"type":"Point","coordinates":[-71.533935,43.216477499999996]}},{"type":"Feature","properties":{"id":"1108475874170","name":"US Hwy 42"},"geometry":{"type":"Point","coordinates":[-82.02921691469028,41.04422278744185]}},{"type":"Feature","properties":{"id":"1108296489686","name":"US Hwy 501"},"geometry":{"type":"Point","coordinates":[-79.1940585,35.494427]}},{"type":"Feature","properties":{"id":"11013782356274","name":"US Hwy 81"},"geometry":{"type":"Point","coordinates":[-97.79641716213153,33.48308252121004]}},{"type":"Feature","properties":{"id":"1104472576269","name":"US Hwy 49"},"geometry":{"type":"Point","coordinates":[-90.24656632220116,32.290508902720106]}},{"type":"Feature","properties":{"id":"1109097026547","name":"US Hwy 67"},"geometry":{"type":"Point","coordinates":[-96.8234402735689,32.73906481054912]}},{"type":"Feature","properties":{"id":"1109097026567","name":"I- 80"},"geometry":{"type":"Point","coordinates":[-106.75862036790474,41.740266905223216]}},{"type":"Feature","properties":{"id":"1108296490279","name":"US Hwy 127"},"geometry":{"type":"Point","coordinates":[-84.42905560959777,42.347928962584994]}},{"type":"Feature","properties":{"id":"1108297134761","name":"US Hwy 231"},"geometry":{"type":"Point","coordinates":[-86.59261625085855,34.72064837549581]}},{"type":"Feature","properties":{"id":"11013782128617","name":"US Hwy 24"},"geometry":{"type":"Point","coordinates":[-84.39522164116522,41.28919276190381]}},{"type":"Feature","properties":{"id":"110728807245","name":"US Hwy 259"},"geometry":{"type":"Point","coordinates":[-94.76676284446849,32.432134247579064]}},{"type":"Feature","properties":{"id":"1103970863393","name":"I- 29"},"geometry":{"type":"Point","coordinates":[-94.73678015797131,39.34076005790415]}},{"type":"Feature","properties":{"id":"11012877395090","name":"I- 77"},"geometry":{"type":"Point","coordinates":[-80.9765729381685,36.93953565924873]}},{"type":"Feature","properties":{"id":"110449395081","name":"I- 87"},"geometry":{"type":"Point","coordinates":[-73.43688572553147,44.73477607240668]}},{"type":"Feature","properties":{"id":"11013851032135","name":"US Hwy 275"},"geometry":{"type":"Point","coordinates":[-96.35911848941147,41.338206758475756]}},{"type":"Feature","properties":{"id":"1108296466072","name":"US Hwy 250"},"geometry":{"type":"Point","coordinates":[-78.4999315,38.057754]}},{"type":"Feature","properties":{"id":"1106039472759","name":"US Hwy 78"},"geometry":{"type":"Point","coordinates":[-83.42853701398086,33.91317903459753]}},{"type":"Feature","properties":{"id":"110408658710","name":"I- 494"},"geometry":{"type":"Point","coordinates":[-92.99386142265023,44.90251153938955]}},{"type":"Feature","properties":{"id":"11013552171326","name":"I- 540"},"geometry":{"type":"Point","coordinates":[-94.32618637334951,35.4332145318029]}},{"type":"Feature","properties":{"id":"11015682079934","name":"US Hwy 212"},"geometry":{"type":"Point","coordinates":[-93.45022592961206,44.86083274526168]}},{"type":"Feature","properties":{"id":"1108296491429","name":"US Hwy 64 E"},"geometry":{"type":"Point","coordinates":[-79.1243975,35.72461]}},{"type":"Feature","properties":{"id":"1108296491762","name":"US Rte 23"},"geometry":{"type":"Point","coordinates":[-82.96537003938592,39.35251773803901]}},{"type":"Feature","properties":{"id":"1108296491689","name":"US Rte 6"},"geometry":{"type":"Point","coordinates":[-82.586522,41.4028335]}},{"type":"Feature","properties":{"id":"1105261674551","name":"E I- 10"},"geometry":{"type":"Point","coordinates":[-97.6825465,29.648463]}},{"type":"Feature","properties":{"id":"1104351248369","name":"I- 55"},"geometry":{"type":"Point","coordinates":[-90.15865159418614,32.342651197571]}},{"type":"Feature","properties":{"id":"11013782384089","name":"I- 78"},"geometry":{"type":"Point","coordinates":[-74.19441535808319,40.70942915163029]}},{"type":"Feature","properties":{"id":"11013567058833","name":"US Hwy 50"},"geometry":{"type":"Point","coordinates":[-119.7474005001027,39.1355913758253]}},{"type":"Feature","properties":{"id":"1108296490921","name":"US Hwy 19"},"geometry":{"type":"Point","coordinates":[-84.13761809583616,31.595457719358954]}},{"type":"Feature","properties":{"id":"1109094037426","name":"US Hwy 40"},"geometry":{"type":"Point","coordinates":[-79.68755194345009,39.86686960029678]}},{"type":"Feature","properties":{"id":"11014866695044","name":"US Hwy 64"},"geometry":{"type":"Point","coordinates":[-97.032153,36.358180000000004]}},{"type":"Feature","properties":{"id":"11013782356042","name":"US Hwy 74 Byp"},"geometry":{"type":"Point","coordinates":[-79.7606211949002,34.871306412752325]}},{"type":"Feature","properties":{"id":"11013778632063","name":"US Rte 33"},"geometry":{"type":"Point","coordinates":[-82.65907073229022,39.68806113904347]}},{"type":"Feature","properties":{"id":"1108296487315","name":"US Rte 20"},"geometry":{"type":"Point","coordinates":[-82.60403414467322,41.222455785632235]}},{"type":"Feature","properties":{"id":"1106039419141","name":"US Hwy 23"},"geometry":{"type":"Point","coordinates":[-82.53705696453197,36.032482900378554]}},{"type":"Feature","properties":{"id":"1108296487411","name":"US Hwy 287 S"},"geometry":{"type":"Point","coordinates":[-101.8327025,35.31282]}},{"type":"Feature","properties":{"id":"11014548671445","name":"I- 680"},"geometry":{"type":"Point","coordinates":[-95.89981726098529,41.392619552766305]}},{"type":"Feature","properties":{"id":"11014058993182","name":"US Hwy 19 N"},"geometry":{"type":"Point","coordinates":[-82.7381029595936,28.02638006495184]}},{"type":"Feature","properties":{"id":"11013782356451","name":"US Hwy 60"},"geometry":{"type":"Point","coordinates":[-111.87983018591707,33.385967851303725]}},{"type":"Feature","properties":{"id":"1109097023135","name":"US Hwy 76"},"geometry":{"type":"Point","coordinates":[-81.16345849999999,34.0880725]}},{"type":"Feature","properties":{"id":"110439138908","name":"US Hwy 34"},"geometry":{"type":"Point","coordinates":[-95.813148,41.0233605]}},{"type":"Feature","properties":{"id":"1108296488613","name":"US Hwy 141"},"geometry":{"type":"Point","coordinates":[-88.04943654402011,44.61352378982017]}},{"type":"Feature","properties":{"id":"1103968761956","name":"US Hwy 189"},"geometry":{"type":"Point","coordinates":[-110.88577283670273,41.263279112422666]}},{"type":"Feature","properties":{"id":"1104259024290","name":"US Rte 40"},"geometry":{"type":"Point","coordinates":[-81.33640817171903,40.05008133013564]}},{"type":"Feature","properties":{"id":"1109090528191","name":"I- 94"},"geometry":{"type":"Point","coordinates":[-87.76305848762844,42.09338192799609]}},{"type":"Feature","properties":{"id":"1104472859436","name":"I- 44"},"geometry":{"type":"Point","coordinates":[-94.53221031213968,37.02380352487528]}},{"type":"Feature","properties":{"id":"1104258577772","name":"I- 172"},"geometry":{"type":"Point","coordinates":[-91.33248229239688,39.877110449285276]}},{"type":"Feature","properties":{"id":"110193566719","name":"I- 180"},"geometry":{"type":"Point","coordinates":[-89.337741,41.258796000000004]}},{"type":"Feature","properties":{"id":"1105598233237","name":"I- 181"},"geometry":{"type":"Point","coordinates":[-82.57001122127383,36.50765400471432]}},{"type":"Feature","properties":{"id":"110467561982","name":"I- 71"},"geometry":{"type":"Point","coordinates":[-83.21931000000001,39.7980655]}},{"type":"Feature","properties":{"id":"1109097023938","name":"US Hwy 183"},"geometry":{"type":"Point","coordinates":[-97.79000042779973,30.44789096497535]}},{"type":"Feature","properties":{"id":"1105045803940","name":"US Hwy 169"},"geometry":{"type":"Point","coordinates":[-94.7528560636516,38.93416521988745]}},{"type":"Feature","properties":{"id":"1109097804167","name":"US Hwy 322"},"geometry":{"type":"Point","coordinates":[-77.09185773200329,40.49447129793966]}},{"type":"Feature","properties":{"id":"11013782422725","name":"US Hwy 131"},"geometry":{"type":"Point","coordinates":[-85.38851158407218,44.27298629178562]}},{"type":"Feature","properties":{"id":"1105063298813","name":"US Hwy 276"},"geometry":{"type":"Point","coordinates":[-82.0131585,34.555244]}},{"type":"Feature","properties":{"id":"1104492562263","name":"I- 210"},"geometry":{"type":"Point","coordinates":[-118.16799445219863,34.17923465978722]}},{"type":"Feature","properties":{"id":"110464501652","name":"I- 264"},"geometry":{"type":"Point","coordinates":[-85.73769532688743,38.19065596367306]}},{"type":"Feature","properties":{"id":"1105057649195","name":"I- 287"},"geometry":{"type":"Point","coordinates":[-74.4229795079649,40.556065728621164]}},{"type":"Feature","properties":{"id":"110321825705","name":"I- 291"},"geometry":{"type":"Point","coordinates":[-72.56639743111774,42.12680534526327]}},{"type":"Feature","properties":{"id":"11081085731","name":"I- 459"},"geometry":{"type":"Point","coordinates":[-86.77892969566801,33.39757391459535]}},{"type":"Feature","properties":{"id":"110520642593","name":"I- 475"},"geometry":{"type":"Point","coordinates":[-83.67568629745111,43.04104036982859]}},{"type":"Feature","properties":{"id":"110469155622","name":"I- 510"},"geometry":{"type":"Point","coordinates":[-89.9393895,30.0372225]}},{"type":"Feature","properties":{"id":"1102836942094","name":"I- 526"},"geometry":{"type":"Point","coordinates":[-80.02685522857352,32.8649871072856]}},{"type":"Feature","properties":{"id":"110764479680","name":"I- 664"},"geometry":{"type":"Point","coordinates":[-76.4248802313934,36.89388319894478]}},{"type":"Feature","properties":{"id":"1106073832203","name":"I- 82"},"geometry":{"type":"Point","coordinates":[-120.32885924015469,46.42067901133192]}},{"type":"Feature","properties":{"id":"1104486580059","name":"US Hwy 377"},"geometry":{"type":"Point","coordinates":[-97.318676,32.757934500000005]}},{"type":"Feature","properties":{"id":"11015496564864","name":"US Hwy 5"},"geometry":{"type":"Point","coordinates":[-72.59571882908898,42.096113702809184]}},{"type":"Feature","properties":{"id":"11010865843264","name":"US Hwy 11"},"geometry":{"type":"Point","coordinates":[-79.6380425673734,37.58669999886564]}},{"type":"Feature","properties":{"id":"11020305945","name":"US Hwy 13"},"geometry":{"type":"Point","coordinates":[-78.90578072235373,35.14693468815576]}},{"type":"Feature","properties":{"id":"1108296384705","name":"US Rte 68"},"geometry":{"type":"Point","coordinates":[-83.8031945,40.0282615]}},{"type":"Feature","properties":{"id":"1105598236800","name":"US Hwy 281"},"geometry":{"type":"Point","coordinates":[-98.3969875,34.728741]}},{"type":"Feature","properties":{"id":"110426399746","name":"US Hwy 65"},"geometry":{"type":"Point","coordinates":[-92.20809249999999,34.472826]}},{"type":"Feature","properties":{"id":"110464501480","name":"US Hwy 150"},"geometry":{"type":"Point","coordinates":[-85.80008470258377,38.276702511253184]}},{"type":"Feature","properties":{"id":"1103732735431","name":"US Hwy 191"},"geometry":{"type":"Point","coordinates":[-110.9041686703206,45.642407090879985]}},{"type":"Feature","properties":{"id":"110452376325","name":"US Hwy 26"},"geometry":{"type":"Point","coordinates":[-116.08989575137356,43.46291320739024]}},{"type":"Feature","properties":{"id":"1104471141840","name":"I- 895"},"geometry":{"type":"Point","coordinates":[-76.71610383214868,39.221665150767976]}},{"type":"Feature","properties":{"id":"1102301092898","name":"I- 97"},"geometry":{"type":"Point","coordinates":[-76.62534677989089,39.084768552257145]}},{"type":"Feature","properties":{"id":"1104474984268","name":"I- 980"},"geometry":{"type":"Point","coordinates":[-122.27805585221522,37.806106460007705]}},{"type":"Feature","properties":{"id":"11033746738600","name":"I- 985"},"geometry":{"type":"Point","coordinates":[-83.86687837507914,34.22308724782074]}},{"type":"Feature","properties":{"id":"1104689770026","name":"I- H-1"},"geometry":{"type":"Point","coordinates":[-157.92793729086637,21.377704140820423]}},{"type":"Feature","properties":{"id":"1102969766947","name":"US Hwy 77"},"geometry":{"type":"Point","coordinates":[-97.77240749826835,26.466739385187537]}},{"type":"Feature","properties":{"id":"1109096799956","name":"US Hwy 96"},"geometry":{"type":"Point","coordinates":[-94.11287804268228,30.037484933285903]}},{"type":"Feature","properties":{"id":"1104782107616","name":"US Hwy 44"},"geometry":{"type":"Point","coordinates":[-70.6986695,41.9652395]}},{"type":"Feature","properties":{"id":"110158252743","name":"US Hwy 25"},"geometry":{"type":"Point","coordinates":[-84.34495,37.888020999999995]}},{"type":"Feature","properties":{"id":"1104469323121","name":"US Hwy 287 N"},"geometry":{"type":"Point","coordinates":[-101.83375899999999,35.302927]}},{"type":"Feature","properties":{"id":"1105333000082","name":"I- 535"},"geometry":{"type":"Point","coordinates":[-92.11118415525247,46.758550755945635]}},{"type":"Feature","properties":{"id":"110560774950","name":"US Hwy 66"},"geometry":{"type":"Point","coordinates":[-101.36152457648606,35.20947550521698]}},{"type":"Feature","properties":{"id":"1102841210565","name":"I- 12"},"geometry":{"type":"Point","coordinates":[-90.7731573391622,30.473626157127384]}},{"type":"Feature","properties":{"id":"1101629193625","name":"I- 17"},"geometry":{"type":"Point","coordinates":[-112.11575983095298,33.70468453688551]}},{"type":"Feature","properties":{"id":"1108296487196","name":"US Hwy 17 Bus"},"geometry":{"type":"Point","coordinates":[-77.96255450000001,34.2318335]}},{"type":"Feature","properties":{"id":"1108296490765","name":"US Hwy 45 Alt"},"geometry":{"type":"Point","coordinates":[-88.701106,34.114936]}},{"type":"Feature","properties":{"id":"1108296485324","name":"US Hwy 460 Byp"},"geometry":{"type":"Point","coordinates":[-80.371914,37.131195000000005]}},{"type":"Feature","properties":{"id":"1108475716789","name":"N US Hwy 127"},"geometry":{"type":"Point","coordinates":[-84.5639622605233,43.0436728715458]}},{"type":"Feature","properties":{"id":"1108296492242","name":"W US Hwy 190"},"geometry":{"type":"Point","coordinates":[-97.8000505,31.122211999999998]}},{"type":"Feature","properties":{"id":"1108311363505","name":"US Hwy 70 Bus"},"geometry":{"type":"Point","coordinates":[-93.00736190540005,34.5075134670167]}},{"type":"Feature","properties":{"id":"1104363426917","name":"I- 135"},"geometry":{"type":"Point","coordinates":[-97.61774772329784,38.74665935391272]}},{"type":"Feature","properties":{"id":"1104468668231","name":"I- 45 S"},"geometry":{"type":"Point","coordinates":[-95.7366855,30.850301]}},{"type":"Feature","properties":{"id":"11013163509877","name":"I- 25"},"geometry":{"type":"Point","coordinates":[-106.88811257337628,33.96473006262325]}},{"type":"Feature","properties":{"id":"11072243094","name":"I- 20"},"geometry":{"type":"Point","coordinates":[-87.91948735394368,32.87111740983466]}},{"type":"Feature","properties":{"id":"1104260328487","name":"I- 15"},"geometry":{"type":"Point","coordinates":[-111.90454090102185,40.636975759392605]}},{"type":"Feature","properties":{"id":"11010865844233","name":"I- 581"},"geometry":{"type":"Point","coordinates":[-79.99445604361375,37.334820908877745]}},{"type":"Feature","properties":{"id":"1109098078547","name":"I- 45"},"geometry":{"type":"Point","coordinates":[-95.56216411025267,30.70651164002462]}},{"type":"Feature","properties":{"id":"1102649736712","name":"US Hwy 95 Alt"},"geometry":{"type":"Point","coordinates":[-118.939095245536,39.84576898493223]}},{"type":"Feature","properties":{"id":"1109096798855","name":"I- 90"},"geometry":{"type":"Point","coordinates":[-88.40385954931901,42.11001658330594]}},{"type":"Feature","properties":{"id":"1105642725546","name":"US Hwy 6"},"geometry":{"type":"Point","coordinates":[-73.23352885226782,41.45903895946813]}},{"type":"Feature","properties":{"id":"1104258801133","name":"US Hwy 14"},"geometry":{"type":"Point","coordinates":[-102.749577561651,44.103617761517526]}},{"type":"Feature","properties":{"id":"1108297134452","name":"US Hwy 72"},"geometry":{"type":"Point","coordinates":[-86.59684058809913,34.75188087002504]}},{"type":"Feature","properties":{"id":"110514027764","name":"US Hwy 98"},"geometry":{"type":"Point","coordinates":[-90.481045,31.252975]}},{"type":"Feature","properties":{"id":"1108296490976","name":"US Hwy 1 Byp"},"geometry":{"type":"Point","coordinates":[-78.38432377066445,36.3191899754854]}},{"type":"Feature","properties":{"id":"1104265592346","name":"US Hwy 89"},"geometry":{"type":"Point","coordinates":[-112.08029514587157,38.79153432609504]}},{"type":"Feature","properties":{"id":"110509125598","name":"I- 235"},"geometry":{"type":"Point","coordinates":[-97.40892684159151,37.69321808093333]}},{"type":"Feature","properties":{"id":"1104492562266","name":"I- 4"},"geometry":{"type":"Point","coordinates":[-81.36853394398773,28.741599490672026]}},{"type":"Feature","properties":{"id":"1105047761014","name":"I- 81"},"geometry":{"type":"Point","coordinates":[-76.30687317984,40.73509949710618]}},{"type":"Feature","properties":{"id":"1106039636062","name":"I- 76"},"geometry":{"type":"Point","coordinates":[-75.19135851107876,39.94323521768989]}},{"type":"Feature","properties":{"id":"1108296537598","name":"US Hwy 9"},"geometry":{"type":"Point","coordinates":[-74.092852,40.7370175]}},{"type":"Feature","properties":{"id":"1104486509366","name":"US Hwy 41"},"geometry":{"type":"Point","coordinates":[-88.48269059611681,43.78038963638336]}},{"type":"Feature","properties":{"id":"1103944275217","name":"I- 476"},"geometry":{"type":"Point","coordinates":[-75.31692905180304,40.19666894730094]}},{"type":"Feature","properties":{"id":"11010935596047","name":"I- 15 Bus"},"geometry":{"type":"Point","coordinates":[-112.5597645,46.0045145]}},{"type":"Feature","properties":{"id":"11097861565","name":"I- 175"},"geometry":{"type":"Point","coordinates":[-82.6459255,27.766298499999998]}},{"type":"Feature","properties":{"id":"1109090122736","name":"US Hwy 422"},"geometry":{"type":"Point","coordinates":[-79.9054072094804,40.87922119247441]}},{"type":"Feature","properties":{"id":"110745087511","name":"US Hwy 206"},"geometry":{"type":"Point","coordinates":[-74.70885171669593,40.891249279241215]}},{"type":"Feature","properties":{"id":"110408657511","name":"US Hwy 61"},"geometry":{"type":"Point","coordinates":[-93.056942,44.952166500000004]}},{"type":"Feature","properties":{"id":"110515597681","name":"US Hwy 70"},"geometry":{"type":"Point","coordinates":[-108.39316118514536,32.18510385665718]}},{"type":"Feature","properties":{"id":"1108296489083","name":"US Hwy 20 E"},"geometry":{"type":"Point","coordinates":[-89.5632920553151,42.311386727138455]}},{"type":"Feature","properties":{"id":"1108296490287","name":"US Hwy 20 W"},"geometry":{"type":"Point","coordinates":[-89.62564900000001,42.321785]}},{"type":"Feature","properties":{"id":"1105643501749","name":"US Hwy 202"},"geometry":{"type":"Point","coordinates":[-75.56910076375283,39.728120084252815]}},{"type":"Feature","properties":{"id":"11014061396555","name":"US Hwy 220"},"geometry":{"type":"Point","coordinates":[-79.92251090388518,36.25235363283574]}},{"type":"Feature","properties":{"id":"1105598252892","name":"US Hwy 36"},"geometry":{"type":"Point","coordinates":[-91.318149303621,39.7340823033013]}},{"type":"Feature","properties":{"id":"1103970165117","name":"US Hwy 16"},"geometry":{"type":"Point","coordinates":[-105.27614249358986,44.29716378937189]}},{"type":"Feature","properties":{"id":"1109097381297","name":"US Hwy 82"},"geometry":{"type":"Point","coordinates":[-98.55588110007986,33.87638584665554]}},{"type":"Feature","properties":{"id":"1104474748420","name":"US Hwy 51 N"},"geometry":{"type":"Point","coordinates":[-89.07695325085305,41.19005405380636]}},{"type":"Feature","properties":{"id":"11012815190356","name":"US Hwy 93"},"geometry":{"type":"Point","coordinates":[-115.08330301831144,36.12078372689898]}},{"type":"Feature","properties":{"id":"11013782383874","name":"US Rte 220"},"geometry":{"type":"Point","coordinates":[-77.73773999678059,40.88717805077841]}},{"type":"Feature","properties":{"id":"1104340312041","name":"I- 220"},"geometry":{"type":"Point","coordinates":[-90.248899,32.2927105]}},{"type":"Feature","properties":{"id":"1102289496615","name":"I- 24"},"geometry":{"type":"Point","coordinates":[-86.98878139277309,36.37829493030713]}},{"type":"Feature","properties":{"id":"110464501682","name":"I- 265"},"geometry":{"type":"Point","coordinates":[-85.50637930265593,38.20842461092009]}},{"type":"Feature","properties":{"id":"1104486823606","name":"I- 270"},"geometry":{"type":"Point","coordinates":[-77.14345472693095,39.020823549329975]}},{"type":"Feature","properties":{"id":"1105047792809","name":"I- 381"},"geometry":{"type":"Point","coordinates":[-82.1875555,36.61641899999999]}},{"type":"Feature","properties":{"id":"1105281262477","name":"I- 393"},"geometry":{"type":"Point","coordinates":[-71.49219007093672,43.2305929645257]}},{"type":"Feature","properties":{"id":"1105056901124","name":"I- 405"},"geometry":{"type":"Point","coordinates":[-122.68724353293925,45.517842370178414]}},{"type":"Feature","properties":{"id":"1107052554459","name":"I- 72"},"geometry":{"type":"Point","coordinates":[-91.01867028918959,39.69889742355658]}},{"type":"Feature","properties":{"id":"1104492831792","name":"I- 19"},"geometry":{"type":"Point","coordinates":[-111.0189213403046,31.521532354568603]}},{"type":"Feature","properties":{"id":"110381495590","name":"I- 435"},"geometry":{"type":"Point","coordinates":[-94.49980341953984,39.00905559804373]}},{"type":"Feature","properties":{"id":"1108311288468","name":"I- 805"},"geometry":{"type":"Point","coordinates":[-117.10969280853377,32.73055172139763]}},{"type":"Feature","properties":{"id":"11063947944","name":"I- 375"},"geometry":{"type":"Point","coordinates":[-83.03907138720878,42.336740717206176]}},{"type":"Feature","properties":{"id":"1109096413332","name":"US Hwy 7"},"geometry":{"type":"Point","coordinates":[-73.10707575701814,43.086238235849294]}},{"type":"Feature","properties":{"id":"1108296281023","name":"US Hwy 285"},"geometry":{"type":"Point","coordinates":[-105.032967,39.6530955]}},{"type":"Feature","properties":{"id":"1108296489034","name":"US Hwy 27 Alt"},"geometry":{"type":"Point","coordinates":[-84.86564704748483,32.545958828849216]}},{"type":"Feature","properties":{"id":"1108296488963","name":"US Rte 250"},"geometry":{"type":"Point","coordinates":[-81.93047433408663,40.789872030887196]}},{"type":"Feature","properties":{"id":"1108296490295","name":"I- 95 Bus"},"geometry":{"type":"Point","coordinates":[-78.81234087989597,35.0770769887908]}},{"type":"Feature","properties":{"id":"1109097805215","name":"US Hwy 22"},"geometry":{"type":"Point","coordinates":[-77.09166375703924,40.494807630989854]}},{"type":"Feature","properties":{"id":"1108296282240","name":"US Hwy 3"},"geometry":{"type":"Point","coordinates":[-71.47326484650002,42.733711805359924]}},{"type":"Feature","properties":{"id":"1109094037777","name":"US Hwy 119"},"geometry":{"type":"Point","coordinates":[-79.72433827241657,39.916362056111986]}},{"type":"Feature","properties":{"id":"110449463410","name":"US Hwy 23 Bus"},"geometry":{"type":"Point","coordinates":[-83.7405885,42.321636]}},{"type":"Feature","properties":{"id":"1108296485835","name":"US Hwy 29 Byp"},"geometry":{"type":"Point","coordinates":[-79.28734652872923,37.13621229025559]}},{"type":"Feature","properties":{"id":"1105068612614","name":"US Hwy 75 Alt"},"geometry":{"type":"Point","coordinates":[-96.0534845,36.075044]}},{"type":"Feature","properties":{"id":"110990921341","name":"I- 790"},"geometry":{"type":"Point","coordinates":[-75.23390889057806,43.121199044856205]}},{"type":"Feature","properties":{"id":"110564554055","name":"S I- 35"},"geometry":{"type":"Point","coordinates":[-97.68655,30.6096455]}},{"type":"Feature","properties":{"id":"1108296492559","name":"W US Hwy 90"},"geometry":{"type":"Point","coordinates":[-98.61271780096455,29.40497319026595]}},{"type":"Feature","properties":{"id":"11012819920218","name":"US Hwy 10"},"geometry":{"type":"Point","coordinates":[-88.85598631454431,44.25289600019343]}},{"type":"Feature","properties":{"id":"1103674442880","name":"I- 40"},"geometry":{"type":"Point","coordinates":[-99.65159043573007,35.26306246154587]}},{"type":"Feature","properties":{"id":"1108296492470","name":"US Hwy 209"},"geometry":{"type":"Point","coordinates":[-75.2929105308434,40.944369441599015]}},{"type":"Feature","properties":{"id":"110782571139","name":"US Hwy 270"},"geometry":{"type":"Point","coordinates":[-97.89063383281709,35.50093302055138]}},{"type":"Feature","properties":{"id":"1108296491188","name":"US Hwy 129"},"geometry":{"type":"Point","coordinates":[-83.35148098562316,33.9604563475385]}},{"type":"Feature","properties":{"id":"1105089436430","name":"US Hwy 220 N"},"geometry":{"type":"Point","coordinates":[-79.7679835,35.040867]}},{"type":"Feature","properties":{"id":"1109097381144","name":"US Hwy 277"},"geometry":{"type":"Point","coordinates":[-98.5510759594185,33.87776020209194]}},{"type":"Feature","properties":{"id":"1109096948536","name":"US Hwy 75"},"geometry":{"type":"Point","coordinates":[-96.63908925641309,33.19345551374288]}},{"type":"Feature","properties":{"id":"1108296492183","name":"US Hwy 31E"},"geometry":{"type":"Point","coordinates":[-86.7651075,36.176897999999994]}},{"type":"Feature","properties":{"id":"1105643503922","name":"I- 95"},"geometry":{"type":"Point","coordinates":[-73.83083998755777,40.868037610845285]}},{"type":"Feature","properties":{"id":"1109097586216","name":"US Hwy 190"},"geometry":{"type":"Point","coordinates":[-97.59977337349405,31.07364286904226]}},{"type":"Feature","properties":{"id":"11013782168364","name":"US Hwy 1 Alt"},"geometry":{"type":"Point","coordinates":[-81.63541687410726,30.330301183547633]}},{"type":"Feature","properties":{"id":"110372034093","name":"US Rte 1"},"geometry":{"type":"Point","coordinates":[-71.07262972616876,42.2051952874328]}},{"type":"Feature","properties":{"id":"1108296488055","name":"US Hwy 223"},"geometry":{"type":"Point","coordinates":[-83.688819,41.720808500000004]}},{"type":"Feature","properties":{"id":"11012819918119","name":"US Hwy 460"},"geometry":{"type":"Point","coordinates":[-79.22310668948467,37.31905001541598]}},{"type":"Feature","properties":{"id":"110192651177","name":"I- 255"},"geometry":{"type":"Point","coordinates":[-90.0254175081918,38.71557661550037]}},{"type":"Feature","properties":{"id":"1104782794770","name":"I- 271"},"geometry":{"type":"Point","coordinates":[-81.48923947694568,41.468361965879865]}},{"type":"Feature","properties":{"id":"110408217904","name":"I- 293"},"geometry":{"type":"Point","coordinates":[-71.47201576673064,43.04637354737187]}},{"type":"Feature","properties":{"id":"1105048113410","name":"I- 470"},"geometry":{"type":"Point","coordinates":[-94.40557278548266,38.93540023952745]}},{"type":"Feature","properties":{"id":"11015496893647","name":"I- 605"},"geometry":{"type":"Point","coordinates":[-118.0864215,33.796831499999996]}},{"type":"Feature","properties":{"id":"11015496564373","name":"I- 64"},"geometry":{"type":"Point","coordinates":[-78.87841677759351,38.04070588451817]}},{"type":"Feature","properties":{"id":"1106087410027","name":"I- 640"},"geometry":{"type":"Point","coordinates":[-83.93196842270423,36.01380745270899]}},{"type":"Feature","properties":{"id":"1109097860845","name":"I- 678"},"geometry":{"type":"Point","coordinates":[-73.82714759490514,40.718635874883425]}},{"type":"Feature","properties":{"id":"110342511395","name":"I- 695"},"geometry":{"type":"Point","coordinates":[-76.528869,39.216460999999995]}},{"type":"Feature","properties":{"id":"1109097381038","name":"I- 195"},"geometry":{"type":"Point","coordinates":[-77.48584507681801,37.560763827080656]}},{"type":"Feature","properties":{"id":"1106087451965","name":"US Rte 9"},"geometry":{"type":"Point","coordinates":[-73.96226999999999,40.854016]}},{"type":"Feature","properties":{"id":"1108296491794","name":"US Hwy 224"},"geometry":{"type":"Point","coordinates":[-81.58376871176928,41.03794788795961]}},{"type":"Feature","properties":{"id":"1105048125219","name":"I- H-2"},"geometry":{"type":"Point","coordinates":[-157.99108541992325,21.45276304835254]}},{"type":"Feature","properties":{"id":"1105048125228","name":"I- H-3"},"geometry":{"type":"Point","coordinates":[-157.82053805702543,21.403986682308727]}},{"type":"Feature","properties":{"id":"1108296492500","name":"US Hwy 271"},"geometry":{"type":"Point","coordinates":[-95.54561593497642,34.001719823633216]}},{"type":"Feature","properties":{"id":"1108296489264","name":"US Hwy 283"},"geometry":{"type":"Point","coordinates":[-99.24222401895749,33.593890446362714]}},{"type":"Feature","properties":{"id":"1104258742888","name":"US Hwy 601"},"geometry":{"type":"Point","coordinates":[-80.58325539352144,35.471684011243]}},{"type":"Feature","properties":{"id":"1106072574875","name":"I- 110"},"geometry":{"type":"Point","coordinates":[-106.44937715247141,31.770457054308565]}},{"type":"Feature","properties":{"id":"110550627842","name":"I- 66"},"geometry":{"type":"Point","coordinates":[-77.333372626272,38.864502276865146]}},{"type":"Feature","properties":{"id":"1105640135361","name":"I- 10"},"geometry":{"type":"Point","coordinates":[-115.83681811480821,33.662198437706756]}},{"type":"Feature","properties":{"id":"1108296484192","name":"US Hwy 58 Byp"},"geometry":{"type":"Point","coordinates":[-79.81816131975107,36.646625825439116]}},{"type":"Feature","properties":{"id":"1108296491233","name":"US Hwy 65 Bus"},"geometry":{"type":"Point","coordinates":[-93.24321816518368,37.13169195582247]}},{"type":"Feature","properties":{"id":"110451363997","name":"US Hwy 65 Spr"},"geometry":{"type":"Point","coordinates":[-92.07328484041807,34.22112817451673]}},{"type":"Feature","properties":{"id":"1108296489408","name":"US Hwy 69 Scn"},"geometry":{"type":"Point","coordinates":[-94.68709605910148,38.360639447769486]}},{"type":"Feature","properties":{"id":"11020303908","name":"I- 5"},"geometry":{"type":"Point","coordinates":[-121.29591065199723,37.93404306759496]}},{"type":"Feature","properties":{"id":"11030538665499","name":"I- 384"},"geometry":{"type":"Point","coordinates":[-72.5092653566167,41.76156313457058]}},{"type":"Feature","properties":{"id":"1104492833603","name":"US Hwy 25W"},"geometry":{"type":"Point","coordinates":[-83.89837780963583,36.028876404533264]}},{"type":"Feature","properties":{"id":"1101931504837","name":"US Hwy 93 Alt"},"geometry":{"type":"Point","coordinates":[-114.47464001559365,41.019328743159505]}},{"type":"Feature","properties":{"id":"1106039346342","name":"US Hwy 87"},"geometry":{"type":"Point","coordinates":[-104.98769780845917,39.87954789081677]}},{"type":"Feature","properties":{"id":"1109096669546","name":"US Hwy 27"},"geometry":{"type":"Point","coordinates":[-84.59611562774926,42.80761708080454]}},{"type":"Feature","properties":{"id":"1108296491572","name":"US Hwy 68"},"geometry":{"type":"Point","coordinates":[-83.82906252939404,39.95631470580602]}},{"type":"Feature","properties":{"id":"110380862355","name":"I- 74"},"geometry":{"type":"Point","coordinates":[-88.64698840619202,40.261821984420415]}},{"type":"Feature","properties":{"id":"1104492838373","name":"I- 395"},"geometry":{"type":"Point","coordinates":[-77.0379805,38.8760255]}},{"type":"Feature","properties":{"id":"1108296489047","name":"US Hwy 158"},"geometry":{"type":"Point","coordinates":[-80.2130479791947,36.096517003980324]}},{"type":"Feature","properties":{"id":"1108463533615","name":"US Hwy 71 Alt"},"geometry":{"type":"Point","coordinates":[-94.312586,37.080064500000006]}},{"type":"Feature","properties":{"id":"1108296281756","name":"US Hwy 71 Bus"},"geometry":{"type":"Point","coordinates":[-94.1610445,36.113066]}},{"type":"Feature","properties":{"id":"1103999663423","name":"I- 485"},"geometry":{"type":"Point","coordinates":[-80.80019762752255,35.06298311054074]}},{"type":"Feature","properties":{"id":"1104476645879","name":"I- 490"},"geometry":{"type":"Point","coordinates":[-77.67843760278184,43.1577753030636]}},{"type":"Feature","properties":{"id":"110169057214","name":"I- 590"},"geometry":{"type":"Point","coordinates":[-77.56238566426129,43.10889079714766]}},{"type":"Feature","properties":{"id":"1109097926937","name":"I- 610"},"geometry":{"type":"Point","coordinates":[-95.44600937575458,29.67960890248822]}},{"type":"Feature","properties":{"id":"1106087441224","name":"I- 676"},"geometry":{"type":"Point","coordinates":[-75.1127452804162,39.93231724886476]}},{"type":"Feature","properties":{"id":"1108296491564","name":"US Hwy 131 Bus"},"geometry":{"type":"Point","coordinates":[-85.63104378142269,42.32455475375044]}},{"type":"Feature","properties":{"id":"1104487239695","name":"E I- 30"},"geometry":{"type":"Point","coordinates":[-96.55909897898938,32.85497224101902]}},{"type":"Feature","properties":{"id":"1104338612565","name":"I- 35 N"},"geometry":{"type":"Point","coordinates":[-97.17862600000001,33.3102795]}},{"type":"Feature","properties":{"id":"1105598258035","name":"I- 35 E"},"geometry":{"type":"Point","coordinates":[-96.83900016522193,32.80602822145355]}},{"type":"Feature","properties":{"id":"11072243203","name":"I- 59"},"geometry":{"type":"Point","coordinates":[-87.91948735394368,32.87111740983466]}},{"type":"Feature","properties":{"id":"1104486158611","name":"I- 10 W"},"geometry":{"type":"Point","coordinates":[-93.89905296101037,30.13102185230617]}},{"type":"Feature","properties":{"id":"1107277040270","name":"I- 170"},"geometry":{"type":"Point","coordinates":[-90.34395734180117,38.702177647872375]}},{"type":"Feature","properties":{"id":"1104991826539","name":"I- 495"},"geometry":{"type":"Point","coordinates":[-73.919697,40.7324895]}},{"type":"Feature","properties":{"id":"11013782267554","name":"US Hwy 41 Bus"},"geometry":{"type":"Point","coordinates":[-82.44741778583521,27.954203722848362]}},{"type":"Feature","properties":{"id":"110758211313","name":"US Hwy 50 Bus"},"geometry":{"type":"Point","coordinates":[-104.60575299999999,38.2833925]}},{"type":"Feature","properties":{"id":"1105598240659","name":"I- 75"},"geometry":{"type":"Point","coordinates":[-84.55781436604592,39.05091156629941]}},{"type":"Feature","properties":{"id":"110407614826","name":"I- 394"},"geometry":{"type":"Point","coordinates":[-93.3602733479798,44.97072167760508]}},{"type":"Feature","properties":{"id":"110483048988","name":"I- 43"},"geometry":{"type":"Point","coordinates":[-87.75893833366652,43.71231702603581]}},{"type":"Feature","properties":{"id":"11013167503559","name":"US Hwy 35"},"geometry":{"type":"Point","coordinates":[-83.02707857984377,39.37097734187427]}},{"type":"Feature","properties":{"id":"1101221469758","name":"US Hwy 95"},"geometry":{"type":"Point","coordinates":[-114.38754444377916,33.64094324035007]}},{"type":"Feature","properties":{"id":"1104474350385","name":"US Hwy 311 Byp"},"geometry":{"type":"Point","coordinates":[-79.87581168582065,35.85141686452823]}},{"type":"Feature","properties":{"id":"1105640135319","name":"US Hwy 52"},"geometry":{"type":"Point","coordinates":[-80.41506285704872,35.67888657917666]}},{"type":"Feature","properties":{"id":"1104486413111","name":"I- 105"},"geometry":{"type":"Point","coordinates":[-123.08064982091476,44.06157389748797]}},{"type":"Feature","properties":{"id":"1108296490384","name":"US Hwy 311"},"geometry":{"type":"Point","coordinates":[-80.11226903307599,36.040180731733855]}},{"type":"Feature","properties":{"id":"1108296490995","name":"US Hwy 321"},"geometry":{"type":"Point","coordinates":[-81.30080378996729,35.63907804039067]}},{"type":"Feature","properties":{"id":"11017128870842","name":"US Hwy 264"},"geometry":{"type":"Point","coordinates":[-77.437978,35.60763]}},{"type":"Feature","properties":{"id":"1108296489754","name":"US Hwy 2"},"geometry":{"type":"Point","coordinates":[-94.88464162593459,47.44397856538578]}},{"type":"Feature","properties":{"id":"1109096798472","name":"US Hwy 290"},"geometry":{"type":"Point","coordinates":[-95.67687546029458,29.95546798460127]}},{"type":"Feature","properties":{"id":"1108296489895","name":"US Hwy 441"},"geometry":{"type":"Point","coordinates":[-83.35707942234008,33.946326948179106]}},{"type":"Feature","properties":{"id":"11010865937134","name":"I- 820"},"geometry":{"type":"Point","coordinates":[-97.21990888795781,32.750043525035814]}},{"type":"Feature","properties":{"id":"110323498912","name":"I- 126"},"geometry":{"type":"Point","coordinates":[-81.08135958926339,34.015749552119104]}},{"type":"Feature","properties":{"id":"1102988120394","name":"I- 240"},"geometry":{"type":"Point","coordinates":[-97.42915617888136,35.38929983848355]}},{"type":"Feature","properties":{"id":"11015496564270","name":"I- 65"},"geometry":{"type":"Point","coordinates":[-86.16510331196824,39.79624304073656]}},{"type":"Feature","properties":{"id":"1108296492227","name":"US Hwy 17"},"geometry":{"type":"Point","coordinates":[-77.98403828047749,34.23417386081143]}},{"type":"Feature","properties":{"id":"1104473135781","name":"US Hwy 385"},"geometry":{"type":"Point","coordinates":[-102.74920597819819,30.889806679582815]}},{"type":"Feature","properties":{"id":"11012814431583","name":"US Hwy 123"},"geometry":{"type":"Point","coordinates":[-82.70872611258935,34.74981499071147]}},{"type":"Feature","properties":{"id":"1108296512952","name":"US Hwy 378"},"geometry":{"type":"Point","coordinates":[-80.2984,33.921546]}},{"type":"Feature","properties":{"id":"1108296488726","name":"US Hwy 421 N"},"geometry":{"type":"Point","coordinates":[-79.48789713903821,35.769267129108194]}},{"type":"Feature","properties":{"id":"110168002709","name":"I- 280"},"geometry":{"type":"Point","coordinates":[-90.37901548374433,41.4586296540261]}},{"type":"Feature","properties":{"id":"1105598256262","name":"I- 380"},"geometry":{"type":"Point","coordinates":[-92.18868719437322,42.43905340868355]}},{"type":"Feature","properties":{"id":"11015481916520","name":"I- 515"},"geometry":{"type":"Point","coordinates":[-115.08211033647132,36.111862698954276]}},{"type":"Feature","properties":{"id":"11013782129183","name":"I- 670"},"geometry":{"type":"Point","coordinates":[-82.98319494303207,39.97500091403416]}},{"type":"Feature","properties":{"id":"1101042214311","name":"I- 684"},"geometry":{"type":"Point","coordinates":[-73.67688634626417,41.238422340772175]}},{"type":"Feature","properties":{"id":"1108296491410","name":"US Hwy 10 N"},"geometry":{"type":"Point","coordinates":[-94.15348151242452,45.60227514140434]}},{"type":"Feature","properties":{"id":"11010935596108","name":"US Hwy 176"},"geometry":{"type":"Point","coordinates":[-81.9618131249893,34.98745696901057]}},{"type":"Feature","properties":{"id":"1108296491143","name":"US Hwy 280"},"geometry":{"type":"Point","coordinates":[-84.91033883122287,32.404675492794325]}},{"type":"Feature","properties":{"id":"1108296489937","name":"US Rte 50"},"geometry":{"type":"Point","coordinates":[-82.92330150000001,39.3086005]}},{"type":"Feature","properties":{"id":"11010935596512","name":"I- 90 Bus"},"geometry":{"type":"Point","coordinates":[-112.5597645,46.0045145]}},{"type":"Feature","properties":{"id":"1104476023297","name":"I- 990"},"geometry":{"type":"Point","coordinates":[-78.7712492922298,43.026367696631425]}},{"type":"Feature","properties":{"id":"110223633720","name":"US Hwy 222"},"geometry":{"type":"Point","coordinates":[-76.037921,40.244688]}},{"type":"Feature","properties":{"id":"11075909551","name":"US Hwy 37"},"geometry":{"type":"Point","coordinates":[-86.0308467177153,39.81251651563528]}},{"type":"Feature","properties":{"id":"11012877854978","name":"US Hwy 401 Bus"},"geometry":{"type":"Point","coordinates":[-78.89181000192546,35.060145417738326]}},{"type":"Feature","properties":{"id":"110480461398","name":"I- 471"},"geometry":{"type":"Point","coordinates":[-84.50149638846796,39.1046714895499]}},{"type":"Feature","properties":{"id":"1105642725632","name":"I- 93"},"geometry":{"type":"Point","coordinates":[-71.0602683123246,42.329430607456985]}},{"type":"Feature","properties":{"id":"1106087978016","name":"US Hwy 522"},"geometry":{"type":"Point","coordinates":[-78.18706692116001,39.71601430592491]}},{"type":"Feature","properties":{"id":"1104486182885","name":"US Hwy 59"},"geometry":{"type":"Point","coordinates":[-95.3499915,29.7639155]}},{"type":"Feature","properties":{"id":"1109097123614","name":"US Rte 36"},"geometry":{"type":"Point","coordinates":[-83.37550537592531,40.25369650166596]}},{"type":"Feature","properties":{"id":"1108296489584","name":"US Hwy 25 Byp"},"geometry":{"type":"Point","coordinates":[-84.503556,38.074818]}},{"type":"Feature","properties":{"id":"1105048130668","name":"Old US Hwy 421"},"geometry":{"type":"Point","coordinates":[-86.04942199999999,39.733164]}},{"type":"Feature","properties":{"id":"1108296487989","name":"US Hwy 90 Bus"},"geometry":{"type":"Point","coordinates":[-90.04038029393517,29.936583909257465]}},{"type":"Feature","properties":{"id":"11013551963707","name":"US Hwy 395"},"geometry":{"type":"Point","coordinates":[-119.7405257928887,39.174199654582026]}},{"type":"Feature","properties":{"id":"1106081417240","name":"I- 705"},"geometry":{"type":"Point","coordinates":[-122.43509080565104,47.249488200584345]}},{"type":"Feature","properties":{"id":"11014061396544","name":"I- 73"},"geometry":{"type":"Point","coordinates":[-79.91982406142549,36.2145671763055]}},{"type":"Feature","properties":{"id":"11063939099","name":"I- 69"},"geometry":{"type":"Point","coordinates":[-83.22379162129427,43.008282622115644]}},{"type":"Feature","properties":{"id":"1104340794764","name":"I- 20 W"},"geometry":{"type":"Point","coordinates":[-95.63478382003264,32.503915919240946]}},{"type":"Feature","properties":{"id":"110696911428","name":"I- 780"},"geometry":{"type":"Point","coordinates":[-122.18561296763035,38.07168407819894]}},{"type":"Feature","properties":{"id":"1108475829222","name":"I- 176"},"geometry":{"type":"Point","coordinates":[-75.898594,40.3057535]}},{"type":"Feature","properties":{"id":"1102217714339","name":"I- 182"},"geometry":{"type":"Point","coordinates":[-119.29900907820455,46.25599753781095]}},{"type":"Feature","properties":{"id":"11063683418","name":"I- 275"},"geometry":{"type":"Point","coordinates":[-83.43213750000001,42.4550135]}},{"type":"Feature","properties":{"id":"11012815191175","name":"I- 11"},"geometry":{"type":"Point","coordinates":[-114.88360589093686,35.94524103181432]}},{"type":"Feature","properties":{"id":"11063683554","name":"I- 696"},"geometry":{"type":"Point","coordinates":[-83.27037822387246,42.485409851062634]}},{"type":"Feature","properties":{"id":"1104490195566","name":"I- 635"},"geometry":{"type":"Point","coordinates":[-96.7611665826106,32.923860471718754]}},{"type":"Feature","properties":{"id":"1108296282527","name":"I- 80 Bus"},"geometry":{"type":"Point","coordinates":[-121.431954456735,38.60700797550561]}},{"type":"Feature","properties":{"id":"1106039420755","name":"US Hwy 19W"},"geometry":{"type":"Point","coordinates":[-82.4842,36.091956999999994]}},{"type":"Feature","properties":{"id":"110745266485","name":"US Hwy 460 Alt"},"geometry":{"type":"Point","coordinates":[-76.31998902121515,36.82790606370466]}},{"type":"Feature","properties":{"id":"1104484232243","name":"I- 390"},"geometry":{"type":"Point","coordinates":[-77.83881401498023,42.73912735869874]}},{"type":"Feature","properties":{"id":"1105598223425","name":"US Hwy 30"},"geometry":{"type":"Point","coordinates":[-113.683677,42.568684000000005]}},{"type":"Feature","properties":{"id":"11013165518036","name":"US Hwy 71"},"geometry":{"type":"Point","coordinates":[-94.35806889157662,38.264609810733944]}},{"type":"Feature","properties":{"id":"110158252875","name":"US Hwy 421"},"geometry":{"type":"Point","coordinates":[-84.34495,37.888020999999995]}},{"type":"Feature","properties":{"id":"11015692411876","name":"US Hwy 79"},"geometry":{"type":"Point","coordinates":[-90.071616,35.1264555]}},{"type":"Feature","properties":{"id":"1108296489901","name":"US Hwy 278"},"geometry":{"type":"Point","coordinates":[-89.51876361223007,34.35525715141464]}},{"type":"Feature","properties":{"id":"11014866680982","name":"US Hwy 412"},"geometry":{"type":"Point","coordinates":[-97.17634546466505,36.39323346488205]}},{"type":"Feature","properties":{"id":"11013782383932","name":"US Hwy 53"},"geometry":{"type":"Point","coordinates":[-91.45491318530239,44.80713964381674]}},{"type":"Feature","properties":{"id":"110550699348","name":"US Hwy 35 NW"},"geometry":{"type":"Point","coordinates":[-83.4771355,39.541197999999994]}},{"type":"Feature","properties":{"id":"11013554231456","name":"US Hwy 12"},"geometry":{"type":"Point","coordinates":[-120.26359173741876,46.39914181060492]}},{"type":"Feature","properties":{"id":"1108296491589","name":"US Hwy 400"},"geometry":{"type":"Point","coordinates":[-97.925521,37.668105]}},{"type":"Feature","properties":{"id":"1105074533745","name":"I- 184"},"geometry":{"type":"Point","coordinates":[-116.24994833339312,43.61763102918976]}},{"type":"Feature","properties":{"id":"110440453506","name":"I- 185"},"geometry":{"type":"Point","coordinates":[-85.01749282323189,32.73986528829591]}},{"type":"Feature","properties":{"id":"1109097514536","name":"I- 14"},"geometry":{"type":"Point","coordinates":[-97.823201,31.122172]}},{"type":"Feature","properties":{"id":"110793767781","name":"I- 244"},"geometry":{"type":"Point","coordinates":[-95.9539556302637,36.159328851136124]}},{"type":"Feature","properties":{"id":"1106087768453","name":"I- 410"},"geometry":{"type":"Point","coordinates":[-98.4064865437832,29.33899245746525]}},{"type":"Feature","properties":{"id":"110192194545","name":"I- 496"},"geometry":{"type":"Point","coordinates":[-84.629888,42.7208675]}},{"type":"Feature","properties":{"id":"110373279166","name":"I- 585"},"geometry":{"type":"Point","coordinates":[-81.952664,34.9814195]}},{"type":"Feature","properties":{"id":"1104486329952","name":"I- 68"},"geometry":{"type":"Point","coordinates":[-78.2552570268854,39.70324870430362]}},{"type":"Feature","properties":{"id":"1104485567591","name":"I- 710"},"geometry":{"type":"Point","coordinates":[-118.18664649182062,33.901612361037394]}},{"type":"Feature","properties":{"id":"110696911360","name":"I- 505"},"geometry":{"type":"Point","coordinates":[-121.94171763099334,38.451911076470545]}},{"type":"Feature","properties":{"id":"1104255692636","name":"I- 759"},"geometry":{"type":"Point","coordinates":[-86.04409496941688,33.993004156369935]}},{"type":"Feature","properties":{"id":"1108296492041","name":"US Hwy 26 Byp"},"geometry":{"type":"Point","coordinates":[-106.375321,42.8637185]}},{"type":"Feature","properties":{"id":"1108405277639","name":"US Hwy 340"},"geometry":{"type":"Point","coordinates":[-77.54895246436767,39.35786988911211]}},{"type":"Feature","properties":{"id":"1108296489624","name":"US Hwy 151"},"geometry":{"type":"Point","coordinates":[-91.68915700392128,41.93080004090309]}},{"type":"Feature","properties":{"id":"110457248344","name":"US Hwy 130"},"geometry":{"type":"Point","coordinates":[-75.2288944518962,39.82538744781686]}},{"type":"Feature","properties":{"id":"1108296491767","name":"US Hwy 58"},"geometry":{"type":"Point","coordinates":[-76.58317209547803,36.76616494842911]}},{"type":"Feature","properties":{"id":"1104486304303","name":"I- 83"},"geometry":{"type":"Point","coordinates":[-76.71488299169108,39.97928965458259]}},{"type":"Feature","properties":{"id":"11013782383943","name":"I- 88"},"geometry":{"type":"Point","coordinates":[-75.36375095966423,42.31002414945714]}},{"type":"Feature","properties":{"id":"110789244595","name":"I- 890"},"geometry":{"type":"Point","coordinates":[-73.9322025,42.757474]}},{"type":"Feature","properties":{"id":"11013782356408","name":"US Hwy 175"},"geometry":{"type":"Point","coordinates":[-96.64157487849862,32.69662534784639]}},{"type":"Feature","properties":{"id":"1104257627633","name":"I- 27 N"},"geometry":{"type":"Point","coordinates":[-101.83597602626716,33.68010585543724]}},{"type":"Feature","properties":{"id":"110441687486","name":"I- 27 S"},"geometry":{"type":"Point","coordinates":[-101.8362105195508,33.67909525799972]}},{"type":"Feature","properties":{"id":"1104485277346","name":"I- 45-Hov"},"geometry":{"type":"Point","coordinates":[-95.26928168083074,29.677134426202397]}},{"type":"Feature","properties":{"id":"1101169226216","name":"I- 95 Hov"},"geometry":{"type":"Point","coordinates":[-77.29429581912072,38.62557128021492]}},{"type":"Feature","properties":{"id":"1107120056054","name":"I- 269"},"geometry":{"type":"Point","coordinates":[-89.85256364497342,34.86872900710346]}},{"type":"Feature","properties":{"id":"1104486329698","name":"I- 238"},"geometry":{"type":"Point","coordinates":[-122.11603788059215,37.690225681294024]}},{"type":"Feature","properties":{"id":"1106081769482","name":"I- 478"},"geometry":{"type":"Point","coordinates":[-74.0047565,40.6809815]}},{"type":"Feature","properties":{"id":"11015780249296","name":"US Rte 17"},"geometry":{"type":"Point","coordinates":[-76.28824044781003,36.743841485723244]}},{"type":"Feature","properties":{"id":"1104474984225","name":"I- 865"},"geometry":{"type":"Point","coordinates":[-86.29929288317143,39.93116205637901]}},{"type":"Feature","properties":{"id":"11010935596243","name":"I- 115"},"geometry":{"type":"Point","coordinates":[-112.5597645,46.0045145]}},{"type":"Feature","properties":{"id":"1104485720380","name":"US Rte 30 Byp"},"geometry":{"type":"Point","coordinates":[-76.6626355,39.9890045]}},{"type":"Feature","properties":{"id":"1104701919060","name":"I- 279 Hov"},"geometry":{"type":"Point","coordinates":[-80.00744407352767,40.47629843806279]}},{"type":"Feature","properties":{"id":"1101432663384","name":"US Rte 95"},"geometry":{"type":"Point","coordinates":[-114.6673960152035,34.88057100583041]}},{"type":"Feature","properties":{"id":"110198974629","name":"I- 94 Bus Lp"},"geometry":{"type":"Point","coordinates":[-84.476352,42.260050500000006]}},{"type":"Feature","properties":{"id":"1105281275726","name":"I- 93 Sb Hov Lane"},"geometry":{"type":"Point","coordinates":[-71.062346,42.3398835]}},{"type":"Feature","properties":{"id":"1104755566645","name":"I- 93 Nb Hov Lane"},"geometry":{"type":"Point","coordinates":[-71.0622825,42.342237999999995]}},{"type":"Feature","properties":{"id":"1104486823377","name":"I- 480N"},"geometry":{"type":"Point","coordinates":[-81.522677,41.426251500000006]}},{"type":"Feature","properties":{"id":"110451041661","name":"I- 395 Hov"},"geometry":{"type":"Point","coordinates":[-77.0837015,38.841929]}},{"type":"Feature","properties":{"id":"1105535076878","name":"US Hwy 59 Hov"},"geometry":{"type":"Point","coordinates":[-95.3395285,29.806967]}},{"type":"Feature","properties":{"id":"1108296487390","name":"I- 196 Bus Lp"},"geometry":{"type":"Point","coordinates":[-86.1322755,42.7423115]}},{"type":"Feature","properties":{"id":"1104486182669","name":"I- 271 Express Lane"},"geometry":{"type":"Point","coordinates":[-81.47434969269565,41.50457964425682]}},{"type":"Feature","properties":{"id":"1104257707444","name":"I- H-201"},"geometry":{"type":"Point","coordinates":[-157.90046504325144,21.358807595387102]}},{"type":"Feature","properties":{"id":"1104485308221","name":"I- 579 Hov"},"geometry":{"type":"Point","coordinates":[-79.9934024869808,40.450970317119335]}},{"type":"Feature","properties":{"id":"1104492786366","name":"I- 30 Hov"},"geometry":{"type":"Point","coordinates":[-97.093162,32.759671]}},{"type":"Feature","properties":{"id":"1108311364728","name":"US Rte 44"},"geometry":{"type":"Point","coordinates":[-70.75106935118983,41.95803062968851]}},{"type":"Feature","properties":{"id":"1105007648747","name":"I- 895B"},"geometry":{"type":"Point","coordinates":[-76.62451394858579,39.214993817474145]}},{"type":"Feature","properties":{"id":"1105007623759","name":"I- 895A"},"geometry":{"type":"Point","coordinates":[-76.62857,39.205602]}},{"type":"Feature","properties":{"id":"1105061248705","name":"I- 5 Local Byp"},"geometry":{"type":"Point","coordinates":[-117.22885503289717,32.911299359056656]}},{"type":"Feature","properties":{"id":"1108296485480","name":"US Hwy 62 Truck"},"geometry":{"type":"Point","coordinates":[-81.13838532202494,40.92400317352865]}},{"type":"Feature","properties":{"id":"1105045767327","name":"I- 495 Express Lane"},"geometry":{"type":"Point","coordinates":[-77.22069027231615,38.869334063789125]}},{"type":"Feature","properties":{"id":"1108296491639","name":"I- 376 Bus"},"geometry":{"type":"Point","coordinates":[-80.2541646146923,40.509495352981446]}},{"type":"Feature","properties":{"id":"1108296487988","name":"US Hwy 90Z Bus"},"geometry":{"type":"Point","coordinates":[-90.07509030140098,29.94411471021926]}},{"type":"Feature","properties":{"id":"1104691861293","name":"US Hwy 98 Truck"},"geometry":{"type":"Point","coordinates":[-88.05768259106517,30.715224218321794]}},{"type":"Feature","properties":{"id":"1105089120959","name":"I- 95 Express Toll"},"geometry":{"type":"Point","coordinates":[-80.20906682308532,25.874520247036415]}},{"type":"Feature","properties":{"id":"1105321332941","name":"I- 69C"},"geometry":{"type":"Point","coordinates":[-98.14612136473072,26.30462564653774]}},{"type":"Feature","properties":{"id":"1105533824557","name":"I- 69 Hov"},"geometry":{"type":"Point","coordinates":[-95.3514765,29.761741]}},{"type":"Feature","properties":{"id":"1106067279911","name":"I- 555"},"geometry":{"type":"Point","coordinates":[-90.4807420748758,35.537537484147684]}},{"type":"Feature","properties":{"id":"1106039346059","name":"I- 69E"},"geometry":{"type":"Point","coordinates":[-97.49091859610822,25.922459619344625]}},{"type":"Feature","properties":{"id":"1105577462377","name":"I- 781"},"geometry":{"type":"Point","coordinates":[-75.87687027670054,44.058589605511735]}},{"type":"Feature","properties":{"id":"1108296281683","name":"US Hwy 60 (Hov)"},"geometry":{"type":"Point","coordinates":[-111.9633875898512,33.387768576664264]}},{"type":"Feature","properties":{"id":"1104693057747","name":"I- 64 (Express Lanes)"},"geometry":{"type":"Point","coordinates":[-76.21994638506277,36.88349082754092]}},{"type":"Feature","properties":{"id":"1109097272624","name":"I- 820 (Express Lanes)"},"geometry":{"type":"Point","coordinates":[-97.21621093930672,32.83337311008932]}},{"type":"Feature","properties":{"id":"11012815134136","name":"I- 10 (Hov)"},"geometry":{"type":"Point","coordinates":[-95.450895,29.779311999999997]}},{"type":"Feature","properties":{"id":"11013551329905","name":"I- 25 (Express Lanes)"},"geometry":{"type":"Point","coordinates":[-104.98988882143895,39.774206329154495]}},{"type":"Feature","properties":{"id":"11029550566589","name":"I- 169"},"geometry":{"type":"Point","coordinates":[-97.40763638863795,25.96472689300174]}},{"type":"Feature","properties":{"id":"11029550566583","name":"I- 69 Spr"},"geometry":{"type":"Point","coordinates":[-97.46631531086265,26.00144149333562]}}]}