{"type":"FeatureCollection","features":[{"type":"Feature","properties":{"id":"cn-airport-上海浦东","name":"上海/浦东","passengers":84994548,"passenger_rank":1,"source_region":null,"importance_rank":3,"importance":"national_core","airport_type":"national","status_category":"active"},"geometry":{"type":"Point","coordinates":[121.8148024,31.1426648]}},{"type":"Feature","properties":{"id":"cn-airport-广州白云","name":"广州/白云","passengers":83582952,"passenger_rank":2,"source_region":null,"importance_rank":3,"importance":"national_core","airport_type":"national","status_category":"active"},"geometry":{"type":"Point","coordinates":[113.3016995,23.3862158]}},{"type":"Feature","properties":{"id":"cn-airport-北京首都","name":"北京/首都","passengers":70742712,"passenger_rank":3,"source_region":null,"importance_rank":3,"importance":"national_core","airport_type":"national","status_category":"active"},"geometry":{"type":"Point","coordinates":[116.5938286,40.0803339]}},{"type":"Feature","properties":{"id":"cn-airport-深圳宝安","name":"深圳/宝安","passengers":66485213,"passenger_rank":4,"source_region":null,"importance_rank":3,"importance":"national_core","airport_type":"national","status_category":"active"},"geometry":{"type":"Point","coordinates":[113.8045399,22.63769]}},{"type":"Feature","properties":{"id":"cn-airport-成都天府","name":"成都/天府","passengers":56686738,"passenger_rank":5,"source_region":null,"importance_rank":3,"importance":"national_core","airport_type":"national","status_category":"active"},"geometry":{"type":"Point","coordinates":[104.4577774,30.3035491]}},{"type":"Feature","properties":{"id":"cn-airport-北京大兴","name":"北京/大兴","passengers":53618949,"passenger_rank":6,"source_region":null,"importance_rank":3,"importance":"national_core","airport_type":"national","status_category":"active"},"geometry":{"type":"Point","coordinates":[116.4313575,39.4972686]}},{"type":"Feature","properties":{"id":"cn-airport-杭州萧山","name":"杭州/萧山","passengers":50459018,"passenger_rank":7,"source_region":null,"importance_rank":3,"importance":"national_core","airport_type":"national","status_category":"active"},"geometry":{"type":"Point","coordinates":[120.4292516,30.2366743]}},{"type":"Feature","properties":{"id":"cn-airport-上海虹桥","name":"上海/虹桥","passengers":50151025,"passenger_rank":8,"source_region":null,"importance_rank":3,"importance":"national_core","airport_type":"national","status_category":"active"},"geometry":{"type":"Point","coordinates":[121.3342185,31.19765]}},{"type":"Feature","properties":{"id":"cn-airport-重庆江北","name":"重庆/江北","passengers":50094770,"passenger_rank":9,"source_region":null,"importance_rank":3,"importance":"national_core","airport_type":"national","status_category":"active"},"geometry":{"type":"Point","coordinates":[106.6561949,29.7266639]}},{"type":"Feature","properties":{"id":"cn-airport-昆明长水","name":"昆明/长水","passengers":49705725,"passenger_rank":10,"source_region":null,"importance_rank":3,"importance":"national_core","airport_type":"national","status_category":"active"},"geometry":{"type":"Point","coordinates":[102.9391513,25.1087531]}},{"type":"Feature","properties":{"id":"cn-airport-西安咸阳","name":"西安/咸阳","passengers":48535594,"passenger_rank":11,"source_region":null,"importance_rank":3,"importance":"national_core","airport_type":"national","status_category":"active"},"geometry":{"type":"Point","coordinates":[108.7601227,34.4423416]}},{"type":"Feature","properties":{"id":"cn-airport-成都双流","name":"成都/双流","passengers":33518945,"passenger_rank":12,"source_region":null,"importance_rank":3,"importance":"national_core","airport_type":"national","status_category":"active"},"geometry":{"type":"Point","coordinates":[103.9463289,30.5546804]}},{"type":"Feature","properties":{"id":"cn-airport-南京禄口","name":"南京/禄口","passengers":31378166,"passenger_rank":13,"source_region":null,"importance_rank":3,"importance":"national_core","airport_type":"national","status_category":"active"},"geometry":{"type":"Point","coordinates":[118.863455,31.7318524]}},{"type":"Feature","properties":{"id":"cn-airport-武汉天河","name":"武汉/天河","passengers":31339277,"passenger_rank":14,"source_region":null,"importance_rank":3,"importance":"national_core","airport_type":"national","status_category":"active"},"geometry":{"type":"Point","coordinates":[114.2181778,30.775834]}},{"type":"Feature","properties":{"id":"cn-airport-长沙黄花","name":"长沙/黄花","passengers":30253675,"passenger_rank":15,"source_region":null,"importance_rank":3,"importance":"national_core","airport_type":"national","status_category":"active"},"geometry":{"type":"Point","coordinates":[113.22122,28.1900429]}},{"type":"Feature","properties":{"id":"cn-airport-厦门高崎","name":"厦门/高崎","passengers":29193712,"passenger_rank":16,"source_region":null,"importance_rank":3,"importance":"national_core","airport_type":"national","status_category":"active"},"geometry":{"type":"Point","coordinates":[118.1296792,24.5438468]}},{"type":"Feature","properties":{"id":"cn-airport-郑州新郑","name":"郑州/新郑","passengers":29191990,"passenger_rank":17,"source_region":null,"importance_rank":3,"importance":"national_core","airport_type":"national","status_category":"active"},"geometry":{"type":"Point","coordinates":[113.8509996,34.5283609]}},{"type":"Feature","properties":{"id":"cn-airport-青岛胶东","name":"青岛/胶东","passengers":26896534,"passenger_rank":19,"source_region":null,"importance_rank":3,"importance":"national_core","airport_type":"national","status_category":"active"},"geometry":{"type":"Point","coordinates":[120.0885101,36.3607113]}},{"type":"Feature","properties":{"id":"cn-airport-海口美兰","name":"海口/美兰","passengers":26851102,"passenger_rank":20,"source_region":null,"importance_rank":3,"importance":"national_core","airport_type":"national","status_category":"active"},"geometry":{"type":"Point","coordinates":[110.4625001,19.944273]}},{"type":"Feature","properties":{"id":"cn-airport-沈阳桃仙","name":"沈阳/桃仙","passengers":24938062,"passenger_rank":21,"source_region":null,"importance_rank":3,"importance":"national_core","airport_type":"national","status_category":"active"},"geometry":{"type":"Point","coordinates":[123.486593,41.6370098]}},{"type":"Feature","properties":{"id":"cn-airport-哈尔滨太平","name":"哈尔滨/太平","passengers":24650717,"passenger_rank":22,"source_region":null,"importance_rank":3,"importance":"national_core","airport_type":"national","status_category":"active"},"geometry":{"type":"Point","coordinates":[126.2356573,45.6057108]}},{"type":"Feature","properties":{"id":"cn-airport-贵阳龙洞堡","name":"贵阳/龙洞堡","passengers":22731681,"passenger_rank":23,"source_region":null,"importance_rank":3,"importance":"national_core","airport_type":"national","status_category":"active"},"geometry":{"type":"Point","coordinates":[106.8024027,26.5411039]}},{"type":"Feature","properties":{"id":"cn-airport-三亚凤凰","name":"三亚/凤凰","passengers":22685734,"passenger_rank":24,"source_region":null,"importance_rank":3,"importance":"national_core","airport_type":"national","status_category":"active"},"geometry":{"type":"Point","coordinates":[109.414719,18.304801]}},{"type":"Feature","properties":{"id":"cn-airport-济南遥墙","name":"济南/遥墙","passengers":20329972,"passenger_rank":25,"source_region":null,"importance_rank":3,"importance":"national_core","airport_type":"national","status_category":"active"},"geometry":{"type":"Point","coordinates":[117.2112613,36.8532671]}},{"type":"Feature","properties":{"id":"cn-airport-天津滨海","name":"天津/滨海","passengers":19862196,"passenger_rank":26,"source_region":null,"importance_rank":3,"importance":"national_core","airport_type":"national","status_category":"active"},"geometry":{"type":"Point","coordinates":[117.3541809,39.1273446]}},{"type":"Feature","properties":{"id":"cn-airport-大连周水子","name":"大连/周水子","passengers":19787716,"passenger_rank":27,"source_region":null,"importance_rank":3,"importance":"national_core","airport_type":"national","status_category":"active"},"geometry":{"type":"Point","coordinates":[121.5379963,38.9641247]}},{"type":"Feature","properties":{"id":"cn-airport-长春龙嘉","name":"长春/龙嘉","passengers":17759299,"passenger_rank":28,"source_region":null,"importance_rank":3,"importance":"national_core","airport_type":"national","status_category":"active"},"geometry":{"type":"Point","coordinates":[125.6854512,43.9965172]}},{"type":"Feature","properties":{"id":"cn-airport-兰州中川","name":"兰州/中川","passengers":17734885,"passenger_rank":29,"source_region":null,"importance_rank":3,"importance":"national_core","airport_type":"national","status_category":"active"},"geometry":{"type":"Point","coordinates":[103.6321138,36.5190294]}},{"type":"Feature","properties":{"id":"cn-airport-宁波栎社","name":"宁波/栎社","passengers":16125459,"passenger_rank":30,"source_region":null,"importance_rank":3,"importance":"national_core","airport_type":"national","status_category":"active"},"geometry":{"type":"Point","coordinates":[121.4620568,29.8261804]}},{"type":"Feature","properties":{"id":"cn-airport-福州长乐","name":"福州/长乐","passengers":16117180,"passenger_rank":31,"source_region":null,"importance_rank":2,"importance":"regional_core","airport_type":"specific_local","status_category":"active"},"geometry":{"type":"Point","coordinates":[119.6650365,25.9358156]}},{"type":"Feature","properties":{"id":"cn-airport-太原武宿","name":"太原/武宿","passengers":14573546,"passenger_rank":32,"source_region":null,"importance_rank":2,"importance":"regional_core","airport_type":"specific_local","status_category":"active"},"geometry":{"type":"Point","coordinates":[112.6357196,37.7420708]}},{"type":"Feature","properties":{"id":"cn-airport-南宁吴圩","name":"南宁/吴圩","passengers":13502293,"passenger_rank":33,"source_region":null,"importance_rank":2,"importance":"regional_core","airport_type":"specific_local","status_category":"active"},"geometry":{"type":"Point","coordinates":[108.1827859,22.5979964]}},{"type":"Feature","properties":{"id":"cn-airport-珠海金湾","name":"珠海/金湾","passengers":13252642,"passenger_rank":34,"source_region":null,"importance_rank":2,"importance":"regional_core","airport_type":"specific_local","status_category":"active"},"geometry":{"type":"Point","coordinates":[113.3760323,22.0081474]}},{"type":"Feature","properties":{"id":"cn-airport-温州龙湾","name":"温州/龙湾","passengers":13058523,"passenger_rank":35,"source_region":null,"importance_rank":2,"importance":"regional_core","airport_type":"specific_local","status_category":"active"},"geometry":{"type":"Point","coordinates":[120.85019,27.9087027]}},{"type":"Feature","properties":{"id":"cn-airport-呼和浩特白塔","name":"呼和浩特/白塔","passengers":12722692,"passenger_rank":36,"source_region":null,"importance_rank":2,"importance":"regional_core","airport_type":"specific_local","status_category":"active"},"geometry":{"type":"Point","coordinates":[111.8223417,40.8503427]}},{"type":"Feature","properties":{"id":"cn-airport-合肥新桥","name":"合肥/新桥","passengers":12644989,"passenger_rank":37,"source_region":null,"importance_rank":2,"importance":"regional_core","airport_type":"specific_local","status_category":"active"},"geometry":{"type":"Point","coordinates":[116.9736202,31.9885603]}},{"type":"Feature","properties":{"id":"cn-airport-石家庄正定","name":"石家庄/正定","passengers":12014301,"passenger_rank":38,"source_region":null,"importance_rank":2,"importance":"regional_core","airport_type":"specific_local","status_category":"active"},"geometry":{"type":"Point","coordinates":[114.694973,38.2803612]}},{"type":"Feature","properties":{"id":"cn-airport-南昌昌北","name":"南昌/昌北","passengers":11936032,"passenger_rank":39,"source_region":null,"importance_rank":2,"importance":"regional_core","airport_type":"specific_local","status_category":"active"},"geometry":{"type":"Point","coordinates":[115.9071277,28.8618452]}},{"type":"Feature","properties":{"id":"cn-airport-无锡硕放","name":"无锡/硕放","passengers":10967778,"passenger_rank":40,"source_region":null,"importance_rank":2,"importance":"regional_core","airport_type":"specific_local","status_category":"active"},"geometry":{"type":"Point","coordinates":[120.4303868,31.4987509]}},{"type":"Feature","properties":{"id":"cn-airport-揭阳潮汕","name":"揭阳/潮汕","passengers":10228556,"passenger_rank":41,"source_region":null,"importance_rank":2,"importance":"regional_core","airport_type":"specific_local","status_category":"active"},"geometry":{"type":"Point","coordinates":[116.5045614,23.553393]}},{"type":"Feature","properties":{"id":"cn-airport-银川河东","name":"银川/河东","passengers":9860514,"passenger_rank":42,"source_region":null,"importance_rank":2,"importance":"regional_core","airport_type":"specific_local","status_category":"active"},"geometry":{"type":"Point","coordinates":[106.3905756,38.321069]}},{"type":"Feature","properties":{"id":"cn-airport-泉州晋江","name":"泉州/晋江","passengers":8852384,"passenger_rank":43,"source_region":null,"importance_rank":2,"importance":"regional_core","airport_type":"specific_local","status_category":"active"},"geometry":{"type":"Point","coordinates":[118.5888542,24.7968172]}},{"type":"Feature","properties":{"id":"cn-airport-丽江三义","name":"丽江/三义","passengers":8631218,"passenger_rank":44,"source_region":null,"importance_rank":2,"importance":"regional_core","airport_type":"specific_local","status_category":"active"},"geometry":{"type":"Point","coordinates":[100.2438323,26.6747606]}},{"type":"Feature","properties":{"id":"cn-airport-烟台蓬莱","name":"烟台/蓬莱","passengers":8036554,"passenger_rank":45,"source_region":null,"importance_rank":2,"importance":"regional_core","airport_type":"specific_local","status_category":"active"},"geometry":{"type":"Point","coordinates":[120.9789013,37.6602663]}},{"type":"Feature","properties":{"id":"cn-airport-西宁曹家堡","name":"西宁/曹家堡","passengers":7877903,"passenger_rank":46,"source_region":null,"importance_rank":2,"importance":"regional_core","airport_type":"specific_local","status_category":"active"},"geometry":{"type":"Point","coordinates":[102.0392638,36.5286221]}},{"type":"Feature","properties":{"id":"cn-airport-西双版纳嘎洒","name":"西双版纳/嘎洒","passengers":7711821,"passenger_rank":47,"source_region":null,"importance_rank":2,"importance":"regional_core","airport_type":"specific_local","status_category":"active"},"geometry":{"type":"Point","coordinates":[100.76255,21.9746685]}},{"type":"Feature","properties":{"id":"cn-airport-桂林两江","name":"桂林/两江","passengers":6504366,"passenger_rank":48,"source_region":null,"importance_rank":2,"importance":"regional_core","airport_type":"specific_local","status_category":"active"},"geometry":{"type":"Point","coordinates":[110.0433319,25.2222208]}},{"type":"Feature","properties":{"id":"cn-airport-拉萨贡嘎","name":"拉萨/贡嘎","passengers":6284823,"passenger_rank":49,"source_region":null,"importance_rank":2,"importance":"regional_core","airport_type":"specific_local","status_category":"active"},"geometry":{"type":"Point","coordinates":[90.908315,29.2962742]}},{"type":"Feature","properties":{"id":"cn-airport-喀什徕宁","name":"喀什/徕宁","passengers":5233499,"passenger_rank":50,"source_region":null,"importance_rank":2,"importance":"regional_core","airport_type":"specific_local","status_category":"active"},"geometry":{"type":"Point","coordinates":[76.0211175,39.5407582]}},{"type":"Feature","properties":{"id":"cn-airport-常州奔牛","name":"常州/奔牛","passengers":5139214,"passenger_rank":51,"source_region":null,"importance_rank":2,"importance":"regional_core","airport_type":"specific_local","status_category":"active"},"geometry":{"type":"Point","coordinates":[119.7751691,31.9185017]}},{"type":"Feature","properties":{"id":"cn-airport-扬州泰州","name":"扬州/泰州","passengers":4163596,"passenger_rank":52,"source_region":null,"importance_rank":2,"importance":"regional_core","airport_type":"specific_local","status_category":"active"},"geometry":{"type":"Point","coordinates":[119.7176387,32.5607087]}},{"type":"Feature","properties":{"id":"cn-airport-南通兴东","name":"南通/兴东","passengers":4161852,"passenger_rank":53,"source_region":null,"importance_rank":2,"importance":"regional_core","airport_type":"specific_local","status_category":"active"},"geometry":{"type":"Point","coordinates":[120.9783185,32.0720196]}},{"type":"Feature","properties":{"id":"cn-airport-徐州观音","name":"徐州/观音","passengers":4082736,"passenger_rank":54,"source_region":null,"importance_rank":2,"importance":"regional_core","airport_type":"specific_local","status_category":"active"},"geometry":{"type":"Point","coordinates":[117.5564213,34.0585171]}},{"type":"Feature","properties":{"id":"cn-airport-大理凤仪","name":"大理/凤仪","passengers":3750473,"passenger_rank":55,"source_region":null,"importance_rank":2,"importance":"regional_core","airport_type":"specific_local","status_category":"active"},"geometry":{"type":"Point","coordinates":[100.3198055,25.649768]}},{"type":"Feature","properties":{"id":"cn-airport-义乌","name":"义乌","passengers":3684507,"passenger_rank":56,"source_region":null,"importance_rank":2,"importance":"regional_core","airport_type":"specific_local","status_category":"active"},"geometry":{"type":"Point","coordinates":[120.0308765,29.3421485]}},{"type":"Feature","properties":{"id":"cn-airport-宜昌三峡","name":"宜昌/三峡","passengers":3406149,"passenger_rank":58,"source_region":null,"importance_rank":2,"importance":"regional_core","airport_type":"specific_local","status_category":"active"},"geometry":{"type":"Point","coordinates":[111.4840028,30.5532975]}},{"type":"Feature","properties":{"id":"cn-airport-惠州平潭","name":"惠州/平潭","passengers":3365186,"passenger_rank":59,"source_region":null,"importance_rank":2,"importance":"regional_core","airport_type":"specific_local","status_category":"active"},"geometry":{"type":"Point","coordinates":[114.600516,23.0517247]}},{"type":"Feature","properties":{"id":"cn-airport-绵阳南郊","name":"绵阳/南郊","passengers":3286383,"passenger_rank":60,"source_region":null,"importance_rank":2,"importance":"regional_core","airport_type":"specific_local","status_category":"active"},"geometry":{"type":"Point","coordinates":[104.7387365,31.4310916]}},{"type":"Feature","properties":{"id":"cn-airport-呼伦贝尔海拉尔","name":"呼伦贝尔/海拉尔","passengers":3239067,"passenger_rank":61,"source_region":null,"importance_rank":2,"importance":"regional_core","airport_type":"specific_local","status_category":"active"},"geometry":{"type":"Point","coordinates":[119.829077,49.2078987]}},{"type":"Feature","properties":{"id":"cn-airport-鄂尔多斯伊金霍洛","name":"鄂尔多斯/伊金霍洛","passengers":3201398,"passenger_rank":62,"source_region":null,"importance_rank":2,"importance":"regional_core","airport_type":"specific_local","status_category":"active"},"geometry":{"type":"Point","coordinates":[109.860416,39.4931555]}},{"type":"Feature","properties":{"id":"cn-airport-湛江吴川","name":"湛江/吴川","passengers":3122262,"passenger_rank":63,"source_region":null,"importance_rank":2,"importance":"regional_core","airport_type":"specific_local","status_category":"active"},"geometry":{"type":"Point","coordinates":[110.59204,21.483083]}},{"type":"Feature","properties":{"id":"cn-airport-榆林榆阳","name":"榆林/榆阳","passengers":3106499,"passenger_rank":64,"source_region":null,"importance_rank":2,"importance":"regional_core","airport_type":"specific_local","status_category":"active"},"geometry":{"type":"Point","coordinates":[109.5927813,38.3592952]}},{"type":"Feature","properties":{"id":"cn-airport-德宏芒市","name":"德宏/芒市","passengers":3075024,"passenger_rank":65,"source_region":null,"importance_rank":2,"importance":"regional_core","airport_type":"specific_local","status_category":"active"},"geometry":{"type":"Point","coordinates":[98.5311306,24.399817]}},{"type":"Feature","properties":{"id":"cn-airport-北海福成","name":"北海/福成","passengers":2955931,"passenger_rank":67,"source_region":null,"importance_rank":2,"importance":"regional_core","airport_type":"specific_local","status_category":"active"},"geometry":{"type":"Point","coordinates":[109.2933913,21.5393624]}},{"type":"Feature","properties":{"id":"cn-airport-威海大水泊","name":"威海/大水泊","passengers":2908096,"passenger_rank":68,"source_region":null,"importance_rank":2,"importance":"regional_core","airport_type":"specific_local","status_category":"active"},"geometry":{"type":"Point","coordinates":[122.2309891,37.1864149]}},{"type":"Feature","properties":{"id":"cn-airport-舟山普陀山","name":"舟山/普陀山","passengers":2888463,"passenger_rank":69,"source_region":null,"importance_rank":2,"importance":"regional_core","airport_type":"specific_local","status_category":"active"},"geometry":{"type":"Point","coordinates":[122.3608832,29.9348249]}},{"type":"Feature","properties":{"id":"cn-airport-运城盐湖","name":"运城/盐湖","passengers":2873454,"passenger_rank":70,"source_region":null,"importance_rank":2,"importance":"regional_core","airport_type":"specific_local","status_category":"active"},"geometry":{"type":"Point","coordinates":[111.0335525,35.1177639]}},{"type":"Feature","properties":{"id":"cn-airport-阿克苏红旗坡","name":"阿克苏/红旗坡","passengers":2778946,"passenger_rank":71,"source_region":null,"importance_rank":2,"importance":"regional_core","airport_type":"specific_local","status_category":"active"},"geometry":{"type":"Point","coordinates":[80.2907722,41.261938]}},{"type":"Feature","properties":{"id":"cn-airport-临沂启阳","name":"临沂/启阳","passengers":2467279,"passenger_rank":72,"source_region":null,"importance_rank":2,"importance":"regional_core","airport_type":"specific_local","status_category":"active"},"geometry":{"type":"Point","coordinates":[118.4092295,35.0530397]}},{"type":"Feature","properties":{"id":"cn-airport-台州路桥","name":"台州/路桥","passengers":2447367,"passenger_rank":73,"source_region":null,"importance_rank":2,"importance":"regional_core","airport_type":"specific_local","status_category":"active"},"geometry":{"type":"Point","coordinates":[121.4279375,28.562449]}},{"type":"Feature","properties":{"id":"cn-airport-泸州云龙","name":"泸州/云龙","passengers":2382039,"passenger_rank":74,"source_region":null,"importance_rank":2,"importance":"regional_core","airport_type":"specific_local","status_category":"active"},"geometry":{"type":"Point","coordinates":[105.4687202,29.0279278]}},{"type":"Feature","properties":{"id":"cn-airport-赣州黄金","name":"赣州/黄金","passengers":2235615,"passenger_rank":75,"source_region":null,"importance_rank":2,"importance":"regional_core","airport_type":"specific_local","status_category":"active"},"geometry":{"type":"Point","coordinates":[114.7795079,25.8537417]}},{"type":"Feature","properties":{"id":"cn-airport-宜宾五粮液","name":"宜宾/五粮液","passengers":2091670,"passenger_rank":76,"source_region":null,"importance_rank":2,"importance":"regional_core","airport_type":"specific_local","status_category":"active"},"geometry":{"type":"Point","coordinates":[104.5268209,28.857556]}},{"type":"Feature","properties":{"id":"cn-airport-张家界荷花","name":"张家界/荷花","passengers":2062663,"passenger_rank":77,"source_region":null,"importance_rank":2,"importance":"regional_core","airport_type":"specific_local","status_category":"active"},"geometry":{"type":"Point","coordinates":[110.4435037,29.1031088]}},{"type":"Feature","properties":{"id":"cn-airport-盐城南洋","name":"盐城/南洋","passengers":2034871,"passenger_rank":78,"source_region":null,"importance_rank":2,"importance":"regional_core","airport_type":"specific_local","status_category":"active"},"geometry":{"type":"Point","coordinates":[120.2052312,33.4284218]}},{"type":"Feature","properties":{"id":"cn-airport-淮安涟水","name":"淮安/涟水","passengers":2007564,"passenger_rank":79,"source_region":null,"importance_rank":2,"importance":"regional_core","airport_type":"specific_local","status_category":"active"},"geometry":{"type":"Point","coordinates":[119.1259037,33.7918832]}},{"type":"Feature","properties":{"id":"cn-airport-包头东河","name":"包头/东河","passengers":1965255,"passenger_rank":80,"source_region":null,"importance_rank":2,"importance":"regional_core","airport_type":"specific_local","status_category":"active"},"geometry":{"type":"Point","coordinates":[109.9992184,40.5598457]}},{"type":"Feature","properties":{"id":"cn-airport-恩施许家坪","name":"恩施/许家坪","passengers":1947626,"passenger_rank":81,"source_region":null,"importance_rank":1,"importance":"local_connector","airport_type":"local","status_category":"active"},"geometry":{"type":"Point","coordinates":[109.4853361,30.3205863]}},{"type":"Feature","properties":{"id":"cn-airport-和田昆冈","name":"和田/昆冈","passengers":1939110,"passenger_rank":82,"source_region":null,"importance_rank":1,"importance":"local_connector","airport_type":"local","status_category":"active"},"geometry":{"type":"Point","coordinates":[79.8634038,37.0236771]}},{"type":"Feature","properties":{"id":"cn-airport-赤峰玉龙","name":"赤峰/玉龙","passengers":1900454,"passenger_rank":83,"source_region":null,"importance_rank":1,"importance":"local_connector","airport_type":"local","status_category":"active"},"geometry":{"type":"Point","coordinates":[118.8394187,42.1581657]}}]}