{"type":"FeatureCollection","features":[{"type":"Feature","properties":{"id":"cn-airport-上海浦东","name":"上海/浦东","passengers":84994548,"passenger_rank":1,"source_region":null,"importance_rank":3,"importance":"national_core","airport_type":"national","status_category":"active"},"geometry":{"type":"Point","coordinates":[121.8148024,31.1426648]}},{"type":"Feature","properties":{"id":"cn-airport-广州白云","name":"广州/白云","passengers":83582952,"passenger_rank":2,"source_region":null,"importance_rank":3,"importance":"national_core","airport_type":"national","status_category":"active"},"geometry":{"type":"Point","coordinates":[113.3016995,23.3862158]}},{"type":"Feature","properties":{"id":"cn-airport-北京首都","name":"北京/首都","passengers":70742712,"passenger_rank":3,"source_region":null,"importance_rank":3,"importance":"national_core","airport_type":"national","status_category":"active"},"geometry":{"type":"Point","coordinates":[116.5938286,40.0803339]}},{"type":"Feature","properties":{"id":"cn-airport-深圳宝安","name":"深圳/宝安","passengers":66485213,"passenger_rank":4,"source_region":null,"importance_rank":3,"importance":"national_core","airport_type":"national","status_category":"active"},"geometry":{"type":"Point","coordinates":[113.8045399,22.63769]}},{"type":"Feature","properties":{"id":"cn-airport-成都天府","name":"成都/天府","passengers":56686738,"passenger_rank":5,"source_region":null,"importance_rank":3,"importance":"national_core","airport_type":"national","status_category":"active"},"geometry":{"type":"Point","coordinates":[104.4577774,30.3035491]}},{"type":"Feature","properties":{"id":"cn-airport-北京大兴","name":"北京/大兴","passengers":53618949,"passenger_rank":6,"source_region":null,"importance_rank":3,"importance":"national_core","airport_type":"national","status_category":"active"},"geometry":{"type":"Point","coordinates":[116.4313575,39.4972686]}},{"type":"Feature","properties":{"id":"cn-airport-杭州萧山","name":"杭州/萧山","passengers":50459018,"passenger_rank":7,"source_region":null,"importance_rank":3,"importance":"national_core","airport_type":"national","status_category":"active"},"geometry":{"type":"Point","coordinates":[120.4292516,30.2366743]}},{"type":"Feature","properties":{"id":"cn-airport-上海虹桥","name":"上海/虹桥","passengers":50151025,"passenger_rank":8,"source_region":null,"importance_rank":3,"importance":"national_core","airport_type":"national","status_category":"active"},"geometry":{"type":"Point","coordinates":[121.3342185,31.19765]}},{"type":"Feature","properties":{"id":"cn-airport-重庆江北","name":"重庆/江北","passengers":50094770,"passenger_rank":9,"source_region":null,"importance_rank":3,"importance":"national_core","airport_type":"national","status_category":"active"},"geometry":{"type":"Point","coordinates":[106.6561949,29.7266639]}},{"type":"Feature","properties":{"id":"cn-airport-昆明长水","name":"昆明/长水","passengers":49705725,"passenger_rank":10,"source_region":null,"importance_rank":3,"importance":"national_core","airport_type":"national","status_category":"active"},"geometry":{"type":"Point","coordinates":[102.9391513,25.1087531]}},{"type":"Feature","properties":{"id":"cn-airport-西安咸阳","name":"西安/咸阳","passengers":48535594,"passenger_rank":11,"source_region":null,"importance_rank":3,"importance":"national_core","airport_type":"national","status_category":"active"},"geometry":{"type":"Point","coordinates":[108.7601227,34.4423416]}},{"type":"Feature","properties":{"id":"cn-airport-成都双流","name":"成都/双流","passengers":33518945,"passenger_rank":12,"source_region":null,"importance_rank":3,"importance":"national_core","airport_type":"national","status_category":"active"},"geometry":{"type":"Point","coordinates":[103.9463289,30.5546804]}},{"type":"Feature","properties":{"id":"cn-airport-南京禄口","name":"南京/禄口","passengers":31378166,"passenger_rank":13,"source_region":null,"importance_rank":3,"importance":"national_core","airport_type":"national","status_category":"active"},"geometry":{"type":"Point","coordinates":[118.863455,31.7318524]}},{"type":"Feature","properties":{"id":"cn-airport-武汉天河","name":"武汉/天河","passengers":31339277,"passenger_rank":14,"source_region":null,"importance_rank":3,"importance":"national_core","airport_type":"national","status_category":"active"},"geometry":{"type":"Point","coordinates":[114.2181778,30.775834]}},{"type":"Feature","properties":{"id":"cn-airport-长沙黄花","name":"长沙/黄花","passengers":30253675,"passenger_rank":15,"source_region":null,"importance_rank":3,"importance":"national_core","airport_type":"national","status_category":"active"},"geometry":{"type":"Point","coordinates":[113.22122,28.1900429]}},{"type":"Feature","properties":{"id":"cn-airport-厦门高崎","name":"厦门/高崎","passengers":29193712,"passenger_rank":16,"source_region":null,"importance_rank":3,"importance":"national_core","airport_type":"national","status_category":"active"},"geometry":{"type":"Point","coordinates":[118.1296792,24.5438468]}},{"type":"Feature","properties":{"id":"cn-airport-郑州新郑","name":"郑州/新郑","passengers":29191990,"passenger_rank":17,"source_region":null,"importance_rank":3,"importance":"national_core","airport_type":"national","status_category":"active"},"geometry":{"type":"Point","coordinates":[113.8509996,34.5283609]}},{"type":"Feature","properties":{"id":"cn-airport-青岛胶东","name":"青岛/胶东","passengers":26896534,"passenger_rank":19,"source_region":null,"importance_rank":3,"importance":"national_core","airport_type":"national","status_category":"active"},"geometry":{"type":"Point","coordinates":[120.0885101,36.3607113]}},{"type":"Feature","properties":{"id":"cn-airport-海口美兰","name":"海口/美兰","passengers":26851102,"passenger_rank":20,"source_region":null,"importance_rank":3,"importance":"national_core","airport_type":"national","status_category":"active"},"geometry":{"type":"Point","coordinates":[110.4625001,19.944273]}},{"type":"Feature","properties":{"id":"cn-airport-沈阳桃仙","name":"沈阳/桃仙","passengers":24938062,"passenger_rank":21,"source_region":null,"importance_rank":3,"importance":"national_core","airport_type":"national","status_category":"active"},"geometry":{"type":"Point","coordinates":[123.486593,41.6370098]}},{"type":"Feature","properties":{"id":"cn-airport-哈尔滨太平","name":"哈尔滨/太平","passengers":24650717,"passenger_rank":22,"source_region":null,"importance_rank":3,"importance":"national_core","airport_type":"national","status_category":"active"},"geometry":{"type":"Point","coordinates":[126.2356573,45.6057108]}},{"type":"Feature","properties":{"id":"cn-airport-贵阳龙洞堡","name":"贵阳/龙洞堡","passengers":22731681,"passenger_rank":23,"source_region":null,"importance_rank":3,"importance":"national_core","airport_type":"national","status_category":"active"},"geometry":{"type":"Point","coordinates":[106.8024027,26.5411039]}},{"type":"Feature","properties":{"id":"cn-airport-三亚凤凰","name":"三亚/凤凰","passengers":22685734,"passenger_rank":24,"source_region":null,"importance_rank":3,"importance":"national_core","airport_type":"national","status_category":"active"},"geometry":{"type":"Point","coordinates":[109.414719,18.304801]}},{"type":"Feature","properties":{"id":"cn-airport-济南遥墙","name":"济南/遥墙","passengers":20329972,"passenger_rank":25,"source_region":null,"importance_rank":3,"importance":"national_core","airport_type":"national","status_category":"active"},"geometry":{"type":"Point","coordinates":[117.2112613,36.8532671]}},{"type":"Feature","properties":{"id":"cn-airport-天津滨海","name":"天津/滨海","passengers":19862196,"passenger_rank":26,"source_region":null,"importance_rank":3,"importance":"national_core","airport_type":"national","status_category":"active"},"geometry":{"type":"Point","coordinates":[117.3541809,39.1273446]}},{"type":"Feature","properties":{"id":"cn-airport-大连周水子","name":"大连/周水子","passengers":19787716,"passenger_rank":27,"source_region":null,"importance_rank":3,"importance":"national_core","airport_type":"national","status_category":"active"},"geometry":{"type":"Point","coordinates":[121.5379963,38.9641247]}},{"type":"Feature","properties":{"id":"cn-airport-长春龙嘉","name":"长春/龙嘉","passengers":17759299,"passenger_rank":28,"source_region":null,"importance_rank":3,"importance":"national_core","airport_type":"national","status_category":"active"},"geometry":{"type":"Point","coordinates":[125.6854512,43.9965172]}},{"type":"Feature","properties":{"id":"cn-airport-兰州中川","name":"兰州/中川","passengers":17734885,"passenger_rank":29,"source_region":null,"importance_rank":3,"importance":"national_core","airport_type":"national","status_category":"active"},"geometry":{"type":"Point","coordinates":[103.6321138,36.5190294]}},{"type":"Feature","properties":{"id":"cn-airport-宁波栎社","name":"宁波/栎社","passengers":16125459,"passenger_rank":30,"source_region":null,"importance_rank":3,"importance":"national_core","airport_type":"national","status_category":"active"},"geometry":{"type":"Point","coordinates":[121.4620568,29.8261804]}},{"type":"Feature","properties":{"id":"cn-airport-福州长乐","name":"福州/长乐","passengers":16117180,"passenger_rank":31,"source_region":null,"importance_rank":2,"importance":"regional_core","airport_type":"specific_local","status_category":"active"},"geometry":{"type":"Point","coordinates":[119.6650365,25.9358156]}},{"type":"Feature","properties":{"id":"cn-airport-太原武宿","name":"太原/武宿","passengers":14573546,"passenger_rank":32,"source_region":null,"importance_rank":2,"importance":"regional_core","airport_type":"specific_local","status_category":"active"},"geometry":{"type":"Point","coordinates":[112.6357196,37.7420708]}},{"type":"Feature","properties":{"id":"cn-airport-南宁吴圩","name":"南宁/吴圩","passengers":13502293,"passenger_rank":33,"source_region":null,"importance_rank":2,"importance":"regional_core","airport_type":"specific_local","status_category":"active"},"geometry":{"type":"Point","coordinates":[108.1827859,22.5979964]}},{"type":"Feature","properties":{"id":"cn-airport-珠海金湾","name":"珠海/金湾","passengers":13252642,"passenger_rank":34,"source_region":null,"importance_rank":2,"importance":"regional_core","airport_type":"specific_local","status_category":"active"},"geometry":{"type":"Point","coordinates":[113.3760323,22.0081474]}},{"type":"Feature","properties":{"id":"cn-airport-温州龙湾","name":"温州/龙湾","passengers":13058523,"passenger_rank":35,"source_region":null,"importance_rank":2,"importance":"regional_core","airport_type":"specific_local","status_category":"active"},"geometry":{"type":"Point","coordinates":[120.85019,27.9087027]}},{"type":"Feature","properties":{"id":"cn-airport-呼和浩特白塔","name":"呼和浩特/白塔","passengers":12722692,"passenger_rank":36,"source_region":null,"importance_rank":2,"importance":"regional_core","airport_type":"specific_local","status_category":"active"},"geometry":{"type":"Point","coordinates":[111.8223417,40.8503427]}},{"type":"Feature","properties":{"id":"cn-airport-合肥新桥","name":"合肥/新桥","passengers":12644989,"passenger_rank":37,"source_region":null,"importance_rank":2,"importance":"regional_core","airport_type":"specific_local","status_category":"active"},"geometry":{"type":"Point","coordinates":[116.9736202,31.9885603]}},{"type":"Feature","properties":{"id":"cn-airport-石家庄正定","name":"石家庄/正定","passengers":12014301,"passenger_rank":38,"source_region":null,"importance_rank":2,"importance":"regional_core","airport_type":"specific_local","status_category":"active"},"geometry":{"type":"Point","coordinates":[114.694973,38.2803612]}},{"type":"Feature","properties":{"id":"cn-airport-南昌昌北","name":"南昌/昌北","passengers":11936032,"passenger_rank":39,"source_region":null,"importance_rank":2,"importance":"regional_core","airport_type":"specific_local","status_category":"active"},"geometry":{"type":"Point","coordinates":[115.9071277,28.8618452]}},{"type":"Feature","properties":{"id":"cn-airport-无锡硕放","name":"无锡/硕放","passengers":10967778,"passenger_rank":40,"source_region":null,"importance_rank":2,"importance":"regional_core","airport_type":"specific_local","status_category":"active"},"geometry":{"type":"Point","coordinates":[120.4303868,31.4987509]}},{"type":"Feature","properties":{"id":"cn-airport-揭阳潮汕","name":"揭阳/潮汕","passengers":10228556,"passenger_rank":41,"source_region":null,"importance_rank":2,"importance":"regional_core","airport_type":"specific_local","status_category":"active"},"geometry":{"type":"Point","coordinates":[116.5045614,23.553393]}},{"type":"Feature","properties":{"id":"cn-airport-银川河东","name":"银川/河东","passengers":9860514,"passenger_rank":42,"source_region":null,"importance_rank":2,"importance":"regional_core","airport_type":"specific_local","status_category":"active"},"geometry":{"type":"Point","coordinates":[106.3905756,38.321069]}},{"type":"Feature","properties":{"id":"cn-airport-泉州晋江","name":"泉州/晋江","passengers":8852384,"passenger_rank":43,"source_region":null,"importance_rank":2,"importance":"regional_core","airport_type":"specific_local","status_category":"active"},"geometry":{"type":"Point","coordinates":[118.5888542,24.7968172]}},{"type":"Feature","properties":{"id":"cn-airport-丽江三义","name":"丽江/三义","passengers":8631218,"passenger_rank":44,"source_region":null,"importance_rank":2,"importance":"regional_core","airport_type":"specific_local","status_category":"active"},"geometry":{"type":"Point","coordinates":[100.2438323,26.6747606]}},{"type":"Feature","properties":{"id":"cn-airport-烟台蓬莱","name":"烟台/蓬莱","passengers":8036554,"passenger_rank":45,"source_region":null,"importance_rank":2,"importance":"regional_core","airport_type":"specific_local","status_category":"active"},"geometry":{"type":"Point","coordinates":[120.9789013,37.6602663]}},{"type":"Feature","properties":{"id":"cn-airport-西宁曹家堡","name":"西宁/曹家堡","passengers":7877903,"passenger_rank":46,"source_region":null,"importance_rank":2,"importance":"regional_core","airport_type":"specific_local","status_category":"active"},"geometry":{"type":"Point","coordinates":[102.0392638,36.5286221]}},{"type":"Feature","properties":{"id":"cn-airport-西双版纳嘎洒","name":"西双版纳/嘎洒","passengers":7711821,"passenger_rank":47,"source_region":null,"importance_rank":2,"importance":"regional_core","airport_type":"specific_local","status_category":"active"},"geometry":{"type":"Point","coordinates":[100.76255,21.9746685]}},{"type":"Feature","properties":{"id":"cn-airport-桂林两江","name":"桂林/两江","passengers":6504366,"passenger_rank":48,"source_region":null,"importance_rank":2,"importance":"regional_core","airport_type":"specific_local","status_category":"active"},"geometry":{"type":"Point","coordinates":[110.0433319,25.2222208]}},{"type":"Feature","properties":{"id":"cn-airport-拉萨贡嘎","name":"拉萨/贡嘎","passengers":6284823,"passenger_rank":49,"source_region":null,"importance_rank":2,"importance":"regional_core","airport_type":"specific_local","status_category":"active"},"geometry":{"type":"Point","coordinates":[90.908315,29.2962742]}},{"type":"Feature","properties":{"id":"cn-airport-喀什徕宁","name":"喀什/徕宁","passengers":5233499,"passenger_rank":50,"source_region":null,"importance_rank":2,"importance":"regional_core","airport_type":"specific_local","status_category":"active"},"geometry":{"type":"Point","coordinates":[76.0211175,39.5407582]}},{"type":"Feature","properties":{"id":"cn-airport-常州奔牛","name":"常州/奔牛","passengers":5139214,"passenger_rank":51,"source_region":null,"importance_rank":2,"importance":"regional_core","airport_type":"specific_local","status_category":"active"},"geometry":{"type":"Point","coordinates":[119.7751691,31.9185017]}},{"type":"Feature","properties":{"id":"cn-airport-扬州泰州","name":"扬州/泰州","passengers":4163596,"passenger_rank":52,"source_region":null,"importance_rank":2,"importance":"regional_core","airport_type":"specific_local","status_category":"active"},"geometry":{"type":"Point","coordinates":[119.7176387,32.5607087]}},{"type":"Feature","properties":{"id":"cn-airport-南通兴东","name":"南通/兴东","passengers":4161852,"passenger_rank":53,"source_region":null,"importance_rank":2,"importance":"regional_core","airport_type":"specific_local","status_category":"active"},"geometry":{"type":"Point","coordinates":[120.9783185,32.0720196]}},{"type":"Feature","properties":{"id":"cn-airport-徐州观音","name":"徐州/观音","passengers":4082736,"passenger_rank":54,"source_region":null,"importance_rank":2,"importance":"regional_core","airport_type":"specific_local","status_category":"active"},"geometry":{"type":"Point","coordinates":[117.5564213,34.0585171]}},{"type":"Feature","properties":{"id":"cn-airport-大理凤仪","name":"大理/凤仪","passengers":3750473,"passenger_rank":55,"source_region":null,"importance_rank":2,"importance":"regional_core","airport_type":"specific_local","status_category":"active"},"geometry":{"type":"Point","coordinates":[100.3198055,25.649768]}},{"type":"Feature","properties":{"id":"cn-airport-义乌","name":"义乌","passengers":3684507,"passenger_rank":56,"source_region":null,"importance_rank":2,"importance":"regional_core","airport_type":"specific_local","status_category":"active"},"geometry":{"type":"Point","coordinates":[120.0308765,29.3421485]}},{"type":"Feature","properties":{"id":"cn-airport-宜昌三峡","name":"宜昌/三峡","passengers":3406149,"passenger_rank":58,"source_region":null,"importance_rank":2,"importance":"regional_core","airport_type":"specific_local","status_category":"active"},"geometry":{"type":"Point","coordinates":[111.4840028,30.5532975]}},{"type":"Feature","properties":{"id":"cn-airport-惠州平潭","name":"惠州/平潭","passengers":3365186,"passenger_rank":59,"source_region":null,"importance_rank":2,"importance":"regional_core","airport_type":"specific_local","status_category":"active"},"geometry":{"type":"Point","coordinates":[114.600516,23.0517247]}},{"type":"Feature","properties":{"id":"cn-airport-绵阳南郊","name":"绵阳/南郊","passengers":3286383,"passenger_rank":60,"source_region":null,"importance_rank":2,"importance":"regional_core","airport_type":"specific_local","status_category":"active"},"geometry":{"type":"Point","coordinates":[104.7387365,31.4310916]}},{"type":"Feature","properties":{"id":"cn-airport-呼伦贝尔海拉尔","name":"呼伦贝尔/海拉尔","passengers":3239067,"passenger_rank":61,"source_region":null,"importance_rank":2,"importance":"regional_core","airport_type":"specific_local","status_category":"active"},"geometry":{"type":"Point","coordinates":[119.829077,49.2078987]}},{"type":"Feature","properties":{"id":"cn-airport-鄂尔多斯伊金霍洛","name":"鄂尔多斯/伊金霍洛","passengers":3201398,"passenger_rank":62,"source_region":null,"importance_rank":2,"importance":"regional_core","airport_type":"specific_local","status_category":"active"},"geometry":{"type":"Point","coordinates":[109.860416,39.4931555]}},{"type":"Feature","properties":{"id":"cn-airport-湛江吴川","name":"湛江/吴川","passengers":3122262,"passenger_rank":63,"source_region":null,"importance_rank":2,"importance":"regional_core","airport_type":"specific_local","status_category":"active"},"geometry":{"type":"Point","coordinates":[110.59204,21.483083]}},{"type":"Feature","properties":{"id":"cn-airport-榆林榆阳","name":"榆林/榆阳","passengers":3106499,"passenger_rank":64,"source_region":null,"importance_rank":2,"importance":"regional_core","airport_type":"specific_local","status_category":"active"},"geometry":{"type":"Point","coordinates":[109.5927813,38.3592952]}},{"type":"Feature","properties":{"id":"cn-airport-德宏芒市","name":"德宏/芒市","passengers":3075024,"passenger_rank":65,"source_region":null,"importance_rank":2,"importance":"regional_core","airport_type":"specific_local","status_category":"active"},"geometry":{"type":"Point","coordinates":[98.5311306,24.399817]}},{"type":"Feature","properties":{"id":"cn-airport-北海福成","name":"北海/福成","passengers":2955931,"passenger_rank":67,"source_region":null,"importance_rank":2,"importance":"regional_core","airport_type":"specific_local","status_category":"active"},"geometry":{"type":"Point","coordinates":[109.2933913,21.5393624]}},{"type":"Feature","properties":{"id":"cn-airport-威海大水泊","name":"威海/大水泊","passengers":2908096,"passenger_rank":68,"source_region":null,"importance_rank":2,"importance":"regional_core","airport_type":"specific_local","status_category":"active"},"geometry":{"type":"Point","coordinates":[122.2309891,37.1864149]}},{"type":"Feature","properties":{"id":"cn-airport-舟山普陀山","name":"舟山/普陀山","passengers":2888463,"passenger_rank":69,"source_region":null,"importance_rank":2,"importance":"regional_core","airport_type":"specific_local","status_category":"active"},"geometry":{"type":"Point","coordinates":[122.3608832,29.9348249]}},{"type":"Feature","properties":{"id":"cn-airport-运城盐湖","name":"运城/盐湖","passengers":2873454,"passenger_rank":70,"source_region":null,"importance_rank":2,"importance":"regional_core","airport_type":"specific_local","status_category":"active"},"geometry":{"type":"Point","coordinates":[111.0335525,35.1177639]}},{"type":"Feature","properties":{"id":"cn-airport-阿克苏红旗坡","name":"阿克苏/红旗坡","passengers":2778946,"passenger_rank":71,"source_region":null,"importance_rank":2,"importance":"regional_core","airport_type":"specific_local","status_category":"active"},"geometry":{"type":"Point","coordinates":[80.2907722,41.261938]}},{"type":"Feature","properties":{"id":"cn-airport-临沂启阳","name":"临沂/启阳","passengers":2467279,"passenger_rank":72,"source_region":null,"importance_rank":2,"importance":"regional_core","airport_type":"specific_local","status_category":"active"},"geometry":{"type":"Point","coordinates":[118.4092295,35.0530397]}},{"type":"Feature","properties":{"id":"cn-airport-台州路桥","name":"台州/路桥","passengers":2447367,"passenger_rank":73,"source_region":null,"importance_rank":2,"importance":"regional_core","airport_type":"specific_local","status_category":"active"},"geometry":{"type":"Point","coordinates":[121.4279375,28.562449]}},{"type":"Feature","properties":{"id":"cn-airport-泸州云龙","name":"泸州/云龙","passengers":2382039,"passenger_rank":74,"source_region":null,"importance_rank":2,"importance":"regional_core","airport_type":"specific_local","status_category":"active"},"geometry":{"type":"Point","coordinates":[105.4687202,29.0279278]}},{"type":"Feature","properties":{"id":"cn-airport-赣州黄金","name":"赣州/黄金","passengers":2235615,"passenger_rank":75,"source_region":null,"importance_rank":2,"importance":"regional_core","airport_type":"specific_local","status_category":"active"},"geometry":{"type":"Point","coordinates":[114.7795079,25.8537417]}},{"type":"Feature","properties":{"id":"cn-airport-宜宾五粮液","name":"宜宾/五粮液","passengers":2091670,"passenger_rank":76,"source_region":null,"importance_rank":2,"importance":"regional_core","airport_type":"specific_local","status_category":"active"},"geometry":{"type":"Point","coordinates":[104.5268209,28.857556]}},{"type":"Feature","properties":{"id":"cn-airport-张家界荷花","name":"张家界/荷花","passengers":2062663,"passenger_rank":77,"source_region":null,"importance_rank":2,"importance":"regional_core","airport_type":"specific_local","status_category":"active"},"geometry":{"type":"Point","coordinates":[110.4435037,29.1031088]}},{"type":"Feature","properties":{"id":"cn-airport-盐城南洋","name":"盐城/南洋","passengers":2034871,"passenger_rank":78,"source_region":null,"importance_rank":2,"importance":"regional_core","airport_type":"specific_local","status_category":"active"},"geometry":{"type":"Point","coordinates":[120.2052312,33.4284218]}},{"type":"Feature","properties":{"id":"cn-airport-淮安涟水","name":"淮安/涟水","passengers":2007564,"passenger_rank":79,"source_region":null,"importance_rank":2,"importance":"regional_core","airport_type":"specific_local","status_category":"active"},"geometry":{"type":"Point","coordinates":[119.1259037,33.7918832]}},{"type":"Feature","properties":{"id":"cn-airport-包头东河","name":"包头/东河","passengers":1965255,"passenger_rank":80,"source_region":null,"importance_rank":2,"importance":"regional_core","airport_type":"specific_local","status_category":"active"},"geometry":{"type":"Point","coordinates":[109.9992184,40.5598457]}},{"type":"Feature","properties":{"id":"cn-airport-恩施许家坪","name":"恩施/许家坪","passengers":1947626,"passenger_rank":81,"source_region":null,"importance_rank":1,"importance":"local_connector","airport_type":"local","status_category":"active"},"geometry":{"type":"Point","coordinates":[109.4853361,30.3205863]}},{"type":"Feature","properties":{"id":"cn-airport-和田昆冈","name":"和田/昆冈","passengers":1939110,"passenger_rank":82,"source_region":null,"importance_rank":1,"importance":"local_connector","airport_type":"local","status_category":"active"},"geometry":{"type":"Point","coordinates":[79.8634038,37.0236771]}},{"type":"Feature","properties":{"id":"cn-airport-赤峰玉龙","name":"赤峰/玉龙","passengers":1900454,"passenger_rank":83,"source_region":null,"importance_rank":1,"importance":"local_connector","airport_type":"local","status_category":"active"},"geometry":{"type":"Point","coordinates":[118.8394187,42.1581657]}},{"type":"Feature","properties":{"id":"cn-airport-襄阳刘集","name":"襄阳/刘集","passengers":1899754,"passenger_rank":84,"source_region":null,"importance_rank":1,"importance":"local_connector","airport_type":"local","status_category":"active"},"geometry":{"type":"Point","coordinates":[112.2895889,32.1513481]}},{"type":"Feature","properties":{"id":"cn-airport-连云港花果山","name":"连云港/花果山","passengers":1746839,"passenger_rank":85,"source_region":null,"importance_rank":1,"importance":"local_connector","airport_type":"local","status_category":"active"},"geometry":{"type":"Point","coordinates":[119.1784771,34.413025]}},{"type":"Feature","properties":{"id":"cn-airport-十堰武当山","name":"十堰/武当山","passengers":1533810,"passenger_rank":86,"source_region":null,"importance_rank":1,"importance":"local_connector","airport_type":"local","status_category":"active"},"geometry":{"type":"Point","coordinates":[110.908223,32.5926378]}},{"type":"Feature","properties":{"id":"cn-airport-济宁大安","name":"济宁/大安","passengers":1503617,"passenger_rank":87,"source_region":null,"importance_rank":1,"importance":"local_connector","airport_type":"local","status_category":"active"},"geometry":{"type":"Point","coordinates":[116.743396,35.645818]}},{"type":"Feature","properties":{"id":"cn-airport-兴义万峰林","name":"兴义/万峰林","passengers":1466421,"passenger_rank":88,"source_region":null,"importance_rank":1,"importance":"local_connector","airport_type":"local","status_category":"active"},"geometry":{"type":"Point","coordinates":[104.96057,25.0839304]}},{"type":"Feature","properties":{"id":"cn-airport-佛山沙堤","name":"佛山/沙堤","passengers":1460420,"passenger_rank":89,"source_region":null,"importance_rank":1,"importance":"local_connector","airport_type":"local","status_category":"active"},"geometry":{"type":"Point","coordinates":[113.0672422,23.0836295]}},{"type":"Feature","properties":{"id":"cn-airport-遵义新舟","name":"遵义/新舟","passengers":1388520,"passenger_rank":90,"source_region":null,"importance_rank":1,"importance":"local_connector","airport_type":"local","status_category":"active"},"geometry":{"type":"Point","coordinates":[107.2470214,27.8106538]}},{"type":"Feature","properties":{"id":"cn-airport-延吉朝阳川","name":"延吉/朝阳川","passengers":1383620,"passenger_rank":91,"source_region":null,"importance_rank":1,"importance":"local_connector","airport_type":"local","status_category":"active"},"geometry":{"type":"Point","coordinates":[129.4513628,42.8828195]}},{"type":"Feature","properties":{"id":"cn-airport-通辽","name":"通辽","passengers":1356501,"passenger_rank":92,"source_region":null,"importance_rank":1,"importance":"local_connector","airport_type":"local","status_category":"active"},"geometry":{"type":"Point","coordinates":[122.1981905,43.5529802]}},{"type":"Feature","properties":{"id":"cn-airport-东营胜利","name":"东营/胜利","passengers":1300766,"passenger_rank":93,"source_region":null,"importance_rank":1,"importance":"local_connector","airport_type":"local","status_category":"active"},"geometry":{"type":"Point","coordinates":[118.7873541,37.5024672]}},{"type":"Feature","properties":{"id":"cn-airport-敦煌莫高","name":"敦煌/莫高","passengers":1285341,"passenger_rank":94,"source_region":null,"importance_rank":1,"importance":"local_connector","airport_type":"local","status_category":"active"},"geometry":{"type":"Point","coordinates":[94.8125888,40.1634504]}},{"type":"Feature","properties":{"id":"cn-airport-嘉峪关酒泉","name":"嘉峪关/酒泉","passengers":1280756,"passenger_rank":95,"source_region":null,"importance_rank":1,"importance":"local_connector","airport_type":"local","status_category":"active"},"geometry":{"type":"Point","coordinates":[98.3396737,39.858623]}},{"type":"Feature","properties":{"id":"cn-airport-荆州沙市","name":"荆州/沙市","passengers":1250867,"passenger_rank":96,"source_region":null,"importance_rank":1,"importance":"local_connector","airport_type":"local","status_category":"active"},"geometry":{"type":"Point","coordinates":[112.4466799,30.290608]}},{"type":"Feature","properties":{"id":"cn-airport-遵义茅台","name":"遵义/茅台","passengers":1221929,"passenger_rank":97,"source_region":null,"importance_rank":1,"importance":"local_connector","airport_type":"local","status_category":"active"},"geometry":{"type":"Point","coordinates":[106.4364319,27.9622339]}},{"type":"Feature","properties":{"id":"cn-airport-柳州白莲","name":"柳州/白莲","passengers":1210438,"passenger_rank":98,"source_region":null,"importance_rank":1,"importance":"local_connector","airport_type":"local","status_category":"active"},"geometry":{"type":"Point","coordinates":[109.3939417,24.2076182]}},{"type":"Feature","properties":{"id":"cn-airport-锡林浩特","name":"锡林浩特","passengers":1185919,"passenger_rank":99,"source_region":null,"importance_rank":1,"importance":"local_connector","airport_type":"local","status_category":"active"},"geometry":{"type":"Point","coordinates":[115.9608972,43.9138988]}},{"type":"Feature","properties":{"id":"cn-airport-衡阳南岳","name":"衡阳/南岳","passengers":1145286,"passenger_rank":101,"source_region":null,"importance_rank":1,"importance":"local_connector","airport_type":"local","status_category":"active"},"geometry":{"type":"Point","coordinates":[112.6180587,26.7217691]}},{"type":"Feature","properties":{"id":"cn-airport-达州金垭","name":"达州/金垭","passengers":1143396,"passenger_rank":102,"source_region":null,"importance_rank":1,"importance":"local_connector","airport_type":"local","status_category":"active"},"geometry":{"type":"Point","coordinates":[107.4357762,31.0493873]}},{"type":"Feature","properties":{"id":"cn-airport-衢州","name":"衢州","passengers":1111124,"passenger_rank":103,"source_region":null,"importance_rank":1,"importance":"local_connector","airport_type":"local","status_category":"active"},"geometry":{"type":"Point","coordinates":[118.8964202,28.9658468]}},{"type":"Feature","properties":{"id":"cn-airport-哈密伊州","name":"哈密/伊州","passengers":1085699,"passenger_rank":105,"source_region":null,"importance_rank":1,"importance":"local_connector","airport_type":"local","status_category":"active"},"geometry":{"type":"Point","coordinates":[93.6679328,42.8407225]}},{"type":"Feature","properties":{"id":"cn-airport-南充高坪","name":"南充/高坪","passengers":1073038,"passenger_rank":106,"source_region":null,"importance_rank":1,"importance":"local_connector","airport_type":"local","status_category":"active"},"geometry":{"type":"Point","coordinates":[106.1639115,30.79715]}},{"type":"Feature","properties":{"id":"cn-airport-南阳姜营","name":"南阳/姜营","passengers":1036774,"passenger_rank":107,"source_region":null,"importance_rank":1,"importance":"local_connector","airport_type":"local","status_category":"active"},"geometry":{"type":"Point","coordinates":[112.617851,32.9822793]}},{"type":"Feature","properties":{"id":"cn-airport-阜阳","name":"阜阳","passengers":1021934,"passenger_rank":108,"source_region":null,"importance_rank":1,"importance":"local_connector","airport_type":"local","status_category":"active"},"geometry":{"type":"Point","coordinates":[115.7337763,32.8818614]}},{"type":"Feature","properties":{"id":"cn-airport-芜湖宣州","name":"芜湖/宣州","passengers":1007559,"passenger_rank":109,"source_region":null,"importance_rank":1,"importance":"local_connector","airport_type":"local","status_category":"active"},"geometry":{"type":"Point","coordinates":[118.6657387,31.1037751]}},{"type":"Feature","properties":{"id":"cn-airport-林芝米林","name":"林芝/米林","passengers":967829,"passenger_rank":110,"source_region":null,"importance_rank":1,"importance":"local_connector","airport_type":"local","status_category":"active"},"geometry":{"type":"Point","coordinates":[94.3356447,29.3035346]}},{"type":"Feature","properties":{"id":"cn-airport-西昌青山","name":"西昌/青山","passengers":955046,"passenger_rank":111,"source_region":null,"importance_rank":1,"importance":"local_connector","airport_type":"local","status_category":"active"},"geometry":{"type":"Point","coordinates":[102.1860219,27.9889535]}},{"type":"Feature","properties":{"id":"cn-airport-洛阳北郊","name":"洛阳/北郊","passengers":954917,"passenger_rank":112,"source_region":null,"importance_rank":1,"importance":"local_connector","airport_type":"local","status_category":"active"},"geometry":{"type":"Point","coordinates":[112.3872554,34.7407136]}},{"type":"Feature","properties":{"id":"cn-airport-邯郸","name":"邯郸","passengers":952260,"passenger_rank":113,"source_region":null,"importance_rank":1,"importance":"local_connector","airport_type":"local","status_category":"active"},"geometry":{"type":"Point","coordinates":[114.4238734,36.5247178]}},{"type":"Feature","properties":{"id":"cn-airport-大同云冈","name":"大同/云冈","passengers":950646,"passenger_rank":114,"source_region":null,"importance_rank":1,"importance":"local_connector","airport_type":"local","status_category":"active"},"geometry":{"type":"Point","coordinates":[113.481482,40.0609299]}},{"type":"Feature","properties":{"id":"cn-airport-库车龟兹","name":"库车/龟兹","passengers":912911,"passenger_rank":115,"source_region":null,"importance_rank":1,"importance":"local_connector","airport_type":"local","status_category":"active"},"geometry":{"type":"Point","coordinates":[82.8716747,41.679189]}},{"type":"Feature","properties":{"id":"cn-airport-大庆萨尔图","name":"大庆/萨尔图","passengers":900392,"passenger_rank":116,"source_region":null,"importance_rank":1,"importance":"local_connector","airport_type":"local","status_category":"active"},"geometry":{"type":"Point","coordinates":[125.1383333,46.7516737]}},{"type":"Feature","properties":{"id":"cn-airport-万州五桥","name":"万州/五桥","passengers":891860,"passenger_rank":117,"source_region":null,"importance_rank":1,"importance":"local_connector","airport_type":"local","status_category":"active"},"geometry":{"type":"Point","coordinates":[108.4349081,30.8013304]}},{"type":"Feature","properties":{"id":"cn-airport-临汾尧都","name":"临汾/尧都","passengers":890280,"passenger_rank":118,"source_region":null,"importance_rank":1,"importance":"local_connector","airport_type":"local","status_category":"active"},"geometry":{"type":"Point","coordinates":[111.6409474,36.1366433]}},{"type":"Feature","properties":{"id":"cn-airport-吐鲁番交河","name":"吐鲁番/交河","passengers":886878,"passenger_rank":119,"source_region":null,"importance_rank":1,"importance":"local_connector","airport_type":"local","status_category":"active"},"geometry":{"type":"Point","coordinates":[89.0982735,43.0292143]}},{"type":"Feature","properties":{"id":"cn-airport-佳木斯松江","name":"佳木斯/松江","passengers":875834,"passenger_rank":120,"source_region":null,"importance_rank":1,"importance":"local_connector","airport_type":"local","status_category":"active"},"geometry":{"type":"Point","coordinates":[130.4600704,46.8431492]}},{"type":"Feature","properties":{"id":"cn-airport-长治王村","name":"长治/王村","passengers":850987,"passenger_rank":121,"source_region":null,"importance_rank":1,"importance":"local_connector","airport_type":"local","status_category":"active"},"geometry":{"type":"Point","coordinates":[113.1257385,36.2470983]}},{"type":"Feature","properties":{"id":"cn-airport-琼海博鳌","name":"琼海/博鳌","passengers":848808,"passenger_rank":122,"source_region":null,"importance_rank":1,"importance":"local_connector","airport_type":"local","status_category":"active"},"geometry":{"type":"Point","coordinates":[110.4518973,19.1428785]}},{"type":"Feature","properties":{"id":"cn-airport-腾冲驼峰","name":"腾冲/驼峰","passengers":842326,"passenger_rank":123,"source_region":null,"importance_rank":1,"importance":"local_connector","airport_type":"local","status_category":"active"},"geometry":{"type":"Point","coordinates":[98.4854628,24.9413538]}},{"type":"Feature","properties":{"id":"cn-airport-菏泽牡丹","name":"菏泽/牡丹","passengers":837835,"passenger_rank":124,"source_region":null,"importance_rank":1,"importance":"local_connector","airport_type":"local","status_category":"active"},"geometry":{"type":"Point","coordinates":[115.734742,35.2127735]}},{"type":"Feature","properties":{"id":"cn-airport-上饶三清山","name":"上饶/三清山","passengers":834070,"passenger_rank":125,"source_region":null,"importance_rank":1,"importance":"local_connector","airport_type":"local","status_category":"active"},"geometry":{"type":"Point","coordinates":[117.9621912,28.3789002]}},{"type":"Feature","properties":{"id":"cn-airport-日照山字河","name":"日照/山字河","passengers":784300,"passenger_rank":126,"source_region":null,"importance_rank":1,"importance":"local_connector","airport_type":"local","status_category":"active"},"geometry":{"type":"Point","coordinates":[119.3256305,35.4046577]}},{"type":"Feature","properties":{"id":"cn-airport-常德桃花源","name":"常德/桃花源","passengers":782822,"passenger_rank":127,"source_region":null,"importance_rank":1,"importance":"local_connector","airport_type":"local","status_category":"active"},"geometry":{"type":"Point","coordinates":[111.63861,28.9187886]}},{"type":"Feature","properties":{"id":"cn-airport-乌海","name":"乌海","passengers":770945,"passenger_rank":128,"source_region":null,"importance_rank":1,"importance":"local_connector","airport_type":"local","status_category":"active"},"geometry":{"type":"Point","coordinates":[106.8010268,39.7932711]}},{"type":"Feature","properties":{"id":"cn-airport-克拉玛依古海","name":"克拉玛依/古海","passengers":722187,"passenger_rank":130,"source_region":null,"importance_rank":1,"importance":"local_connector","airport_type":"local","status_category":"active"},"geometry":{"type":"Point","coordinates":[84.9529463,45.4665084]}},{"type":"Feature","properties":{"id":"cn-airport-唐山三女河","name":"唐山/三女河","passengers":653045,"passenger_rank":131,"source_region":null,"importance_rank":1,"importance":"local_connector","airport_type":"local","status_category":"active"},"geometry":{"type":"Point","coordinates":[118.0024227,39.7199098]}},{"type":"Feature","properties":{"id":"cn-airport-延安南泥湾","name":"延安/南泥湾","passengers":644562,"passenger_rank":132,"source_region":null,"importance_rank":1,"importance":"local_connector","airport_type":"local","status_category":"active"},"geometry":{"type":"Point","coordinates":[109.4648215,36.4798337]}},{"type":"Feature","properties":{"id":"cn-airport-石河子花园","name":"石河子/花园","passengers":627933,"passenger_rank":134,"source_region":null,"importance_rank":1,"importance":"local_connector","airport_type":"local","status_category":"active"},"geometry":{"type":"Point","coordinates":[85.8909766,44.2434233]}},{"type":"Feature","properties":{"id":"cn-airport-塔城千泉","name":"塔城/千泉","passengers":611898,"passenger_rank":135,"source_region":null,"importance_rank":1,"importance":"local_connector","airport_type":"local","status_category":"active"},"geometry":{"type":"Point","coordinates":[83.34439,46.6714524]}},{"type":"Feature","properties":{"id":"cn-airport-庆阳","name":"庆阳","passengers":607386,"passenger_rank":136,"source_region":null,"importance_rank":1,"importance":"local_connector","airport_type":"local","status_category":"active"},"geometry":{"type":"Point","coordinates":[107.6000494,35.8019092]}},{"type":"Feature","properties":{"id":"cn-airport-铜仁凤凰","name":"铜仁/凤凰","passengers":604944,"passenger_rank":137,"source_region":null,"importance_rank":1,"importance":"local_connector","airport_type":"local","status_category":"active"},"geometry":{"type":"Point","coordinates":[109.3117226,27.8868874]}},{"type":"Feature","properties":{"id":"cn-airport-广元盘龙","name":"广元/盘龙","passengers":595464,"passenger_rank":138,"source_region":null,"importance_rank":1,"importance":"local_connector","airport_type":"local","status_category":"active"},"geometry":{"type":"Point","coordinates":[105.6945025,32.3907395]}},{"type":"Feature","properties":{"id":"cn-airport-齐齐哈尔三家子","name":"齐齐哈尔/三家子","passengers":591182,"passenger_rank":139,"source_region":null,"importance_rank":1,"importance":"local_connector","airport_type":"local","status_category":"active"},"geometry":{"type":"Point","coordinates":[123.9149302,47.2309118]}},{"type":"Feature","properties":{"id":"cn-airport-吕梁大武","name":"吕梁/大武","passengers":574729,"passenger_rank":140,"source_region":null,"importance_rank":1,"importance":"local_connector","airport_type":"local","status_category":"active"},"geometry":{"type":"Point","coordinates":[111.1423985,37.6839824]}},{"type":"Feature","properties":{"id":"cn-airport-博乐阿拉山口","name":"博乐/阿拉山口","passengers":568887,"passenger_rank":141,"source_region":null,"importance_rank":1,"importance":"local_connector","airport_type":"local","status_category":"active"},"geometry":{"type":"Point","coordinates":[82.3045006,44.8982045]}},{"type":"Feature","properties":{"id":"cn-airport-巴中恩阳","name":"巴中/恩阳","passengers":563754,"passenger_rank":142,"source_region":null,"importance_rank":1,"importance":"local_connector","airport_type":"local","status_category":"active"},"geometry":{"type":"Point","coordinates":[106.6430262,31.7379758]}},{"type":"Feature","properties":{"id":"cn-airport-汉中城固","name":"汉中/城固","passengers":545929,"passenger_rank":143,"source_region":null,"importance_rank":1,"importance":"local_connector","airport_type":"local","status_category":"active"},"geometry":{"type":"Point","coordinates":[107.2021278,33.1318919]}},{"type":"Feature","properties":{"id":"cn-airport-莎车叶尔羌","name":"莎车/叶尔羌","passengers":521746,"passenger_rank":144,"source_region":null,"importance_rank":1,"importance":"local_connector","airport_type":"local","status_category":"active"},"geometry":{"type":"Point","coordinates":[77.0578634,38.2433111]}},{"type":"Feature","properties":{"id":"cn-airport-阿拉尔塔里木","name":"阿拉尔/塔里木","passengers":511162,"passenger_rank":146,"source_region":null,"importance_rank":1,"importance":"local_connector","airport_type":"local","status_category":"active"},"geometry":{"type":"Point","coordinates":[81.2587393,40.433067]}},{"type":"Feature","properties":{"id":"cn-airport-安康富强","name":"安康/富强","passengers":479406,"passenger_rank":147,"source_region":null,"importance_rank":1,"importance":"local_connector","airport_type":"local","status_category":"active"},"geometry":{"type":"Point","coordinates":[108.873375,32.7555162]}},{"type":"Feature","properties":{"id":"cn-airport-宜春明月山","name":"宜春/明月山","passengers":478269,"passenger_rank":148,"source_region":null,"importance_rank":1,"importance":"local_connector","airport_type":"local","status_category":"active"},"geometry":{"type":"Point","coordinates":[114.3059715,27.8022643]}},{"type":"Feature","properties":{"id":"cn-airport-保山云瑞","name":"保山/云瑞","passengers":474348,"passenger_rank":149,"source_region":null,"importance_rank":1,"importance":"local_connector","airport_type":"local","status_category":"active"},"geometry":{"type":"Point","coordinates":[99.16588,25.0518801]}},{"type":"Feature","properties":{"id":"cn-airport-昌都邦达","name":"昌都/邦达","passengers":468926,"passenger_rank":151,"source_region":null,"importance_rank":1,"importance":"local_connector","airport_type":"local","status_category":"active"},"geometry":{"type":"Point","coordinates":[97.1096038,30.5523734]}},{"type":"Feature","properties":{"id":"cn-airport-郴州北湖","name":"郴州/北湖","passengers":455579,"passenger_rank":152,"source_region":null,"importance_rank":1,"importance":"local_connector","airport_type":"local","status_category":"active"},"geometry":{"type":"Point","coordinates":[112.8453497,25.7536262]}},{"type":"Feature","properties":{"id":"cn-airport-昭通","name":"昭通","passengers":454690,"passenger_rank":153,"source_region":null,"importance_rank":1,"importance":"local_connector","airport_type":"local","status_category":"active"},"geometry":{"type":"Point","coordinates":[103.7560838,27.3275984]}},{"type":"Feature","properties":{"id":"cn-airport-图木舒克唐王城","name":"图木舒克/唐王城","passengers":451920,"passenger_rank":154,"source_region":null,"importance_rank":1,"importance":"local_connector","airport_type":"local","status_category":"active"},"geometry":{"type":"Point","coordinates":[79.2354116,39.8897044]}},{"type":"Feature","properties":{"id":"cn-airport-鸡西兴凯湖","name":"鸡西/兴凯湖","passengers":437702,"passenger_rank":155,"source_region":null,"importance_rank":1,"importance":"local_connector","airport_type":"local","status_category":"active"},"geometry":{"type":"Point","coordinates":[131.1909662,45.295085]}},{"type":"Feature","properties":{"id":"cn-airport-迪庆香格里拉","name":"迪庆/香格里拉","passengers":428318,"passenger_rank":156,"source_region":null,"importance_rank":1,"importance":"local_connector","airport_type":"local","status_category":"active"},"geometry":{"type":"Point","coordinates":[99.6782239,27.7920107]}},{"type":"Feature","properties":{"id":"cn-airport-怀化芷江","name":"怀化/芷江","passengers":417485,"passenger_rank":157,"source_region":null,"importance_rank":1,"importance":"local_connector","airport_type":"local","status_category":"active"},"geometry":{"type":"Point","coordinates":[109.7070199,27.4464507]}},{"type":"Feature","properties":{"id":"cn-airport-玉树巴塘","name":"玉树/巴塘","passengers":405531,"passenger_rank":158,"source_region":null,"importance_rank":1,"importance":"local_connector","airport_type":"local","status_category":"active"},"geometry":{"type":"Point","coordinates":[97.0360692,32.836422]}},{"type":"Feature","properties":{"id":"cn-airport-三明沙县","name":"三明/沙县","passengers":390474,"passenger_rank":159,"source_region":null,"importance_rank":1,"importance":"local_connector","airport_type":"local","status_category":"active"},"geometry":{"type":"Point","coordinates":[117.832308,26.4253579]}},{"type":"Feature","properties":{"id":"cn-airport-陇南成县","name":"陇南/成县","passengers":388766,"passenger_rank":160,"source_region":null,"importance_rank":1,"importance":"local_connector","airport_type":"local","status_category":"active"},"geometry":{"type":"Point","coordinates":[105.7881395,33.78927]}},{"type":"Feature","properties":{"id":"cn-airport-九江庐山","name":"九江/庐山","passengers":382490,"passenger_rank":161,"source_region":null,"importance_rank":1,"importance":"local_connector","airport_type":"local","status_category":"active"},"geometry":{"type":"Point","coordinates":[115.8001508,29.4767603]}},{"type":"Feature","properties":{"id":"cn-airport-巴彦淖尔天吉泰","name":"巴彦淖尔/天吉泰","passengers":367154,"passenger_rank":162,"source_region":null,"importance_rank":1,"importance":"local_connector","airport_type":"local","status_category":"active"},"geometry":{"type":"Point","coordinates":[107.7455308,40.9256163]}},{"type":"Feature","properties":{"id":"cn-airport-格尔木","name":"格尔木","passengers":362343,"passenger_rank":163,"source_region":null,"importance_rank":1,"importance":"local_connector","airport_type":"local","status_category":"active"},"geometry":{"type":"Point","coordinates":[94.7889494,36.4022654]}},{"type":"Feature","properties":{"id":"cn-airport-湘西边城","name":"湘西/边城","passengers":361027,"passenger_rank":164,"source_region":null,"importance_rank":1,"importance":"local_connector","airport_type":"local","status_category":"active"},"geometry":{"type":"Point","coordinates":[109.5196993,28.495068]}},{"type":"Feature","properties":{"id":"cn-airport-满洲里西郊","name":"满洲里/西郊","passengers":346804,"passenger_rank":165,"source_region":null,"importance_rank":1,"importance":"local_connector","airport_type":"local","status_category":"active"},"geometry":{"type":"Point","coordinates":[117.3265979,49.5672223]}},{"type":"Feature","properties":{"id":"cn-airport-黑河瑷珲","name":"黑河/瑷珲","passengers":345078,"passenger_rank":166,"source_region":null,"importance_rank":1,"importance":"local_connector","airport_type":"local","status_category":"active"},"geometry":{"type":"Point","coordinates":[127.3092113,50.1720641]}},{"type":"Feature","properties":{"id":"cn-airport-景德镇罗家","name":"景德镇/罗家","passengers":331426,"passenger_rank":167,"source_region":null,"importance_rank":1,"importance":"local_connector","airport_type":"local","status_category":"active"},"geometry":{"type":"Point","coordinates":[117.1762862,29.3396961]}},{"type":"Feature","properties":{"id":"cn-airport-安庆天柱山","name":"安庆/天柱山","passengers":330601,"passenger_rank":168,"source_region":null,"importance_rank":1,"importance":"local_connector","airport_type":"local","status_category":"active"},"geometry":{"type":"Point","coordinates":[117.0477658,30.5854799]}},{"type":"Feature","properties":{"id":"cn-airport-中卫沙坡头","name":"中卫/沙坡头","passengers":329627,"passenger_rank":169,"source_region":null,"importance_rank":1,"importance":"local_connector","airport_type":"local","status_category":"active"},"geometry":{"type":"Point","coordinates":[105.1545352,37.5710349]}},{"type":"Feature","properties":{"id":"cn-airport-池州九华山","name":"池州/九华山","passengers":324119,"passenger_rank":171,"source_region":null,"importance_rank":1,"importance":"local_connector","airport_type":"local","status_category":"active"},"geometry":{"type":"Point","coordinates":[117.6865219,30.7415699]}},{"type":"Feature","properties":{"id":"cn-airport-武夷山","name":"武夷山","passengers":319361,"passenger_rank":172,"source_region":null,"importance_rank":1,"importance":"local_connector","airport_type":"local","status_category":"active"},"geometry":{"type":"Point","coordinates":[117.9998233,27.7011401]}},{"type":"Feature","properties":{"id":"cn-airport-黄山屯溪","name":"黄山/屯溪","passengers":318012,"passenger_rank":173,"source_region":null,"importance_rank":1,"importance":"local_connector","airport_type":"local","status_category":"active"},"geometry":{"type":"Point","coordinates":[118.2564637,29.733299]}},{"type":"Feature","properties":{"id":"cn-airport-岳阳三荷","name":"岳阳/三荷","passengers":316609,"passenger_rank":174,"source_region":null,"importance_rank":1,"importance":"local_connector","airport_type":"local","status_category":"active"},"geometry":{"type":"Point","coordinates":[113.2804431,29.3115782]}},{"type":"Feature","properties":{"id":"cn-airport-信阳明港","name":"信阳/明港","passengers":303868,"passenger_rank":175,"source_region":null,"importance_rank":1,"importance":"local_connector","airport_type":"local","status_category":"active"},"geometry":{"type":"Point","coordinates":[114.0791809,32.5410246]}},{"type":"Feature","properties":{"id":"cn-airport-张掖甘州","name":"张掖/甘州","passengers":297932,"passenger_rank":176,"source_region":null,"importance_rank":1,"importance":"local_connector","airport_type":"local","status_category":"active"},"geometry":{"type":"Point","coordinates":[100.6703487,38.8020437]}},{"type":"Feature","properties":{"id":"cn-airport-秦皇岛北戴河","name":"秦皇岛/北戴河","passengers":292657,"passenger_rank":177,"source_region":null,"importance_rank":1,"importance":"local_connector","airport_type":"local","status_category":"active"},"geometry":{"type":"Point","coordinates":[119.0641855,39.6648711]}},{"type":"Feature","properties":{"id":"cn-airport-奇台江布拉克","name":"奇台/江布拉克","passengers":282178,"passenger_rank":179,"source_region":null,"importance_rank":1,"importance":"local_connector","airport_type":"local","status_category":"active"},"geometry":{"type":"Point","coordinates":[89.5520833,44.164891]}},{"type":"Feature","properties":{"id":"cn-airport-漠河古莲","name":"漠河/古莲","passengers":271443,"passenger_rank":180,"source_region":null,"importance_rank":1,"importance":"local_connector","airport_type":"local","status_category":"active"},"geometry":{"type":"Point","coordinates":[122.4293567,52.9132534]}},{"type":"Feature","properties":{"id":"cn-airport-伊春林都","name":"伊春/林都","passengers":268658,"passenger_rank":181,"source_region":null,"importance_rank":1,"importance":"local_connector","airport_type":"local","status_category":"active"},"geometry":{"type":"Point","coordinates":[129.0159148,47.7524187]}},{"type":"Feature","properties":{"id":"cn-airport-鄂州花湖","name":"鄂州/花湖","passengers":262424,"passenger_rank":182,"source_region":null,"importance_rank":1,"importance":"local_connector","airport_type":"local","status_category":"active"},"geometry":{"type":"Point","coordinates":[115.039632,30.3411208]}},{"type":"Feature","properties":{"id":"cn-airport-玉林福绵","name":"玉林/福绵","passengers":241611,"passenger_rank":183,"source_region":null,"importance_rank":1,"importance":"local_connector","airport_type":"local","status_category":"active"},"geometry":{"type":"Point","coordinates":[110.1209335,22.4329871]}},{"type":"Feature","properties":{"id":"cn-airport-大兴安岭鄂伦春","name":"大兴安岭/鄂伦春","passengers":235716,"passenger_rank":184,"source_region":null,"importance_rank":1,"importance":"local_connector","airport_type":"local","status_category":"active"},"geometry":{"type":"Point","coordinates":[124.1159023,50.3718571]}},{"type":"Feature","properties":{"id":"cn-airport-金昌金川","name":"金昌/金川","passengers":231665,"passenger_rank":185,"source_region":null,"importance_rank":1,"importance":"local_connector","airport_type":"local","status_category":"active"},"geometry":{"type":"Point","coordinates":[102.3506277,38.5410444]}},{"type":"Feature","properties":{"id":"cn-airport-牡丹江海浪","name":"牡丹江/海浪","passengers":221033,"passenger_rank":186,"source_region":null,"importance_rank":1,"importance":"local_connector","airport_type":"local","status_category":"active"},"geometry":{"type":"Point","coordinates":[129.5692026,44.5256453]}},{"type":"Feature","properties":{"id":"cn-airport-韶关丹霞","name":"韶关/丹霞","passengers":219943,"passenger_rank":187,"source_region":null,"importance_rank":1,"importance":"local_connector","airport_type":"local","status_category":"active"},"geometry":{"type":"Point","coordinates":[113.4219612,24.9756516]}},{"type":"Feature","properties":{"id":"cn-airport-阆中古城","name":"阆中/古城","passengers":213036,"passenger_rank":188,"source_region":null,"importance_rank":1,"importance":"local_connector","airport_type":"local","status_category":"active"},"geometry":{"type":"Point","coordinates":[106.0356067,31.5027619]}},{"type":"Feature","properties":{"id":"cn-airport-白城长安","name":"白城/长安","passengers":204937,"passenger_rank":189,"source_region":null,"importance_rank":1,"importance":"local_connector","airport_type":"local","status_category":"active"},"geometry":{"type":"Point","coordinates":[123.0234125,45.5068553]}},{"type":"Feature","properties":{"id":"cn-airport-通化三源浦","name":"通化/三源浦","passengers":198445,"passenger_rank":190,"source_region":null,"importance_rank":1,"importance":"local_connector","airport_type":"local","status_category":"active"},"geometry":{"type":"Point","coordinates":[125.7347247,42.0477304]}},{"type":"Feature","properties":{"id":"cn-airport-朔州滋润","name":"朔州/滋润","passengers":195955,"passenger_rank":192,"source_region":null,"importance_rank":1,"importance":"local_connector","airport_type":"local","status_category":"active"},"geometry":{"type":"Point","coordinates":[112.6887791,39.2725765]}},{"type":"Feature","properties":{"id":"cn-airport-邵阳武冈","name":"邵阳/武冈","passengers":195183,"passenger_rank":193,"source_region":null,"importance_rank":1,"importance":"local_connector","airport_type":"local","status_category":"active"},"geometry":{"type":"Point","coordinates":[110.6405384,26.8062665]}},{"type":"Feature","properties":{"id":"cn-airport-张家口宁远","name":"张家口/宁远","passengers":195052,"passenger_rank":194,"source_region":null,"importance_rank":1,"importance":"local_connector","airport_type":"local","status_category":"active"},"geometry":{"type":"Point","coordinates":[114.9362294,40.7382198]}},{"type":"Feature","properties":{"id":"cn-airport-于田万方","name":"于田/万方","passengers":194689,"passenger_rank":195,"source_region":null,"importance_rank":1,"importance":"local_connector","airport_type":"local","status_category":"active"},"geometry":{"type":"Point","coordinates":[81.7859023,36.8093854]}},{"type":"Feature","properties":{"id":"cn-airport-文山砚山","name":"文山/砚山","passengers":193860,"passenger_rank":196,"source_region":null,"importance_rank":1,"importance":"local_connector","airport_type":"local","status_category":"active"},"geometry":{"type":"Point","coordinates":[104.3264938,23.5578518]}},{"type":"Feature","properties":{"id":"cn-airport-安阳红旗渠","name":"安阳/红旗渠","passengers":193396,"passenger_rank":197,"source_region":null,"importance_rank":1,"importance":"local_connector","airport_type":"local","status_category":"active"},"geometry":{"type":"Point","coordinates":[114.4655781,35.8689362]}},{"type":"Feature","properties":{"id":"cn-airport-阿里昆莎","name":"阿里/昆莎","passengers":191746,"passenger_rank":198,"source_region":null,"importance_rank":1,"importance":"local_connector","airport_type":"local","status_category":"active"},"geometry":{"type":"Point","coordinates":[80.0528354,32.1014656]}},{"type":"Feature","properties":{"id":"cn-airport-永州零陵","name":"永州/零陵","passengers":187394,"passenger_rank":199,"source_region":null,"importance_rank":1,"importance":"local_connector","airport_type":"local","status_category":"active"},"geometry":{"type":"Point","coordinates":[111.6104159,26.3389849]}},{"type":"Feature","properties":{"id":"cn-airport-普洱思茅","name":"普洱/思茅","passengers":185686,"passenger_rank":200,"source_region":null,"importance_rank":1,"importance":"local_connector","airport_type":"local","status_category":"active"},"geometry":{"type":"Point","coordinates":[100.9593367,22.7934522]}},{"type":"Feature","properties":{"id":"cn-airport-扎兰屯成吉思汗","name":"扎兰屯/成吉思汗","passengers":185255,"passenger_rank":201,"source_region":null,"importance_rank":1,"importance":"local_connector","airport_type":"local","status_category":"active"},"geometry":{"type":"Point","coordinates":[122.7682417,47.8645389]}},{"type":"Feature","properties":{"id":"cn-airport-霍林郭勒霍林河","name":"霍林郭勒/霍林河","passengers":169575,"passenger_rank":202,"source_region":null,"importance_rank":1,"importance":"local_connector","airport_type":"local","status_category":"active"},"geometry":{"type":"Point","coordinates":[119.4087543,45.4865702]}},{"type":"Feature","properties":{"id":"cn-airport-攀枝花保安营","name":"攀枝花/保安营","passengers":167476,"passenger_rank":203,"source_region":null,"importance_rank":1,"importance":"local_connector","airport_type":"local","status_category":"active"},"geometry":{"type":"Point","coordinates":[101.798273,26.5395751]}},{"type":"Feature","properties":{"id":"cn-airport-松原查干湖","name":"松原/查干湖","passengers":158463,"passenger_rank":204,"source_region":null,"importance_rank":1,"importance":"local_connector","airport_type":"local","status_category":"active"},"geometry":{"type":"Point","coordinates":[124.5499842,44.9287929]}},{"type":"Feature","properties":{"id":"cn-airport-营口兰旗","name":"营口/兰旗","passengers":157511,"passenger_rank":205,"source_region":null,"importance_rank":1,"importance":"local_connector","airport_type":"local","status_category":"active"},"geometry":{"type":"Point","coordinates":[122.3590942,40.5441957]}},{"type":"Feature","properties":{"id":"cn-airport-邢台褡裢","name":"邢台/褡裢","passengers":154420,"passenger_rank":206,"source_region":null,"importance_rank":1,"importance":"local_connector","airport_type":"local","status_category":"active"},"geometry":{"type":"Point","coordinates":[114.4280552,36.8830209]}},{"type":"Feature","properties":{"id":"cn-airport-鞍山腾鳌","name":"鞍山/腾鳌","passengers":129867,"passenger_rank":208,"source_region":null,"importance_rank":1,"importance":"local_connector","airport_type":"local","status_category":"active"},"geometry":{"type":"Point","coordinates":[122.8551316,41.1056401]}},{"type":"Feature","properties":{"id":"cn-airport-固原六盘山","name":"固原/六盘山","passengers":127510,"passenger_rank":209,"source_region":null,"importance_rank":1,"importance":"local_connector","airport_type":"local","status_category":"active"},"geometry":{"type":"Point","coordinates":[106.2204334,36.0791562]}},{"type":"Feature","properties":{"id":"cn-airport-沧源佤山","name":"沧源/佤山","passengers":126427,"passenger_rank":210,"source_region":null,"importance_rank":1,"importance":"local_connector","airport_type":"local","status_category":"active"},"geometry":{"type":"Point","coordinates":[99.3734203,23.2754683]}},{"type":"Feature","properties":{"id":"cn-airport-梅州梅县","name":"梅州/梅县","passengers":126119,"passenger_rank":211,"source_region":null,"importance_rank":1,"importance":"local_connector","airport_type":"local","status_category":"active"},"geometry":{"type":"Point","coordinates":[116.0976912,24.2628759]}},{"type":"Feature","properties":{"id":"cn-airport-日喀则和平","name":"日喀则/和平","passengers":125883,"passenger_rank":212,"source_region":null,"importance_rank":1,"importance":"local_connector","airport_type":"local","status_category":"active"},"geometry":{"type":"Point","coordinates":[89.3030198,29.3502209]}},{"type":"Feature","properties":{"id":"cn-airport-梧州西江","name":"梧州/西江","passengers":123353,"passenger_rank":213,"source_region":null,"importance_rank":1,"importance":"local_connector","airport_type":"local","status_category":"active"},"geometry":{"type":"Point","coordinates":[111.0987339,23.4032666]}},{"type":"Feature","properties":{"id":"cn-airport-若羌楼兰","name":"若羌/楼兰","passengers":116657,"passenger_rank":215,"source_region":null,"importance_rank":1,"importance":"local_connector","airport_type":"local","status_category":"active"},"geometry":{"type":"Point","coordinates":[88.0074485,38.9737892]}},{"type":"Feature","properties":{"id":"cn-airport-承德普宁","name":"承德/普宁","passengers":115057,"passenger_rank":216,"source_region":null,"importance_rank":1,"importance":"local_connector","airport_type":"local","status_category":"active"},"geometry":{"type":"Point","coordinates":[118.0762895,41.1209967]}},{"type":"Feature","properties":{"id":"cn-airport-澜沧景迈","name":"澜沧/景迈","passengers":113611,"passenger_rank":217,"source_region":null,"importance_rank":1,"importance":"local_connector","airport_type":"local","status_category":"active"},"geometry":{"type":"Point","coordinates":[99.7842921,22.4169532]}},{"type":"Feature","properties":{"id":"cn-airport-阿拉善左旗巴彦浩特","name":"阿拉善左旗/巴彦浩特","passengers":108572,"passenger_rank":219,"source_region":null,"importance_rank":1,"importance":"local_connector","airport_type":"local","status_category":"active"},"geometry":{"type":"Point","coordinates":[105.5839908,38.7483201]}},{"type":"Feature","properties":{"id":"cn-airport-乌兰察布集宁","name":"乌兰察布/集宁","passengers":106639,"passenger_rank":220,"source_region":null,"importance_rank":1,"importance":"local_connector","airport_type":"local","status_category":"active"},"geometry":{"type":"Point","coordinates":[113.1093729,41.1301945]}},{"type":"Feature","properties":{"id":"cn-airport-果洛玛沁","name":"果洛/玛沁","passengers":106239,"passenger_rank":221,"source_region":null,"importance_rank":1,"importance":"local_connector","airport_type":"local","status_category":"active"},"geometry":{"type":"Point","coordinates":[100.3005892,34.418674]}},{"type":"Feature","properties":{"id":"cn-airport-黔江武陵山","name":"黔江/武陵山","passengers":98337,"passenger_rank":223,"source_region":null,"importance_rank":1,"importance":"local_connector","airport_type":"local","status_category":"active"},"geometry":{"type":"Point","coordinates":[108.831253,29.5152017]}},{"type":"Feature","properties":{"id":"cn-airport-丹东浪头","name":"丹东/浪头","passengers":95286,"passenger_rank":224,"source_region":null,"importance_rank":1,"importance":"local_connector","airport_type":"local","status_category":"active"},"geometry":{"type":"Point","coordinates":[124.2813329,40.026874]}},{"type":"Feature","properties":{"id":"cn-airport-富蕴可可托海","name":"富蕴/可可托海","passengers":93999,"passenger_rank":225,"source_region":null,"importance_rank":1,"importance":"local_connector","airport_type":"local","status_category":"active"},"geometry":{"type":"Point","coordinates":[89.5133372,46.8038693]}},{"type":"Feature","properties":{"id":"cn-airport-毕节飞雄","name":"毕节/飞雄","passengers":93076,"passenger_rank":226,"source_region":null,"importance_rank":1,"importance":"local_connector","airport_type":"local","status_category":"active"},"geometry":{"type":"Point","coordinates":[105.4732006,27.267066]}},{"type":"Feature","properties":{"id":"cn-airport-稻城亚丁","name":"稻城/亚丁","passengers":89635,"passenger_rank":227,"source_region":null,"importance_rank":1,"importance":"local_connector","airport_type":"local","status_category":"active"},"geometry":{"type":"Point","coordinates":[100.061019,29.3168192]}},{"type":"Feature","properties":{"id":"cn-airport-抚远东极","name":"抚远/东极","passengers":86447,"passenger_rank":228,"source_region":null,"importance_rank":1,"importance":"local_connector","airport_type":"local","status_category":"active"},"geometry":{"type":"Point","coordinates":[134.3659767,48.1986775]}},{"type":"Feature","properties":{"id":"cn-airport-建三江湿地","name":"建三江/湿地","passengers":86419,"passenger_rank":229,"source_region":null,"importance_rank":1,"importance":"local_connector","airport_type":"local","status_category":"active"},"geometry":{"type":"Point","coordinates":[132.6553991,47.1101927]}},{"type":"Feature","properties":{"id":"cn-airport-海西茫崖","name":"海西/茫崖","passengers":76329,"passenger_rank":230,"source_region":null,"importance_rank":1,"importance":"local_connector","airport_type":"local","status_category":"active"},"geometry":{"type":"Point","coordinates":[90.8410669,38.1983543]}},{"type":"Feature","properties":{"id":"cn-airport-阿尔山伊尔施","name":"阿尔山/伊尔施","passengers":67345,"passenger_rank":231,"source_region":null,"importance_rank":1,"importance":"local_connector","airport_type":"local","status_category":"active"},"geometry":{"type":"Point","coordinates":[119.9114256,47.3105486]}},{"type":"Feature","properties":{"id":"cn-airport-安顺黄果树","name":"安顺/黄果树","passengers":66345,"passenger_rank":232,"source_region":null,"importance_rank":1,"importance":"local_connector","airport_type":"local","status_category":"active"},"geometry":{"type":"Point","coordinates":[105.8732277,26.2607945]}},{"type":"Feature","properties":{"id":"cn-airport-巴里坤大河","name":"巴里坤/大河","passengers":62106,"passenger_rank":234,"source_region":null,"importance_rank":1,"importance":"local_connector","airport_type":"local","status_category":"active"},"geometry":{"type":"Point","coordinates":[93.1400343,43.7544506]}},{"type":"Feature","properties":{"id":"cn-airport-六盘水月照","name":"六盘水/月照","passengers":61406,"passenger_rank":235,"source_region":null,"importance_rank":1,"importance":"local_connector","airport_type":"local","status_category":"active"},"geometry":{"type":"Point","coordinates":[104.9787721,26.6086482]}},{"type":"Feature","properties":{"id":"cn-airport-三沙永兴","name":"三沙/永兴","passengers":57566,"passenger_rank":236,"source_region":null,"importance_rank":1,"importance":"local_connector","airport_type":"local","status_category":"active"},"geometry":{"type":"Point","coordinates":[112.3447135,16.833801]}},{"type":"Feature","properties":{"id":"cn-airport-甘孜格萨尔","name":"甘孜/格萨尔","passengers":53896,"passenger_rank":237,"source_region":null,"importance_rank":1,"importance":"local_connector","airport_type":"local","status_category":"active"},"geometry":{"type":"Point","coordinates":[99.5544048,31.7557545]}},{"type":"Feature","properties":{"id":"cn-airport-朝阳","name":"朝阳","passengers":51065,"passenger_rank":238,"source_region":null,"importance_rank":1,"importance":"local_connector","airport_type":"local","status_category":"active"},"geometry":{"type":"Point","coordinates":[120.4342413,41.5393124]}},{"type":"Feature","properties":{"id":"cn-airport-绥芬河东宁","name":"绥芬河/东宁","passengers":49647,"passenger_rank":239,"source_region":null,"importance_rank":1,"importance":"local_connector","airport_type":"local","status_category":"active"},"geometry":{"type":"Point","coordinates":[130.8452253,44.453633]}},{"type":"Feature","properties":{"id":"cn-airport-新源那拉提","name":"新源/那拉提","passengers":48866,"passenger_rank":240,"source_region":null,"importance_rank":1,"importance":"local_connector","airport_type":"local","status_category":"active"},"geometry":{"type":"Point","coordinates":[83.3792028,43.4296384]}},{"type":"Feature","properties":{"id":"cn-airport-五大连池德都","name":"五大连池/德都","passengers":44369,"passenger_rank":242,"source_region":null,"importance_rank":1,"importance":"local_connector","airport_type":"local","status_category":"active"},"geometry":{"type":"Point","coordinates":[126.1321143,48.4424325]}},{"type":"Feature","properties":{"id":"cn-airport-赣州瑞金","name":"赣州/瑞金","passengers":43214,"passenger_rank":243,"source_region":null,"importance_rank":1,"importance":"local_connector","airport_type":"local","status_category":"active"},"geometry":{"type":"Point","coordinates":[116.077139,25.9600229]}},{"type":"Feature","properties":{"id":"cn-airport-亳州","name":"亳州","passengers":37351,"passenger_rank":245,"source_region":null,"importance_rank":1,"importance":"local_connector","airport_type":"local","status_category":"active"},"geometry":{"type":"Point","coordinates":[115.9074381,33.561385]}},{"type":"Feature","properties":{"id":"cn-airport-九寨黄龙","name":"九寨/黄龙","passengers":32011,"passenger_rank":246,"source_region":null,"importance_rank":1,"importance":"local_connector","airport_type":"local","status_category":"active"},"geometry":{"type":"Point","coordinates":[103.6823988,32.8531772]}},{"type":"Feature","properties":{"id":"cn-airport-重庆巫山","name":"重庆/巫山","passengers":31458,"passenger_rank":247,"source_region":null,"importance_rank":1,"importance":"local_connector","airport_type":"local","status_category":"active"},"geometry":{"type":"Point","coordinates":[109.7074162,31.0678792]}},{"type":"Feature","properties":{"id":"cn-airport-阿坝红原","name":"阿坝/红原","passengers":28107,"passenger_rank":248,"source_region":null,"importance_rank":1,"importance":"local_connector","airport_type":"local","status_category":"active"},"geometry":{"type":"Point","coordinates":[102.3519656,32.5313258]}},{"type":"Feature","properties":{"id":"cn-airport-百色巴马","name":"百色/巴马","passengers":23190,"passenger_rank":249,"source_region":null,"importance_rank":1,"importance":"local_connector","airport_type":"local","status_category":"active"},"geometry":{"type":"Point","coordinates":[106.9604651,23.7199096]}},{"type":"Feature","properties":{"id":"cn-airport-天水麦积山","name":"天水/麦积山","passengers":20557,"passenger_rank":250,"source_region":null,"importance_rank":1,"importance":"local_connector","airport_type":"local","status_category":"active"},"geometry":{"type":"Point","coordinates":[105.8596666,34.5593479]}},{"type":"Feature","properties":{"id":"cn-airport-塔什库尔干红其拉甫","name":"塔什库尔干/红其拉甫","passengers":16209,"passenger_rank":251,"source_region":null,"importance_rank":1,"importance":"local_connector","airport_type":"local","status_category":"active"},"geometry":{"type":"Point","coordinates":[75.2888313,37.6613224]}},{"type":"Feature","properties":{"id":"cn-airport-凯里黄平","name":"凯里/黄平","passengers":14395,"passenger_rank":252,"source_region":null,"importance_rank":1,"importance":"local_connector","airport_type":"local","status_category":"active"},"geometry":{"type":"Point","coordinates":[107.9873379,26.9718911]}},{"type":"Feature","properties":{"id":"cn-airport-阿里普兰","name":"阿里/普兰","passengers":12909,"passenger_rank":253,"source_region":null,"importance_rank":1,"importance":"local_connector","airport_type":"local","status_category":"active"},"geometry":{"type":"Point","coordinates":[81.1331904,30.3977657]}},{"type":"Feature","properties":{"id":"cn-airport-重庆仙女山","name":"重庆/仙女山","passengers":10488,"passenger_rank":254,"source_region":null,"importance_rank":1,"importance":"local_connector","airport_type":"local","status_category":"active"},"geometry":{"type":"Point","coordinates":[107.694711,29.4651025]}},{"type":"Feature","properties":{"id":"cn-airport-海北祁连","name":"海北/祁连","passengers":10444,"passenger_rank":255,"source_region":null,"importance_rank":1,"importance":"local_connector","airport_type":"local","status_category":"active"},"geometry":{"type":"Point","coordinates":[100.6415645,38.0093846]}},{"type":"Feature","properties":{"id":"cn-airport-宁蒗泸沽湖","name":"宁蒗/泸沽湖","passengers":7917,"passenger_rank":256,"source_region":null,"importance_rank":1,"importance":"local_connector","airport_type":"local","status_category":"active"},"geometry":{"type":"Point","coordinates":[100.7588788,27.5406092]}},{"type":"Feature","properties":{"id":"cn-airport-嘉兴南湖","name":"嘉兴/南湖","passengers":7450,"passenger_rank":257,"source_region":null,"importance_rank":1,"importance":"local_connector","airport_type":"local","status_category":"active"},"geometry":{"type":"Point","coordinates":[120.6691563,30.7041836]}},{"type":"Feature","properties":{"id":"cn-airport-甘孜康定","name":"甘孜/康定","passengers":6430,"passenger_rank":259,"source_region":null,"importance_rank":1,"importance":"local_connector","airport_type":"local","status_category":"active"},"geometry":{"type":"Point","coordinates":[101.7387331,30.1430251]}},{"type":"Feature","properties":{"id":"cn-airport-日喀则定日","name":"日喀则/定日","passengers":4954,"passenger_rank":260,"source_region":null,"importance_rank":1,"importance":"local_connector","airport_type":"local","status_category":"active"},"geometry":{"type":"Point","coordinates":[86.7977183,28.6040097]}},{"type":"Feature","properties":{"id":"cn-airport-山南隆子","name":"山南/隆子","passengers":4813,"passenger_rank":261,"source_region":null,"importance_rank":1,"importance":"local_connector","airport_type":"local","status_category":"active"},"geometry":{"type":"Point","coordinates":[92.3479531,28.4233146]}},{"type":"Feature","properties":{"id":"cn-airport-额济纳旗桃来","name":"额济纳旗/桃来","passengers":4355,"passenger_rank":262,"source_region":null,"importance_rank":1,"importance":"local_connector","airport_type":"local","status_category":"active"},"geometry":{"type":"Point","coordinates":[101.0008278,42.0155397]}},{"type":"Feature","properties":{"id":"cn-airport-河池金城江","name":"河池/金城江","passengers":2018,"passenger_rank":265,"source_region":null,"importance_rank":1,"importance":"local_connector","airport_type":"local","status_category":"active"},"geometry":{"type":"Point","coordinates":[107.7108917,24.8048226]}},{"type":"Feature","properties":{"id":"cn-airport-和静巴音布鲁克","name":"和静/巴音布鲁克","passengers":208,"passenger_rank":266,"source_region":null,"importance_rank":1,"importance":"local_connector","airport_type":"local","status_category":"active"},"geometry":{"type":"Point","coordinates":[83.9927333,42.9760847]}},{"type":"Feature","properties":{"id":"cn-airport-黔东南黎平","name":"黔东南/黎平","passengers":0,"passenger_rank":268,"source_region":null,"importance_rank":1,"importance":"local_connector","airport_type":"local","status_category":"active"},"geometry":{"type":"Point","coordinates":[109.149764,26.3224851]}},{"type":"Feature","properties":{"id":"tw-airport-臺灣桃園","name":"臺灣桃園國際機場","passengers":0,"passenger_rank":0,"source_region":"TW","importance_rank":1,"importance":"local_connector","airport_type":"local","status_category":"active"},"geometry":{"type":"Point","coordinates":[121.2313547,25.07917]}},{"type":"Feature","properties":{"id":"tw-airport-高雄","name":"高雄國際機場","passengers":0,"passenger_rank":0,"source_region":"TW","importance_rank":1,"importance":"local_connector","airport_type":"local","status_category":"active"},"geometry":{"type":"Point","coordinates":[120.3479619,22.5757507]}},{"type":"Feature","properties":{"id":"tw-airport-臺北松山","name":"臺北松山國際機場","passengers":0,"passenger_rank":0,"source_region":"TW","importance_rank":1,"importance":"local_connector","airport_type":"local","status_category":"active"},"geometry":{"type":"Point","coordinates":[121.5533466,25.0668955]}},{"type":"Feature","properties":{"id":"tw-airport-花蓮","name":"花蓮機場","passengers":0,"passenger_rank":0,"source_region":"TW","importance_rank":1,"importance":"local_connector","airport_type":"local","status_category":"active"},"geometry":{"type":"Point","coordinates":[121.6182415,24.0237068]}},{"type":"Feature","properties":{"id":"tw-airport-澎湖","name":"澎湖機場","passengers":0,"passenger_rank":0,"source_region":"TW","importance_rank":1,"importance":"local_connector","airport_type":"local","status_category":"active"},"geometry":{"type":"Point","coordinates":[119.6293798,23.5686436]}},{"type":"Feature","properties":{"id":"tw-airport-臺南","name":"臺南機場","passengers":0,"passenger_rank":0,"source_region":"TW","importance_rank":1,"importance":"local_connector","airport_type":"local","status_category":"active"},"geometry":{"type":"Point","coordinates":[120.2077211,22.9506149]}},{"type":"Feature","properties":{"id":"tw-airport-馬祖南竿","name":"馬祖南竿機場","passengers":0,"passenger_rank":0,"source_region":"TW","importance_rank":1,"importance":"local_connector","airport_type":"local","status_category":"active"},"geometry":{"type":"Point","coordinates":[119.9584833,26.1597096]}},{"type":"Feature","properties":{"id":"tw-airport-馬祖北竿","name":"馬祖北竿機場","passengers":0,"passenger_rank":0,"source_region":"TW","importance_rank":1,"importance":"local_connector","airport_type":"local","status_category":"active"},"geometry":{"type":"Point","coordinates":[120.0025131,26.2243931]}},{"type":"Feature","properties":{"id":"tw-airport-蘭嶼","name":"蘭嶼機場","passengers":0,"passenger_rank":0,"source_region":"TW","importance_rank":1,"importance":"local_connector","airport_type":"local","status_category":"active"},"geometry":{"type":"Point","coordinates":[121.5339506,22.0286143]}},{"type":"Feature","properties":{"id":"tw-airport-綠島","name":"綠島機場","passengers":0,"passenger_rank":0,"source_region":"TW","importance_rank":1,"importance":"local_connector","airport_type":"local","status_category":"active"},"geometry":{"type":"Point","coordinates":[121.4662814,22.6731697]}},{"type":"Feature","properties":{"id":"tw-airport-七美","name":"七美機場","passengers":0,"passenger_rank":0,"source_region":"TW","importance_rank":1,"importance":"local_connector","airport_type":"local","status_category":"active"},"geometry":{"type":"Point","coordinates":[119.4175631,23.2129509]}},{"type":"Feature","properties":{"id":"tw-airport-望安","name":"望安機場","passengers":0,"passenger_rank":0,"source_region":"TW","importance_rank":1,"importance":"local_connector","airport_type":"local","status_category":"active"},"geometry":{"type":"Point","coordinates":[119.5035385,23.3691192]}},{"type":"Feature","properties":{"id":"tw-airport-恆春","name":"恆春機場","passengers":0,"passenger_rank":0,"source_region":"TW","importance_rank":1,"importance":"local_connector","airport_type":"local","status_category":"active"},"geometry":{"type":"Point","coordinates":[120.7305265,22.038992]}}]}