{"type":"FeatureCollection","features":[{"type":"Feature","properties":{"id":"russia-osm-road-100122905","name":"Новорижское шоссе"},"geometry":{"type":"Point","coordinates":[36.54854745,55.937991999999994]}},{"type":"Feature","properties":{"id":"russia-osm-road-1001574391","name":"Центральная кольцевая автомобильная дорога"},"geometry":{"type":"Point","coordinates":[38.40543155,55.5305285]}},{"type":"Feature","properties":{"id":"russia-osm-road-1003084311","name":"«Крым»"},"geometry":{"type":"Point","coordinates":[37.5352065,55.2013001]}},{"type":"Feature","properties":{"id":"russia-osm-road-1018381498","name":"КАД"},"geometry":{"type":"Point","coordinates":[30.3460788,60.09454325]}},{"type":"Feature","properties":{"id":"russia-osm-road-102447623","name":"«Дон»"},"geometry":{"type":"Point","coordinates":[38.0388925,54.8476462]}},{"type":"Feature","properties":{"id":"russia-osm-road-1025800906","name":"Алексеевское - Альметьевск"},"geometry":{"type":"Point","coordinates":[50.142864045531425,55.2287824951413]}},{"type":"Feature","properties":{"id":"russia-osm-road-103423793","name":"М-2"},"geometry":{"type":"Point","coordinates":[37.53191425,54.97665275]}},{"type":"Feature","properties":{"id":"russia-osm-road-1034572937","name":"绥满高速"},"geometry":{"type":"Point","coordinates":[117.38663464999999,49.61818195]}},{"type":"Feature","properties":{"id":"russia-osm-road-1051256376","name":"«М-4 Дон»"},"geometry":{"type":"Point","coordinates":[37.74742835,55.47726645]}},{"type":"Feature","properties":{"id":"russia-osm-road-1053072562","name":"ЗСД"},"geometry":{"type":"Point","coordinates":[30.29426655,59.86960605]}},{"type":"Feature","properties":{"id":"russia-osm-road-1054658994","name":"«Нева»"},"geometry":{"type":"Point","coordinates":[36.1909651,56.788545]}},{"type":"Feature","properties":{"id":"russia-osm-road-1115020745","name":"«Восток»"},"geometry":{"type":"Point","coordinates":[56.53701084870466,56.43381481703402]}},{"type":"Feature","properties":{"id":"russia-osm-road-111990076","name":"Южный обход"},"geometry":{"type":"Point","coordinates":[43.91314415,56.11645115]}},{"type":"Feature","properties":{"id":"russia-osm-road-1176543244","name":"Международное шоссе"},"geometry":{"type":"Point","coordinates":[37.41084055,55.94670235]}},{"type":"Feature","properties":{"id":"russia-osm-road-1187017614","name":"«Холмогоры»"},"geometry":{"type":"Point","coordinates":[38.3516928,56.4603154]}},{"type":"Feature","properties":{"id":"russia-osm-road-1241489153","name":"«Индигир»"},"geometry":{"type":"Point","coordinates":[143.2554917,64.58015664999999]}},{"type":"Feature","properties":{"id":"russia-osm-road-1248911588","name":"Кемерово — Новокузнецк"},"geometry":{"type":"Point","coordinates":[86.22471227931828,55.11980447950819]}},{"type":"Feature","properties":{"id":"russia-osm-road-131985918","name":"Симферопольское шоссе"},"geometry":{"type":"Point","coordinates":[37.6097578,55.5012276]}},{"type":"Feature","properties":{"id":"russia-osm-road-1499849379","name":"motorway"},"geometry":{"type":"Point","coordinates":[39.3245902,51.6680456]}},{"type":"Feature","properties":{"id":"russia-osm-road-1523972753","name":"Трубчатый переезд №137"},"geometry":{"type":"Point","coordinates":[39.5260008,45.291583349999996]}},{"type":"Feature","properties":{"id":"russia-osm-road-1523972993","name":"Трубчатй переезд №135"},"geometry":{"type":"Point","coordinates":[39.557243650000004,45.29178675]}},{"type":"Feature","properties":{"id":"russia-osm-road-170291410","name":"М-8"},"geometry":{"type":"Point","coordinates":[38.41752465,56.4844653]}},{"type":"Feature","properties":{"id":"russia-osm-road-172456124","name":"Беляевский мост"},"geometry":{"type":"Point","coordinates":[30.49428035,59.9847707]}},{"type":"Feature","properties":{"id":"russia-osm-road-177042611","name":"Большой Обуховский мост"},"geometry":{"type":"Point","coordinates":[30.49812565,59.85494325]}},{"type":"Feature","properties":{"id":"russia-osm-road-28502210","name":"Стригинский мост"},"geometry":{"type":"Point","coordinates":[43.75009015,56.18742585]}},{"type":"Feature","properties":{"id":"russia-osm-road-28502468","name":"«Волга»"},"geometry":{"type":"Point","coordinates":[43.699488934481984,56.284397996852974]}},{"type":"Feature","properties":{"id":"russia-osm-road-351523590","name":"32К-445"},"geometry":{"type":"Point","coordinates":[86.33038195,54.936003150000005]}},{"type":"Feature","properties":{"id":"russia-osm-road-442401582","name":"М-7"},"geometry":{"type":"Point","coordinates":[43.9172294,56.117392550000005]}}]}