{"type":"FeatureCollection","features":[{"type":"Feature","properties":{"id":"DEBKGPOI0000002H","name":"Stuttgart","icao":"EDDS","facility_type":"international","importance_rank":2,"importance":"regional_core","airport_type":"specific_local","status_category":"active"},"geometry":{"type":"Point","coordinates":[9.19364170561375,48.690570052428185]}},{"type":"Feature","properties":{"id":"DEBKGPOI0000002I","name":"Karlsruhe/Baden-Baden","icao":"EDSB","facility_type":"regional","importance_rank":2,"importance":"regional_core","airport_type":"specific_local","status_category":"active"},"geometry":{"type":"Point","coordinates":[8.087642132147396,48.777959965483895]}},{"type":"Feature","properties":{"id":"DEBKGPOI0000002J","name":"Lahr","icao":"EDTL","facility_type":"Sonderflughafen","importance_rank":2,"importance":"regional_core","airport_type":"specific_local","status_category":"active"},"geometry":{"type":"Point","coordinates":[7.824184335175111,48.35811253371173]}},{"type":"Feature","properties":{"id":"DEBKGPOI0000002K","name":"Friedrichshafen","icao":"EDNY","facility_type":"regional","importance_rank":2,"importance":"regional_core","airport_type":"specific_local","status_category":"active"},"geometry":{"type":"Point","coordinates":[9.524310668327624,47.67308858041561]}},{"type":"Feature","properties":{"id":"DEBKGPOI0000002L","name":"München","icao":"EDDM","facility_type":"international","importance_rank":2,"importance":"regional_core","airport_type":"specific_local","status_category":"active"},"geometry":{"type":"Point","coordinates":[11.790460386062128,48.354115727684565]}},{"type":"Feature","properties":{"id":"DEBKGPOI0000002M","name":"Ingolstadt/Manching","icao":"ETSI","facility_type":"Sonderflughafen","importance_rank":2,"importance":"regional_core","airport_type":"specific_local","status_category":"active"},"geometry":{"type":"Point","coordinates":[11.551602510939254,48.72328602245413]}},{"type":"Feature","properties":{"id":"DEBKGPOI0000002N","name":"Oberpfaffenhofen","icao":"EDMO","facility_type":"Sonderflughafen","importance_rank":2,"importance":"regional_core","airport_type":"specific_local","status_category":"active"},"geometry":{"type":"Point","coordinates":[11.293387372606956,48.08898304312527]}},{"type":"Feature","properties":{"id":"DEBKGPOI0000002O","name":"Nürnberg","icao":"EDDN","facility_type":"international","importance_rank":2,"importance":"regional_core","airport_type":"specific_local","status_category":"active"},"geometry":{"type":"Point","coordinates":[11.07924886419009,49.494133922397374]}},{"type":"Feature","properties":{"id":"DEBKGPOI0000002P","name":"Memmingen","icao":"EDJA","facility_type":"regional","importance_rank":2,"importance":"regional_core","airport_type":"specific_local","status_category":"active"},"geometry":{"type":"Point","coordinates":[10.23252484499888,47.98937178018021]}},{"type":"Feature","properties":{"id":"DEBKGPOI0000002Q","name":"Berlin-Brandenburg","icao":"EDDB","facility_type":"international","importance_rank":2,"importance":"regional_core","airport_type":"specific_local","status_category":"active"},"geometry":{"type":"Point","coordinates":[13.508750420726233,52.3642001975387]}},{"type":"Feature","properties":{"id":"DEBKGPOI0000002R","name":"Strausberg","icao":"EDAY","facility_type":"regional","importance_rank":2,"importance":"regional_core","airport_type":"specific_local","status_category":"active"},"geometry":{"type":"Point","coordinates":[13.915393149685201,52.58123419878775]}},{"type":"Feature","properties":{"id":"DEBKGPOI0000002S","name":"Bremen","icao":"EDDW","facility_type":"international","importance_rank":2,"importance":"regional_core","airport_type":"specific_local","status_category":"active"},"geometry":{"type":"Point","coordinates":[8.78553973861298,53.0525115459362]}},{"type":"Feature","properties":{"id":"DEBKGPOI0000002T","name":"Hamburg","icao":"EDDH","facility_type":"international","importance_rank":2,"importance":"regional_core","airport_type":"specific_local","status_category":"active"},"geometry":{"type":"Point","coordinates":[10.006085285179422,53.63310028952568]}},{"type":"Feature","properties":{"id":"DEBKGPOI0000002U","name":"Frankfurt am Main","icao":"EDDF","facility_type":"international","importance_rank":2,"importance":"regional_core","airport_type":"specific_local","status_category":"active"},"geometry":{"type":"Point","coordinates":[8.571660942003408,50.05075933411053]}},{"type":"Feature","properties":{"id":"DEBKGPOI0000002V","name":"Kassel-Calden","icao":"EDVK","facility_type":"regional","importance_rank":2,"importance":"regional_core","airport_type":"specific_local","status_category":"active"},"geometry":{"type":"Point","coordinates":[9.386091014023176,51.416276451562545]}},{"type":"Feature","properties":{"id":"DEBKGPOI0000002W","name":"Neubrandenburg","icao":"EDBN","facility_type":"regional","importance_rank":2,"importance":"regional_core","airport_type":"specific_local","status_category":"active"},"geometry":{"type":"Point","coordinates":[13.299372228426398,53.60461231298061]}},{"type":"Feature","properties":{"id":"DEBKGPOI0000002X","name":"Laage","icao":"ETNL","facility_type":"regional","importance_rank":2,"importance":"regional_core","airport_type":"specific_local","status_category":"active"},"geometry":{"type":"Point","coordinates":[12.286390251304336,53.91398098902885]}},{"type":"Feature","properties":{"id":"DEBKGPOI0000002Y","name":"Barth","icao":"EDBH","facility_type":"regional","importance_rank":2,"importance":"regional_core","airport_type":"specific_local","status_category":"active"},"geometry":{"type":"Point","coordinates":[12.7154156266023,54.33596247085227]}},{"type":"Feature","properties":{"id":"DEBKGPOI0000002Z","name":"Heringsdorf","icao":"EDAH","facility_type":"regional","importance_rank":2,"importance":"regional_core","airport_type":"specific_local","status_category":"active"},"geometry":{"type":"Point","coordinates":[14.138933676783239,53.87850837916332]}},{"type":"Feature","properties":{"id":"DEBKGPOI00000030","name":"Braunschweig-Wolfsburg","icao":"EDVE","facility_type":"regional","importance_rank":2,"importance":"regional_core","airport_type":"specific_local","status_category":"active"},"geometry":{"type":"Point","coordinates":[10.559743334077663,52.31632828436391]}},{"type":"Feature","properties":{"id":"DEBKGPOI00000031","name":"Hannover","icao":"EDDV","facility_type":"international","importance_rank":2,"importance":"regional_core","airport_type":"specific_local","status_category":"active"},"geometry":{"type":"Point","coordinates":[9.694597448037536,52.45926900418549]}},{"type":"Feature","properties":{"id":"DEBKGPOI00000032","name":"Nordholz","icao":"ETMN","facility_type":"regional","importance_rank":2,"importance":"regional_core","airport_type":"specific_local","status_category":"active"},"geometry":{"type":"Point","coordinates":[8.672904082454851,53.76244777317222]}},{"type":"Feature","properties":{"id":"DEBKGPOI00000033","name":"Düsseldorf","icao":"EDDL","facility_type":"international","importance_rank":2,"importance":"regional_core","airport_type":"specific_local","status_category":"active"},"geometry":{"type":"Point","coordinates":[6.765390286166291,51.27902219033399]}},{"type":"Feature","properties":{"id":"DEBKGPOI00000034","name":"Essen/Mülheim","icao":"EDLE","facility_type":"regional","importance_rank":2,"importance":"regional_core","airport_type":"specific_local","status_category":"active"},"geometry":{"type":"Point","coordinates":[6.939219182478248,51.407050922155115]}},{"type":"Feature","properties":{"id":"DEBKGPOI00000035","name":"Niederrhein","icao":"EDLV","facility_type":"regional","importance_rank":2,"importance":"regional_core","airport_type":"specific_local","status_category":"active"},"geometry":{"type":"Point","coordinates":[6.150405343303524,51.59930298228533]}},{"type":"Feature","properties":{"id":"DEBKGPOI00000036","name":"Köln/Bonn","icao":"EDDK","facility_type":"international","importance_rank":2,"importance":"regional_core","airport_type":"specific_local","status_category":"active"},"geometry":{"type":"Point","coordinates":[7.122486842746374,50.87831849167805]}},{"type":"Feature","properties":{"id":"DEBKGPOI00000037","name":"Münster/Osnabrück","icao":"EDDG","facility_type":"international","importance_rank":2,"importance":"regional_core","airport_type":"specific_local","status_category":"active"},"geometry":{"type":"Point","coordinates":[7.694556151200844,52.13083143270898]}},{"type":"Feature","properties":{"id":"DEBKGPOI00000038","name":"Paderborn/Lippstadt","icao":"EDLP","facility_type":"regional","importance_rank":2,"importance":"regional_core","airport_type":"specific_local","status_category":"active"},"geometry":{"type":"Point","coordinates":[8.619929916283182,51.61063711229633]}},{"type":"Feature","properties":{"id":"DEBKGPOI00000039","name":"Siegerland","icao":"EDGS","facility_type":"regional","importance_rank":2,"importance":"regional_core","airport_type":"specific_local","status_category":"active"},"geometry":{"type":"Point","coordinates":[8.076214261392899,50.70723595837679]}},{"type":"Feature","properties":{"id":"DEBKGPOI0000003A","name":"Dortmund","icao":"EDLW","facility_type":"regional","importance_rank":2,"importance":"regional_core","airport_type":"specific_local","status_category":"active"},"geometry":{"type":"Point","coordinates":[7.6130441704891805,51.51506677627754]}},{"type":"Feature","properties":{"id":"DEBKGPOI0000003B","name":"Frankfurt-Hahn","icao":"EDFH","facility_type":"regional","importance_rank":2,"importance":"regional_core","airport_type":"specific_local","status_category":"active"},"geometry":{"type":"Point","coordinates":[7.270744586460419,49.94687415801608]}},{"type":"Feature","properties":{"id":"DEBKGPOI0000003C","name":"Zweibrücken","icao":"EDRZ","facility_type":"regional","importance_rank":2,"importance":"regional_core","airport_type":"specific_local","status_category":"active"},"geometry":{"type":"Point","coordinates":[7.400132312318682,49.215870385650454]}},{"type":"Feature","properties":{"id":"DEBKGPOI0000003D","name":"Saarbrücken","icao":"EDDR","facility_type":"international","importance_rank":2,"importance":"regional_core","airport_type":"specific_local","status_category":"active"},"geometry":{"type":"Point","coordinates":[7.112785998215586,49.21993876992897]}},{"type":"Feature","properties":{"id":"DEBKGPOI0000003E","name":"Dresden","icao":"EDDC","facility_type":"international","importance_rank":2,"importance":"regional_core","airport_type":"specific_local","status_category":"active"},"geometry":{"type":"Point","coordinates":[13.76572505209094,51.124754449609405]}},{"type":"Feature","properties":{"id":"DEBKGPOI0000003F","name":"Leipzig/Halle","icao":"EDDP","facility_type":"international","importance_rank":2,"importance":"regional_core","airport_type":"specific_local","status_category":"active"},"geometry":{"type":"Point","coordinates":[12.221446517152891,51.419792903034185]}},{"type":"Feature","properties":{"id":"DEBKGPOI0000003G","name":"Magdeburg/Cochstedt","icao":"EDBC","facility_type":"regional","importance_rank":2,"importance":"regional_core","airport_type":"specific_local","status_category":"active"},"geometry":{"type":"Point","coordinates":[11.423680455722655,51.85993374107049]}},{"type":"Feature","properties":{"id":"DEBKGPOI0000003H","name":"Lübeck-Blankensee","icao":"EDHL","facility_type":"regional","importance_rank":2,"importance":"regional_core","airport_type":"specific_local","status_category":"active"},"geometry":{"type":"Point","coordinates":[10.70144203038739,53.80523416874451]}},{"type":"Feature","properties":{"id":"DEBKGPOI0000003I","name":"Sylt","icao":"EDXW","facility_type":"regional","importance_rank":2,"importance":"regional_core","airport_type":"specific_local","status_category":"active"},"geometry":{"type":"Point","coordinates":[8.330282597232129,54.91387457248665]}},{"type":"Feature","properties":{"id":"DEBKGPOI0000003J","name":"Erfurt-Weimar","icao":"EDDE","facility_type":"international","importance_rank":2,"importance":"regional_core","airport_type":"specific_local","status_category":"active"},"geometry":{"type":"Point","coordinates":[10.961158098291076,50.97507857965389]}}]}