{"type":"FeatureCollection","features":[{"type":"Feature","properties":{"id":"ru-airport-архангельскталаги","name":"Архангельск (Талаги)","certificate":"№ б/н 27.11.2014","class":"В","importance_rank":2,"importance":"regional_core","airport_type":"specific_local","status_category":"active"},"geometry":{"type":"Point","coordinates":[40.7193465,64.599469]}},{"type":"Feature","properties":{"id":"ru-airport-нарьянмар","name":"Нарьян-Мар","certificate":"№ 57 06.08.2018","class":"В","importance_rank":2,"importance":"regional_core","airport_type":"specific_local","status_category":"active"},"geometry":{"type":"Point","coordinates":[53.116514,67.6364685]}},{"type":"Feature","properties":{"id":"ru-airport-калининградхраброво","name":"Калининград (Храброво)","certificate":"№ 109 02.02.2015","class":"Б","importance_rank":3,"importance":"national_core","airport_type":"national","status_category":"active"},"geometry":{"type":"Point","coordinates":[20.5995691,54.8898638]}},{"type":"Feature","properties":{"id":"ru-airport-мурманск","name":"Мурманск","certificate":"№ 41 12.10.2016","class":"В","importance_rank":2,"importance":"regional_core","airport_type":"specific_local","status_category":"active"},"geometry":{"type":"Point","coordinates":[32.7521096,68.7809379]}},{"type":"Feature","properties":{"id":"ru-airport-левашово","name":"Левашово","certificate":"№ 1/2026 06.02.2026","class":"В","importance_rank":2,"importance":"regional_core","airport_type":"specific_local","status_category":"active"},"geometry":{"type":"Point","coordinates":[30.1914528,60.0861753]}},{"type":"Feature","properties":{"id":"ru-airport-воркута","name":"Воркута","certificate":"№ 12 10.07.2014","class":"В","importance_rank":2,"importance":"regional_core","airport_type":"specific_local","status_category":"active"},"geometry":{"type":"Point","coordinates":[63.9908673,67.4882173]}},{"type":"Feature","properties":{"id":"ru-airport-сыктывкар","name":"Сыктывкар","certificate":"№ 65 28.04.2014","class":"В","importance_rank":2,"importance":"regional_core","airport_type":"specific_local","status_category":"active"},"geometry":{"type":"Point","coordinates":[50.8503876,61.6486695]}},{"type":"Feature","properties":{"id":"ru-airport-усинск","name":"Усинск","certificate":"№ 77 16.08.2016","class":"В","importance_rank":2,"importance":"regional_core","airport_type":"specific_local","status_category":"active"},"geometry":{"type":"Point","coordinates":[57.371166,66.0011167]}},{"type":"Feature","properties":{"id":"ru-airport-ухта","name":"Ухта","certificate":"№ 72 19.11.2018","class":"В","importance_rank":2,"importance":"regional_core","airport_type":"specific_local","status_category":"active"},"geometry":{"type":"Point","coordinates":[53.8045738,63.5657378]}},{"type":"Feature","properties":{"id":"ru-airport-иркутск","name":"Иркутск","certificate":"№ 21 27.10.2014","class":"Б","importance_rank":3,"importance":"national_core","airport_type":"national","status_category":"active"},"geometry":{"type":"Point","coordinates":[104.3875737,52.2666533]}},{"type":"Feature","properties":{"id":"ru-airport-читакадала","name":"Чита (Кадала)","certificate":"№ 82 14.12.2016","class":"В","importance_rank":2,"importance":"regional_core","airport_type":"specific_local","status_category":"active"},"geometry":{"type":"Point","coordinates":[113.3100794,52.0251067]}},{"type":"Feature","properties":{"id":"ru-airport-абакан","name":"Абакан","certificate":"№ 1 21.05.2015","class":"Б","importance_rank":3,"importance":"national_core","airport_type":"national","status_category":"active"},"geometry":{"type":"Point","coordinates":[91.3883103,53.7409196]}},{"type":"Feature","properties":{"id":"ru-airport-енисейск","name":"Енисейск","certificate":"№ 17 11.03.2022","class":"В","importance_rank":2,"importance":"regional_core","airport_type":"specific_local","status_category":"active"},"geometry":{"type":"Point","coordinates":[92.1080317,58.4760261]}},{"type":"Feature","properties":{"id":"ru-airport-игарка","name":"Игарка","certificate":"№ 20 10.09.2018","class":"В","importance_rank":2,"importance":"regional_core","airport_type":"specific_local","status_category":"active"},"geometry":{"type":"Point","coordinates":[86.6301048,67.4342403]}},{"type":"Feature","properties":{"id":"ru-airport-кызыл","name":"Кызыл","certificate":"№ 33 20.07.2020","class":"В","importance_rank":2,"importance":"regional_core","airport_type":"specific_local","status_category":"active"},"geometry":{"type":"Point","coordinates":[94.4009642,51.6690633]}},{"type":"Feature","properties":{"id":"ru-airport-хатанга","name":"Хатанга","certificate":"№ 79 22.03.2016","class":"В","importance_rank":2,"importance":"regional_core","airport_type":"specific_local","status_category":"active"},"geometry":{"type":"Point","coordinates":[102.4986186,71.9791456]}},{"type":"Feature","properties":{"id":"ru-airport-горноалтайск","name":"Горно-Алтайск","certificate":"№ 34 01.11.2016","class":"В","importance_rank":2,"importance":"regional_core","airport_type":"specific_local","status_category":"active"},"geometry":{"type":"Point","coordinates":[85.8353139,51.9673329]}},{"type":"Feature","properties":{"id":"ru-airport-омскцентральный","name":"Омск (Центральный)","certificate":"№ 52 07.10.2016","class":"В","importance_rank":2,"importance":"regional_core","airport_type":"specific_local","status_category":"active"},"geometry":{"type":"Point","coordinates":[73.3099441,54.9633158]}},{"type":"Feature","properties":{"id":"ru-airport-стрежевой","name":"Стрежевой","certificate":"№ 66 24.02.2015","class":"В","importance_rank":2,"importance":"regional_core","airport_type":"specific_local","status_category":"active"},"geometry":{"type":"Point","coordinates":[77.656593,60.7118598]}},{"type":"Feature","properties":{"id":"ru-airport-белоярский","name":"Белоярский","certificate":"№ 7 15.05.2015","class":"В","importance_rank":2,"importance":"regional_core","airport_type":"specific_local","status_category":"active"},"geometry":{"type":"Point","coordinates":[66.6985298,63.6888208]}},{"type":"Feature","properties":{"id":"ru-airport-бованенково","name":"Бованенково","certificate":"№ 3 30.10.2017","class":"Б","importance_rank":3,"importance":"national_core","airport_type":"national","status_category":"active"},"geometry":{"type":"Point","coordinates":[68.3335831,70.3151308]}},{"type":"Feature","properties":{"id":"ru-airport-когалым","name":"Когалым","certificate":"№ 23 31.05.2018","class":"В","importance_rank":2,"importance":"regional_core","airport_type":"specific_local","status_category":"active"},"geometry":{"type":"Point","coordinates":[74.5325509,62.1902391]}},{"type":"Feature","properties":{"id":"ru-airport-надым","name":"Надым","certificate":"№ 42 16.07.2014","class":"В","importance_rank":2,"importance":"regional_core","airport_type":"specific_local","status_category":"active"},"geometry":{"type":"Point","coordinates":[72.6962918,65.4839246]}},{"type":"Feature","properties":{"id":"ru-airport-нижневартовск","name":"Нижневартовск","certificate":"№ 45 23.10.2017","class":"Б","importance_rank":3,"importance":"national_core","airport_type":"national","status_category":"active"},"geometry":{"type":"Point","coordinates":[76.4823322,60.9497636]}},{"type":"Feature","properties":{"id":"ru-airport-новыйуренгой","name":"Новый Уренгой","certificate":"№ 48 25.08.2014","class":"В","importance_rank":2,"importance":"regional_core","airport_type":"specific_local","status_category":"active"},"geometry":{"type":"Point","coordinates":[76.5229357,66.0700056]}},{"type":"Feature","properties":{"id":"ru-airport-ноябрьск","name":"Ноябрьск","certificate":"№ 50 12.12.2018","class":"В","importance_rank":2,"importance":"regional_core","airport_type":"specific_local","status_category":"active"},"geometry":{"type":"Point","coordinates":[75.2691619,63.1847954]}},{"type":"Feature","properties":{"id":"ru-airport-нягань","name":"Нягань","certificate":"№ 92 10.10.2014","class":"В","importance_rank":2,"importance":"regional_core","airport_type":"specific_local","status_category":"active"},"geometry":{"type":"Point","coordinates":[65.6095592,62.1106303]}},{"type":"Feature","properties":{"id":"ru-airport-сабетта","name":"Сабетта","certificate":"№ 74 09.12.2014","class":"Б","importance_rank":3,"importance":"national_core","airport_type":"national","status_category":"active"},"geometry":{"type":"Point","coordinates":[72.0231486,71.2123288]}},{"type":"Feature","properties":{"id":"ru-airport-салехард","name":"Салехард","certificate":"№ 101 13.11.2017","class":"В","importance_rank":2,"importance":"regional_core","airport_type":"specific_local","status_category":"active"},"geometry":{"type":"Point","coordinates":[66.6156126,66.5921319]}},{"type":"Feature","properties":{"id":"ru-airport-советский","name":"Советский","certificate":"№ 89 08.09.2014","class":"В","importance_rank":2,"importance":"regional_core","airport_type":"specific_local","status_category":"active"},"geometry":{"type":"Point","coordinates":[34.9432232,45.3554613]}},{"type":"Feature","properties":{"id":"ru-airport-сургут","name":"Сургут","certificate":"№ 64 14.12.2016","class":"Б","importance_rank":3,"importance":"national_core","airport_type":"national","status_category":"active"},"geometry":{"type":"Point","coordinates":[73.3970229,61.3414652]}},{"type":"Feature","properties":{"id":"ru-airport-тобольскремезов","name":"Тобольск (Ремезов)","certificate":"№ 87 10.09.2021","class":"В","importance_rank":2,"importance":"regional_core","airport_type":"specific_local","status_category":"active"},"geometry":{"type":"Point","coordinates":[68.3480787,58.0597243]}},{"type":"Feature","properties":{"id":"ru-airport-урай","name":"Урай","certificate":"№ 75 03.06.2015","class":"В","importance_rank":2,"importance":"regional_core","airport_type":"specific_local","status_category":"active"},"geometry":{"type":"Point","coordinates":[64.8259334,60.1072372]}},{"type":"Feature","properties":{"id":"ru-airport-хантымансийск","name":"Ханты – Мансийск","certificate":"№ 100 14.12.2016","class":"Б","importance_rank":3,"importance":"national_core","airport_type":"national","status_category":"active"},"geometry":{"type":"Point","coordinates":[69.0869646,61.0289438]}},{"type":"Feature","properties":{"id":"ru-airport-ямбург","name":"Ямбург","certificate":"№ 94 20.03.2015","class":"В","importance_rank":2,"importance":"regional_core","airport_type":"specific_local","status_category":"active"},"geometry":{"type":"Point","coordinates":[75.092708,67.9897117]}},{"type":"Feature","properties":{"id":"ru-airport-мирный","name":"Мирный","certificate":"№ 40 25.08.2014","class":"В","importance_rank":2,"importance":"regional_core","airport_type":"specific_local","status_category":"active"},"geometry":{"type":"Point","coordinates":[38.3314184,45.2617867]}},{"type":"Feature","properties":{"id":"ru-airport-нерюнгри","name":"Нерюнгри","certificate":"№ 43 23.06.2014","class":"В","importance_rank":2,"importance":"regional_core","airport_type":"specific_local","status_category":"active"},"geometry":{"type":"Point","coordinates":[124.9129441,56.9110302]}},{"type":"Feature","properties":{"id":"ru-airport-полярный","name":"Полярный","certificate":"№ 56 09.07.2014","class":"В","importance_rank":2,"importance":"regional_core","airport_type":"specific_local","status_category":"active"},"geometry":{"type":"Point","coordinates":[112.030014,66.4004802]}},{"type":"Feature","properties":{"id":"ru-airport-талакан","name":"Талакан","certificate":"№ 63 06.12.2017","class":"В","importance_rank":2,"importance":"regional_core","airport_type":"specific_local","status_category":"active"},"geometry":{"type":"Point","coordinates":[111.0399503,59.8819605]}},{"type":"Feature","properties":{"id":"ru-airport-якутск","name":"Якутск","certificate":"№ 86 21.05.2015","class":"Б","importance_rank":3,"importance":"national_core","airport_type":"national","status_category":"active"},"geometry":{"type":"Point","coordinates":[129.7721319,62.0914375]}},{"type":"Feature","properties":{"id":"ru-airport-ижевск","name":"Ижевск","certificate":"№ 18 27.11.2014","class":"В","importance_rank":2,"importance":"regional_core","airport_type":"specific_local","status_category":"active"},"geometry":{"type":"Point","coordinates":[53.4582769,56.8369643]}},{"type":"Feature","properties":{"id":"ru-airport-йошкарола","name":"Йошкар-Ола","certificate":"№ 22 14.07.2021","class":"В","importance_rank":2,"importance":"regional_core","airport_type":"specific_local","status_category":"active"},"geometry":{"type":"Point","coordinates":[47.8937696,56.7060731]}},{"type":"Feature","properties":{"id":"ru-airport-казань","name":"Казань","certificate":"№ 26 16.07.2014","class":"А","importance_rank":3,"importance":"national_core","airport_type":"national","status_category":"active"},"geometry":{"type":"Point","coordinates":[49.27852,55.6074545]}},{"type":"Feature","properties":{"id":"ru-airport-нижнийновгородстригино","name":"Нижний Новгород (Стригино)","certificate":"№ 51 05.12.2016","class":"Б","importance_rank":3,"importance":"national_core","airport_type":"national","status_category":"active"},"geometry":{"type":"Point","coordinates":[43.7850091,56.2292847]}},{"type":"Feature","properties":{"id":"ru-airport-оренбург","name":"Оренбург","certificate":"№ 53 11.03.2014","class":"В","importance_rank":2,"importance":"regional_core","airport_type":"specific_local","status_category":"active"},"geometry":{"type":"Point","coordinates":[55.4555887,51.795782]}},{"type":"Feature","properties":{"id":"ru-airport-орск","name":"Орск","certificate":"№ 93 18.12.2014","class":"В","importance_rank":2,"importance":"regional_core","airport_type":"specific_local","status_category":"active"},"geometry":{"type":"Point","coordinates":[58.5962744,51.0735409]}},{"type":"Feature","properties":{"id":"ru-airport-саранск","name":"Саранск","certificate":"№ 61 16.01.2018","class":"В","importance_rank":2,"importance":"regional_core","airport_type":"specific_local","status_category":"active"},"geometry":{"type":"Point","coordinates":[45.2136345,54.1279637]}},{"type":"Feature","properties":{"id":"ru-airport-ульяновскбаратаевка","name":"Ульяновск (Баратаевка)","certificate":"№ 71 05.09.2018","class":"Б","importance_rank":3,"importance":"national_core","airport_type":"national","status_category":"active"},"geometry":{"type":"Point","coordinates":[48.2240987,54.2688771]}},{"type":"Feature","properties":{"id":"ru-airport-ульяновсквосточный","name":"Ульяновск (Восточный)","certificate":"№ 91 С 01.07.2014","class":"А","importance_rank":3,"importance":"national_core","airport_type":"national","status_category":"active"},"geometry":{"type":"Point","coordinates":[48.8032277,54.4024068]}},{"type":"Feature","properties":{"id":"ru-airport-чебоксары","name":"Чебоксары","certificate":"№ 80 28.08.2014","class":"В","importance_rank":2,"importance":"regional_core","airport_type":"specific_local","status_category":"active"},"geometry":{"type":"Point","coordinates":[47.3444036,56.0881124]}},{"type":"Feature","properties":{"id":"ru-airport-петропавловсккамчатскийелизово","name":"Петропавловск- Камчатский (Елизово)","certificate":"№ б/н 31.05.2016","class":"А","importance_rank":3,"importance":"national_core","airport_type":"national","status_category":"active"},"geometry":{"type":"Point","coordinates":[158.4472334,53.1685891]}},{"type":"Feature","properties":{"id":"ru-airport-белгород","name":"Белгород","certificate":"№ 6 30.09.2016","class":"В","importance_rank":2,"importance":"regional_core","airport_type":"specific_local","status_category":"active"},"geometry":{"type":"Point","coordinates":[36.5900644,50.6453062]}},{"type":"Feature","properties":{"id":"ru-airport-брянск","name":"Брянск","certificate":"№ 95 03.03.2014","class":"В","importance_rank":2,"importance":"regional_core","airport_type":"specific_local","status_category":"active"},"geometry":{"type":"Point","coordinates":[34.1788739,53.21423]}},{"type":"Feature","properties":{"id":"ru-airport-ивановоюжный","name":"Иваново (Южный)","certificate":"№ 19 12.01.2018","class":"В","importance_rank":2,"importance":"regional_core","airport_type":"specific_local","status_category":"active"},"geometry":{"type":"Point","coordinates":[40.9331696,56.941288]}},{"type":"Feature","properties":{"id":"ru-airport-кубинка","name":"Кубинка","certificate":"№ б/н 21.04.2011","class":"В","importance_rank":2,"importance":"regional_core","airport_type":"specific_local","status_category":"active"},"geometry":{"type":"Point","coordinates":[36.6451471,55.6113786]}},{"type":"Feature","properties":{"id":"ru-airport-липецк","name":"Липецк","certificate":"№ 35 26.08.2014","class":"В","importance_rank":2,"importance":"regional_core","airport_type":"specific_local","status_category":"active"},"geometry":{"type":"Point","coordinates":[39.5315652,52.7038064]}},{"type":"Feature","properties":{"id":"ru-airport-остафьево","name":"Остафьево","certificate":"№ 98-Г 26.11.2015","class":"В","importance_rank":2,"importance":"regional_core","airport_type":"specific_local","status_category":"active"},"geometry":{"type":"Point","coordinates":[37.5070701,55.5122355]}},{"type":"Feature","properties":{"id":"ru-airport-тамбовдонское","name":"Тамбов (Донское)","certificate":"№ 67 16.02.2018","class":"В","importance_rank":2,"importance":"regional_core","airport_type":"specific_local","status_category":"active"},"geometry":{"type":"Point","coordinates":[41.4825479,52.8062026]}},{"type":"Feature","properties":{"id":"ru-airport-чкаловский","name":"Чкаловский","certificate":"№ б/н 15.09.2003","class":"А","importance_rank":3,"importance":"national_core","airport_type":"national","status_category":"active"},"geometry":{"type":"Point","coordinates":[35.2034703,45.0731796]}},{"type":"Feature","properties":{"id":"ru-airport-анадырьугольный","name":"Анадырь (Угольный)","certificate":"№ 37 19.12.2017","class":"А","importance_rank":3,"importance":"national_core","airport_type":"national","status_category":"active"},"geometry":{"type":"Point","coordinates":[177.7375124,64.7359199]}},{"type":"Feature","properties":{"id":"ru-airport-кепервеем","name":"Кепервеем","certificate":"№ 115 26.12.2018","class":"В","importance_rank":2,"importance":"regional_core","airport_type":"specific_local","status_category":"active"},"geometry":{"type":"Point","coordinates":[166.1444475,67.8467798]}},{"type":"Feature","properties":{"id":"ru-airport-магадансокол","name":"Магадан (Сокол)","certificate":"№ 36 29.02.2016","class":"Б","importance_rank":3,"importance":"national_core","airport_type":"national","status_category":"active"},"geometry":{"type":"Point","coordinates":[150.7181531,59.9148133]}},{"type":"Feature","properties":{"id":"ru-airport-певек","name":"Певек","certificate":"№ 54 26.11.2014","class":"В","importance_rank":2,"importance":"regional_core","airport_type":"specific_local","status_category":"active"},"geometry":{"type":"Point","coordinates":[170.5967794,69.7848012]}},{"type":"Feature","properties":{"id":"ru-airport-курган","name":"Курган","certificate":"№ 32 04.06.2015","class":"В","importance_rank":2,"importance":"regional_core","airport_type":"specific_local","status_category":"active"},"geometry":{"type":"Point","coordinates":[65.4140512,55.4749111]}},{"type":"Feature","properties":{"id":"ru-airport-анапавитязево","name":"Анапа (Витязево)","certificate":"№ 113-Г 16.12.2016","class":"В","importance_rank":2,"importance":"regional_core","airport_type":"specific_local","status_category":"active"},"geometry":{"type":"Point","coordinates":[37.3480382,45.0026373]}},{"type":"Feature","properties":{"id":"ru-airport-владикавказбеслан","name":"Владикавказ (Беслан)","certificate":"№ 8 30.07.2014","class":"В","importance_rank":2,"importance":"regional_core","airport_type":"specific_local","status_category":"active"},"geometry":{"type":"Point","coordinates":[44.6075728,43.2046254]}},{"type":"Feature","properties":{"id":"ru-airport-волгоградгумрак","name":"Волгоград (Гумрак)","certificate":"№ 11 02.06.2014","class":"В","importance_rank":2,"importance":"regional_core","airport_type":"specific_local","status_category":"active"},"geometry":{"type":"Point","coordinates":[44.3412548,48.7831351]}},{"type":"Feature","properties":{"id":"ru-airport-геленджик","name":"Геленджик","certificate":"№ 4 30.04.2015","class":"Б","importance_rank":3,"importance":"national_core","airport_type":"national","status_category":"active"},"geometry":{"type":"Point","coordinates":[38.0162271,44.5819273]}},{"type":"Feature","properties":{"id":"ru-airport-геленджикбухта","name":"Геленджик (Бухта)","certificate":"№ 111-С 23.07.2018","class":"В","importance_rank":2,"importance":"regional_core","airport_type":"specific_local","status_category":"active"},"geometry":{"type":"Point","coordinates":[38.022745,44.5779751]}},{"type":"Feature","properties":{"id":"ru-airport-грозныйсеверный","name":"Грозный (Северный)","certificate":"№ 14 27.12.2017","class":"В","importance_rank":2,"importance":"regional_core","airport_type":"specific_local","status_category":"active"},"geometry":{"type":"Point","coordinates":[45.7032521,43.3870228]}},{"type":"Feature","properties":{"id":"ru-airport-краснодарпашковский","name":"Краснодар (Пашковский)","certificate":"","class":"Б","importance_rank":3,"importance":"national_core","airport_type":"national","status_category":"active"},"geometry":{"type":"Point","coordinates":[39.1731745,45.0337393]}},{"type":"Feature","properties":{"id":"ru-airport-магас","name":"Магас","certificate":"№ 106 22.03.2016","class":"В","importance_rank":2,"importance":"regional_core","airport_type":"specific_local","status_category":"active"},"geometry":{"type":"Point","coordinates":[45.0128076,43.3193042]}},{"type":"Feature","properties":{"id":"ru-airport-минеральныеводы","name":"Минеральные Воды","certificate":"№ 39 29.07.2014","class":"Б","importance_rank":3,"importance":"national_core","airport_type":"national","status_category":"active"},"geometry":{"type":"Point","coordinates":[43.082885,44.2260986]}},{"type":"Feature","properties":{"id":"ru-airport-махачкалауйташ","name":"Махачкала (Уйташ)","certificate":"№ 38 18.12.2014","class":"В","importance_rank":2,"importance":"regional_core","airport_type":"specific_local","status_category":"active"},"geometry":{"type":"Point","coordinates":[47.6521691,42.8137979]}},{"type":"Feature","properties":{"id":"ru-airport-сочи","name":"Сочи","certificate":"№ 62 08.08.2018","class":"В","importance_rank":2,"importance":"regional_core","airport_type":"specific_local","status_category":"active"},"geometry":{"type":"Point","coordinates":[39.9424542,43.4439523]}},{"type":"Feature","properties":{"id":"ru-airport-ставропольшпаковское","name":"Ставрополь (Шпаковское)","certificate":"№ 107 05.12.2014","class":"B","importance_rank":3,"importance":"national_core","airport_type":"national","status_category":"active"},"geometry":{"type":"Point","coordinates":[42.1134917,45.1110073]}},{"type":"Feature","properties":{"id":"ru-airport-таганрогюжный","name":"Таганрог (Южный)","certificate":"№ 97-С 04.05.2017","class":"В","importance_rank":2,"importance":"regional_core","airport_type":"specific_local","status_category":"active"},"geometry":{"type":"Point","coordinates":[38.8488664,47.1968312]}},{"type":"Feature","properties":{"id":"ru-airport-элиста","name":"Элиста","certificate":"№ 99 02.11.2015","class":"Б","importance_rank":3,"importance":"national_core","airport_type":"national","status_category":"active"},"geometry":{"type":"Point","coordinates":[44.3255934,46.3717317]}},{"type":"Feature","properties":{"id":"ru-airport-владивостоккневичи","name":"Владивосток (Кневичи)","certificate":"№ б/н 21.02.2014","class":"А","importance_rank":3,"importance":"national_core","airport_type":"national","status_category":"active"},"geometry":{"type":"Point","coordinates":[132.1464045,43.3927252]}},{"type":"Feature","properties":{"id":"ru-airport-южносахалинскхомутово","name":"Южно-Сахалинск (Хомутово)","certificate":"№ 85 21.08.2015","class":"А","importance_rank":3,"importance":"national_core","airport_type":"national","status_category":"active"},"geometry":{"type":"Point","coordinates":[142.7206753,46.8846946]}}]}